<?xml version="1.0" encoding="UTF-8"?>
<gpx version="1.1" creator="stikart_web trailguide-snapshot" xmlns="http://www.topografix.com/GPX/1/1">
 <trk><name>AFC</name><desc>Fra Trailguide (trailguide.net), gradering: red. 1719 m, 187 m nedfart.</desc><trkseg>
  <trkpt lat="59.688626" lon="9.666191"><ele>412.0</ele></trkpt>
  <trkpt lat="59.688602" lon="9.666108"><ele>411.0</ele></trkpt>
  <trkpt lat="59.688564" lon="9.666068"><ele>411.0</ele></trkpt>
  <trkpt lat="59.688505" lon="9.666080"><ele>411.0</ele></trkpt>
  <trkpt lat="59.688388" lon="9.666048"><ele>410.0</ele></trkpt>
  <trkpt lat="59.688272" lon="9.666110"><ele>409.0</ele></trkpt>
  <trkpt lat="59.688191" lon="9.666066"><ele>408.0</ele></trkpt>
  <trkpt lat="59.688163" lon="9.666141"><ele>407.0</ele></trkpt>
  <trkpt lat="59.688046" lon="9.666210"><ele>405.0</ele></trkpt>
  <trkpt lat="59.687957" lon="9.666201"><ele>404.0</ele></trkpt>
  <trkpt lat="59.687852" lon="9.666253"><ele>403.0</ele></trkpt>
  <trkpt lat="59.687705" lon="9.666203"><ele>401.0</ele></trkpt>
  <trkpt lat="59.687674" lon="9.666154"><ele>401.0</ele></trkpt>
  <trkpt lat="59.687635" lon="9.666133"><ele>400.0</ele></trkpt>
  <trkpt lat="59.687539" lon="9.666146"><ele>399.0</ele></trkpt>
  <trkpt lat="59.687392" lon="9.666250"><ele>397.0</ele></trkpt>
  <trkpt lat="59.687280" lon="9.666261"><ele>396.0</ele></trkpt>
  <trkpt lat="59.687157" lon="9.666176"><ele>396.0</ele></trkpt>
  <trkpt lat="59.687014" lon="9.665958"><ele>395.0</ele></trkpt>
  <trkpt lat="59.686952" lon="9.665895"><ele>394.0</ele></trkpt>
  <trkpt lat="59.686810" lon="9.665843"><ele>393.0</ele></trkpt>
  <trkpt lat="59.686767" lon="9.665815"><ele>392.0</ele></trkpt>
  <trkpt lat="59.686738" lon="9.665761"><ele>392.0</ele></trkpt>
  <trkpt lat="59.686654" lon="9.665715"><ele>391.0</ele></trkpt>
  <trkpt lat="59.686496" lon="9.665666"><ele>389.0</ele></trkpt>
  <trkpt lat="59.686243" lon="9.665764"><ele>387.0</ele></trkpt>
  <trkpt lat="59.686116" lon="9.665792"><ele>386.0</ele></trkpt>
  <trkpt lat="59.686060" lon="9.665834"><ele>386.0</ele></trkpt>
  <trkpt lat="59.685996" lon="9.665823"><ele>386.0</ele></trkpt>
  <trkpt lat="59.685821" lon="9.665722"><ele>387.0</ele></trkpt>
  <trkpt lat="59.685641" lon="9.665529"><ele>388.0</ele></trkpt>
  <trkpt lat="59.685476" lon="9.665391"><ele>388.0</ele></trkpt>
  <trkpt lat="59.685439" lon="9.665374"><ele>387.0</ele></trkpt>
  <trkpt lat="59.685360" lon="9.665399"><ele>387.0</ele></trkpt>
  <trkpt lat="59.685180" lon="9.665325"><ele>384.0</ele></trkpt>
  <trkpt lat="59.685098" lon="9.665338"><ele>383.0</ele></trkpt>
  <trkpt lat="59.685064" lon="9.665348"><ele>383.0</ele></trkpt>
  <trkpt lat="59.685032" lon="9.665382"><ele>383.0</ele></trkpt>
  <trkpt lat="59.684957" lon="9.665493"><ele>382.0</ele></trkpt>
  <trkpt lat="59.684793" lon="9.665574"><ele>380.0</ele></trkpt>
  <trkpt lat="59.684752" lon="9.665684"><ele>379.0</ele></trkpt>
  <trkpt lat="59.684670" lon="9.665633"><ele>377.0</ele></trkpt>
  <trkpt lat="59.684593" lon="9.665528"><ele>375.0</ele></trkpt>
  <trkpt lat="59.684545" lon="9.665542"><ele>374.0</ele></trkpt>
  <trkpt lat="59.684497" lon="9.665579"><ele>372.0</ele></trkpt>
  <trkpt lat="59.684398" lon="9.665682"><ele>370.0</ele></trkpt>
  <trkpt lat="59.684331" lon="9.665701"><ele>367.0</ele></trkpt>
  <trkpt lat="59.684308" lon="9.665688"><ele>367.0</ele></trkpt>
  <trkpt lat="59.684237" lon="9.665696"><ele>366.0</ele></trkpt>
  <trkpt lat="59.684185" lon="9.665732"><ele>365.0</ele></trkpt>
  <trkpt lat="59.684161" lon="9.665771"><ele>366.0</ele></trkpt>
  <trkpt lat="59.684104" lon="9.665943"><ele>367.0</ele></trkpt>
  <trkpt lat="59.684122" lon="9.666229"><ele>368.0</ele></trkpt>
  <trkpt lat="59.684169" lon="9.666406"><ele>368.0</ele></trkpt>
  <trkpt lat="59.684169" lon="9.666504"><ele>369.0</ele></trkpt>
  <trkpt lat="59.684233" lon="9.666713"><ele>369.0</ele></trkpt>
  <trkpt lat="59.684164" lon="9.666873"><ele>370.0</ele></trkpt>
  <trkpt lat="59.684149" lon="9.667008"><ele>369.0</ele></trkpt>
  <trkpt lat="59.684115" lon="9.667125"><ele>368.0</ele></trkpt>
  <trkpt lat="59.684079" lon="9.667134"><ele>367.0</ele></trkpt>
  <trkpt lat="59.684058" lon="9.667091"><ele>367.0</ele></trkpt>
  <trkpt lat="59.684003" lon="9.667049"><ele>367.0</ele></trkpt>
  <trkpt lat="59.683918" lon="9.667024"><ele>367.0</ele></trkpt>
  <trkpt lat="59.683746" lon="9.666915"><ele>366.0</ele></trkpt>
  <trkpt lat="59.683701" lon="9.666937"><ele>365.0</ele></trkpt>
  <trkpt lat="59.683564" lon="9.666922"><ele>364.0</ele></trkpt>
  <trkpt lat="59.683500" lon="9.666862"><ele>363.0</ele></trkpt>
  <trkpt lat="59.683403" lon="9.666804"><ele>362.0</ele></trkpt>
  <trkpt lat="59.683351" lon="9.666809"><ele>361.0</ele></trkpt>
  <trkpt lat="59.683308" lon="9.666735"><ele>360.0</ele></trkpt>
  <trkpt lat="59.683238" lon="9.666694"><ele>359.0</ele></trkpt>
  <trkpt lat="59.683166" lon="9.666602"><ele>359.0</ele></trkpt>
  <trkpt lat="59.683090" lon="9.666464"><ele>357.0</ele></trkpt>
  <trkpt lat="59.682805" lon="9.666199"><ele>353.0</ele></trkpt>
  <trkpt lat="59.682757" lon="9.666040"><ele>352.0</ele></trkpt>
  <trkpt lat="59.682670" lon="9.665943"><ele>351.0</ele></trkpt>
  <trkpt lat="59.682621" lon="9.665820"><ele>351.0</ele></trkpt>
  <trkpt lat="59.682560" lon="9.665729"><ele>350.0</ele></trkpt>
  <trkpt lat="59.682427" lon="9.665594"><ele>349.0</ele></trkpt>
  <trkpt lat="59.682396" lon="9.665484"><ele>349.0</ele></trkpt>
  <trkpt lat="59.682326" lon="9.665338"><ele>348.0</ele></trkpt>
  <trkpt lat="59.682170" lon="9.665278"><ele>349.0</ele></trkpt>
  <trkpt lat="59.681949" lon="9.665266"><ele>351.0</ele></trkpt>
  <trkpt lat="59.681925" lon="9.665236"><ele>351.0</ele></trkpt>
  <trkpt lat="59.681771" lon="9.665140"><ele>352.0</ele></trkpt>
  <trkpt lat="59.681685" lon="9.665142"><ele>352.0</ele></trkpt>
  <trkpt lat="59.681561" lon="9.665056"><ele>352.0</ele></trkpt>
  <trkpt lat="59.681520" lon="9.665045"><ele>352.0</ele></trkpt>
  <trkpt lat="59.681469" lon="9.664997"><ele>352.0</ele></trkpt>
  <trkpt lat="59.681333" lon="9.664969"><ele>350.0</ele></trkpt>
  <trkpt lat="59.681272" lon="9.664979"><ele>349.0</ele></trkpt>
  <trkpt lat="59.681163" lon="9.665036"><ele>348.0</ele></trkpt>
  <trkpt lat="59.681057" lon="9.665065"><ele>348.0</ele></trkpt>
  <trkpt lat="59.680957" lon="9.665157"><ele>347.0</ele></trkpt>
  <trkpt lat="59.680769" lon="9.665146"><ele>345.0</ele></trkpt>
  <trkpt lat="59.680698" lon="9.665174"><ele>345.0</ele></trkpt>
  <trkpt lat="59.680569" lon="9.665329"><ele>343.0</ele></trkpt>
  <trkpt lat="59.680479" lon="9.665371"><ele>343.0</ele></trkpt>
  <trkpt lat="59.680448" lon="9.665343"><ele>342.0</ele></trkpt>
  <trkpt lat="59.680393" lon="9.665213"><ele>340.0</ele></trkpt>
  <trkpt lat="59.680345" lon="9.665027"><ele>338.0</ele></trkpt>
  <trkpt lat="59.680299" lon="9.664955"><ele>337.0</ele></trkpt>
  <trkpt lat="59.680185" lon="9.664907"><ele>334.0</ele></trkpt>
  <trkpt lat="59.680071" lon="9.664709"><ele>331.0</ele></trkpt>
  <trkpt lat="59.679933" lon="9.664545"><ele>330.0</ele></trkpt>
  <trkpt lat="59.679881" lon="9.664398"><ele>329.0</ele></trkpt>
  <trkpt lat="59.679820" lon="9.664349"><ele>327.0</ele></trkpt>
  <trkpt lat="59.679793" lon="9.664202"><ele>324.0</ele></trkpt>
  <trkpt lat="59.679835" lon="9.664029"><ele>323.0</ele></trkpt>
  <trkpt lat="59.679834" lon="9.663943"><ele>322.0</ele></trkpt>
  <trkpt lat="59.679789" lon="9.663846"><ele>319.0</ele></trkpt>
  <trkpt lat="59.679730" lon="9.663800"><ele>317.0</ele></trkpt>
  <trkpt lat="59.679704" lon="9.663809"><ele>316.0</ele></trkpt>
  <trkpt lat="59.679631" lon="9.663851"><ele>314.0</ele></trkpt>
  <trkpt lat="59.679546" lon="9.663979"><ele>312.0</ele></trkpt>
  <trkpt lat="59.679458" lon="9.664043"><ele>309.0</ele></trkpt>
  <trkpt lat="59.679349" lon="9.664168"><ele>307.0</ele></trkpt>
  <trkpt lat="59.679307" lon="9.664123"><ele>304.0</ele></trkpt>
  <trkpt lat="59.679312" lon="9.663965"><ele>302.0</ele></trkpt>
  <trkpt lat="59.679356" lon="9.663720"><ele>300.0</ele></trkpt>
  <trkpt lat="59.679399" lon="9.663277"><ele>296.0</ele></trkpt>
  <trkpt lat="59.679455" lon="9.663037"><ele>295.0</ele></trkpt>
  <trkpt lat="59.679492" lon="9.662989"><ele>294.0</ele></trkpt>
  <trkpt lat="59.679552" lon="9.662832"><ele>293.0</ele></trkpt>
  <trkpt lat="59.679600" lon="9.662580"><ele>291.0</ele></trkpt>
  <trkpt lat="59.679599" lon="9.662435"><ele>289.0</ele></trkpt>
  <trkpt lat="59.679535" lon="9.662325"><ele>287.0</ele></trkpt>
  <trkpt lat="59.679443" lon="9.662291"><ele>285.0</ele></trkpt>
  <trkpt lat="59.679398" lon="9.662288"><ele>284.0</ele></trkpt>
  <trkpt lat="59.679241" lon="9.662401"><ele>280.0</ele></trkpt>
  <trkpt lat="59.679053" lon="9.662164"><ele>275.0</ele></trkpt>
  <trkpt lat="59.678972" lon="9.661952"><ele>272.0</ele></trkpt>
  <trkpt lat="59.678942" lon="9.661936"><ele>271.0</ele></trkpt>
  <trkpt lat="59.678844" lon="9.661988"><ele>270.0</ele></trkpt>
  <trkpt lat="59.678771" lon="9.662074"><ele>269.0</ele></trkpt>
  <trkpt lat="59.678614" lon="9.662194"><ele>269.0</ele></trkpt>
  <trkpt lat="59.678548" lon="9.662285"><ele>269.0</ele></trkpt>
  <trkpt lat="59.678418" lon="9.662381"><ele>268.0</ele></trkpt>
  <trkpt lat="59.678314" lon="9.662393"><ele>267.0</ele></trkpt>
  <trkpt lat="59.678265" lon="9.662417"><ele>267.0</ele></trkpt>
  <trkpt lat="59.678029" lon="9.662587"><ele>264.0</ele></trkpt>
  <trkpt lat="59.677926" lon="9.662626"><ele>263.0</ele></trkpt>
  <trkpt lat="59.677852" lon="9.662615"><ele>262.0</ele></trkpt>
  <trkpt lat="59.677792" lon="9.662635"><ele>262.0</ele></trkpt>
  <trkpt lat="59.677644" lon="9.662620"><ele>260.0</ele></trkpt>
  <trkpt lat="59.677556" lon="9.662636"><ele>260.0</ele></trkpt>
  <trkpt lat="59.677524" lon="9.662620"><ele>259.0</ele></trkpt>
  <trkpt lat="59.677455" lon="9.662456"><ele>258.0</ele></trkpt>
  <trkpt lat="59.677315" lon="9.662334"><ele>257.0</ele></trkpt>
  <trkpt lat="59.677294" lon="9.662324"><ele>256.0</ele></trkpt>
  <trkpt lat="59.677182" lon="9.662395"><ele>253.0</ele></trkpt>
  <trkpt lat="59.677160" lon="9.662347"><ele>252.0</ele></trkpt>
  <trkpt lat="59.677115" lon="9.662329"><ele>250.0</ele></trkpt>
  <trkpt lat="59.677018" lon="9.662346"><ele>246.0</ele></trkpt>
  <trkpt lat="59.676983" lon="9.662325"><ele>245.0</ele></trkpt>
  <trkpt lat="59.676905" lon="9.662215"><ele>240.0</ele></trkpt>
  <trkpt lat="59.676849" lon="9.662185"><ele>237.0</ele></trkpt>
  <trkpt lat="59.676815" lon="9.662143"><ele>235.0</ele></trkpt>
  <trkpt lat="59.676770" lon="9.662115"><ele>233.0</ele></trkpt>
  <trkpt lat="59.676720" lon="9.662122"><ele>231.0</ele></trkpt>
  <trkpt lat="59.676625" lon="9.662167"><ele>229.0</ele></trkpt>
 </trkseg></trk></gpx>