<?xml version="1.0" encoding="UTF-8"?>
<gpx version="1.1" creator="stikart_web trailguide-snapshot" xmlns="http://www.topografix.com/GPX/1/1">
 <trk><name>Bakerommen</name><desc>Fra Trailguide (trailguide.net), gradering: red. 884 m, 78 m nedfart.</desc><trkseg>
  <trkpt lat="59.653770" lon="9.619160"><ele>360.0</ele></trkpt>
  <trkpt lat="59.653940" lon="9.618840"><ele>360.0</ele></trkpt>
  <trkpt lat="59.653980" lon="9.618610"><ele>360.0</ele></trkpt>
  <trkpt lat="59.654090" lon="9.618420"><ele>360.0</ele></trkpt>
  <trkpt lat="59.654150" lon="9.618390"><ele>360.0</ele></trkpt>
  <trkpt lat="59.654200" lon="9.618420"><ele>359.0</ele></trkpt>
  <trkpt lat="59.654230" lon="9.618460"><ele>359.0</ele></trkpt>
  <trkpt lat="59.654290" lon="9.618680"><ele>359.0</ele></trkpt>
  <trkpt lat="59.654400" lon="9.618810"><ele>359.0</ele></trkpt>
  <trkpt lat="59.654470" lon="9.618800"><ele>359.0</ele></trkpt>
  <trkpt lat="59.654520" lon="9.618700"><ele>359.0</ele></trkpt>
  <trkpt lat="59.654540" lon="9.618610"><ele>359.0</ele></trkpt>
  <trkpt lat="59.654650" lon="9.618550"><ele>359.0</ele></trkpt>
  <trkpt lat="59.654680" lon="9.618560"><ele>359.0</ele></trkpt>
  <trkpt lat="59.654740" lon="9.618660"><ele>359.0</ele></trkpt>
  <trkpt lat="59.654880" lon="9.618760"><ele>359.0</ele></trkpt>
  <trkpt lat="59.655090" lon="9.619050"><ele>359.0</ele></trkpt>
  <trkpt lat="59.655220" lon="9.619080"><ele>359.0</ele></trkpt>
  <trkpt lat="59.655370" lon="9.619310"><ele>359.0</ele></trkpt>
  <trkpt lat="59.655480" lon="9.619320"><ele>359.0</ele></trkpt>
  <trkpt lat="59.655540" lon="9.619300"><ele>327.0</ele></trkpt>
  <trkpt lat="59.655700" lon="9.619370"><ele>327.0</ele></trkpt>
  <trkpt lat="59.655840" lon="9.619360"><ele>327.0</ele></trkpt>
  <trkpt lat="59.655900" lon="9.619500"><ele>327.0</ele></trkpt>
  <trkpt lat="59.655960" lon="9.619710"><ele>327.0</ele></trkpt>
  <trkpt lat="59.656060" lon="9.619660"><ele>327.0</ele></trkpt>
  <trkpt lat="59.656240" lon="9.619640"><ele>327.0</ele></trkpt>
  <trkpt lat="59.656310" lon="9.619650"><ele>327.0</ele></trkpt>
  <trkpt lat="59.656380" lon="9.619700"><ele>327.0</ele></trkpt>
  <trkpt lat="59.656610" lon="9.619630"><ele>327.0</ele></trkpt>
  <trkpt lat="59.656700" lon="9.619560"><ele>327.0</ele></trkpt>
  <trkpt lat="59.656760" lon="9.619540"><ele>327.0</ele></trkpt>
  <trkpt lat="59.656810" lon="9.619450"><ele>327.0</ele></trkpt>
  <trkpt lat="59.657270" lon="9.619240"><ele>327.0</ele></trkpt>
  <trkpt lat="59.657310" lon="9.619190"><ele>327.0</ele></trkpt>
  <trkpt lat="59.657520" lon="9.619090"><ele>327.0</ele></trkpt>
  <trkpt lat="59.657600" lon="9.619170"><ele>327.0</ele></trkpt>
  <trkpt lat="59.657650" lon="9.619420"><ele>327.0</ele></trkpt>
  <trkpt lat="59.657770" lon="9.619520"><ele>327.0</ele></trkpt>
  <trkpt lat="59.657970" lon="9.619410"><ele>327.0</ele></trkpt>
  <trkpt lat="59.658060" lon="9.619280"><ele>301.0</ele></trkpt>
  <trkpt lat="59.658120" lon="9.619280"><ele>301.0</ele></trkpt>
  <trkpt lat="59.658170" lon="9.619220"><ele>301.0</ele></trkpt>
  <trkpt lat="59.658210" lon="9.619240"><ele>301.0</ele></trkpt>
  <trkpt lat="59.658270" lon="9.619210"><ele>301.0</ele></trkpt>
  <trkpt lat="59.658310" lon="9.619230"><ele>301.0</ele></trkpt>
  <trkpt lat="59.658430" lon="9.619170"><ele>301.0</ele></trkpt>
  <trkpt lat="59.658450" lon="9.619140"><ele>301.0</ele></trkpt>
  <trkpt lat="59.658570" lon="9.619160"><ele>301.0</ele></trkpt>
  <trkpt lat="59.658850" lon="9.619060"><ele>301.0</ele></trkpt>
  <trkpt lat="59.658880" lon="9.619010"><ele>301.0</ele></trkpt>
  <trkpt lat="59.658910" lon="9.619020"><ele>301.0</ele></trkpt>
  <trkpt lat="59.658940" lon="9.618970"><ele>301.0</ele></trkpt>
  <trkpt lat="59.659030" lon="9.618960"><ele>301.0</ele></trkpt>
  <trkpt lat="59.659060" lon="9.618980"><ele>301.0</ele></trkpt>
  <trkpt lat="59.659090" lon="9.619080"><ele>301.0</ele></trkpt>
  <trkpt lat="59.659170" lon="9.619090"><ele>301.0</ele></trkpt>
  <trkpt lat="59.659220" lon="9.619050"><ele>301.0</ele></trkpt>
  <trkpt lat="59.659250" lon="9.619060"><ele>301.0</ele></trkpt>
  <trkpt lat="59.659260" lon="9.619130"><ele>301.0</ele></trkpt>
  <trkpt lat="59.659180" lon="9.619450"><ele>301.0</ele></trkpt>
  <trkpt lat="59.659190" lon="9.619500"><ele>301.0</ele></trkpt>
  <trkpt lat="59.659220" lon="9.619520"><ele>301.0</ele></trkpt>
  <trkpt lat="59.659280" lon="9.619630"><ele>301.0</ele></trkpt>
  <trkpt lat="59.659300" lon="9.619890"><ele>301.0</ele></trkpt>
  <trkpt lat="59.659260" lon="9.620210"><ele>301.0</ele></trkpt>
  <trkpt lat="59.659290" lon="9.620300"><ele>301.0</ele></trkpt>
  <trkpt lat="59.659360" lon="9.620330"><ele>282.0</ele></trkpt>
  <trkpt lat="59.659400" lon="9.620300"><ele>282.0</ele></trkpt>
  <trkpt lat="59.659440" lon="9.620360"><ele>282.0</ele></trkpt>
  <trkpt lat="59.659480" lon="9.620500"><ele>282.0</ele></trkpt>
  <trkpt lat="59.659530" lon="9.620560"><ele>282.0</ele></trkpt>
  <trkpt lat="59.659720" lon="9.620580"><ele>282.0</ele></trkpt>
  <trkpt lat="59.659790" lon="9.620570"><ele>282.0</ele></trkpt>
  <trkpt lat="59.659970" lon="9.620630"><ele>282.0</ele></trkpt>
  <trkpt lat="59.660030" lon="9.620630"><ele>282.0</ele></trkpt>
  <trkpt lat="59.660080" lon="9.620590"><ele>282.0</ele></trkpt>
  <trkpt lat="59.660120" lon="9.620600"><ele>282.0</ele></trkpt>
  <trkpt lat="59.660120" lon="9.620660"><ele>282.0</ele></trkpt>
 </trkseg></trk></gpx>