<?xml version="1.0" encoding="UTF-8"?>
<gpx version="1.1" creator="stikart_web trailguide-snapshot" xmlns="http://www.topografix.com/GPX/1/1">
 <trk><name>Bergmannsstien</name><desc>Fra Trailguide (trailguide.net), gradering: red. 1788 m, 67 m nedfart.</desc><trkseg>
  <trkpt lat="59.641480" lon="9.607560"><ele>425.2</ele></trkpt>
  <trkpt lat="59.641490" lon="9.607640"><ele>425.2</ele></trkpt>
  <trkpt lat="59.641470" lon="9.607730"><ele>425.2</ele></trkpt>
  <trkpt lat="59.641390" lon="9.607850"><ele>425.2</ele></trkpt>
  <trkpt lat="59.641350" lon="9.607950"><ele>425.3</ele></trkpt>
  <trkpt lat="59.641370" lon="9.608250"><ele>425.8</ele></trkpt>
  <trkpt lat="59.641420" lon="9.608410"><ele>425.9</ele></trkpt>
  <trkpt lat="59.641480" lon="9.608410"><ele>426.0</ele></trkpt>
  <trkpt lat="59.641520" lon="9.608440"><ele>426.0</ele></trkpt>
  <trkpt lat="59.641530" lon="9.608480"><ele>425.8</ele></trkpt>
  <trkpt lat="59.641760" lon="9.608640"><ele>424.9</ele></trkpt>
  <trkpt lat="59.641800" lon="9.608650"><ele>424.9</ele></trkpt>
  <trkpt lat="59.641850" lon="9.608620"><ele>424.7</ele></trkpt>
  <trkpt lat="59.641890" lon="9.608620"><ele>424.7</ele></trkpt>
  <trkpt lat="59.641960" lon="9.608710"><ele>424.2</ele></trkpt>
  <trkpt lat="59.642040" lon="9.608760"><ele>424.2</ele></trkpt>
  <trkpt lat="59.642180" lon="9.609250"><ele>423.5</ele></trkpt>
  <trkpt lat="59.642290" lon="9.609460"><ele>423.2</ele></trkpt>
  <trkpt lat="59.642320" lon="9.609460"><ele>423.1</ele></trkpt>
  <trkpt lat="59.642350" lon="9.609420"><ele>423.1</ele></trkpt>
  <trkpt lat="59.642530" lon="9.609330"><ele>422.9</ele></trkpt>
  <trkpt lat="59.642640" lon="9.609420"><ele>422.9</ele></trkpt>
  <trkpt lat="59.642820" lon="9.609690"><ele>422.9</ele></trkpt>
  <trkpt lat="59.642990" lon="9.609880"><ele>422.8</ele></trkpt>
  <trkpt lat="59.643210" lon="9.610060"><ele>422.6</ele></trkpt>
  <trkpt lat="59.643290" lon="9.610180"><ele>422.8</ele></trkpt>
  <trkpt lat="59.643340" lon="9.610210"><ele>423.1</ele></trkpt>
  <trkpt lat="59.643420" lon="9.610370"><ele>423.9</ele></trkpt>
  <trkpt lat="59.643500" lon="9.610430"><ele>424.3</ele></trkpt>
  <trkpt lat="59.643540" lon="9.610560"><ele>425.0</ele></trkpt>
  <trkpt lat="59.643580" lon="9.610600"><ele>425.0</ele></trkpt>
  <trkpt lat="59.643640" lon="9.610640"><ele>425.2</ele></trkpt>
  <trkpt lat="59.643800" lon="9.610610"><ele>425.9</ele></trkpt>
  <trkpt lat="59.643950" lon="9.610650"><ele>426.4</ele></trkpt>
  <trkpt lat="59.643980" lon="9.610750"><ele>426.7</ele></trkpt>
  <trkpt lat="59.644030" lon="9.610780"><ele>426.9</ele></trkpt>
  <trkpt lat="59.644150" lon="9.610710"><ele>426.9</ele></trkpt>
  <trkpt lat="59.644210" lon="9.610710"><ele>426.8</ele></trkpt>
  <trkpt lat="59.644330" lon="9.610790"><ele>426.3</ele></trkpt>
  <trkpt lat="59.644470" lon="9.610930"><ele>425.0</ele></trkpt>
  <trkpt lat="59.644600" lon="9.611010"><ele>424.1</ele></trkpt>
  <trkpt lat="59.644660" lon="9.610990"><ele>423.7</ele></trkpt>
  <trkpt lat="59.644800" lon="9.611120"><ele>423.4</ele></trkpt>
  <trkpt lat="59.644890" lon="9.611400"><ele>423.6</ele></trkpt>
  <trkpt lat="59.645220" lon="9.611810"><ele>421.6</ele></trkpt>
  <trkpt lat="59.645230" lon="9.612000"><ele>421.2</ele></trkpt>
  <trkpt lat="59.645260" lon="9.612020"><ele>421.2</ele></trkpt>
  <trkpt lat="59.645300" lon="9.612200"><ele>419.9</ele></trkpt>
  <trkpt lat="59.645330" lon="9.612250"><ele>419.9</ele></trkpt>
  <trkpt lat="59.645370" lon="9.612280"><ele>419.9</ele></trkpt>
  <trkpt lat="59.645400" lon="9.612350"><ele>419.9</ele></trkpt>
  <trkpt lat="59.645510" lon="9.612830"><ele>418.1</ele></trkpt>
  <trkpt lat="59.645630" lon="9.612950"><ele>416.2</ele></trkpt>
  <trkpt lat="59.645790" lon="9.612980"><ele>414.8</ele></trkpt>
  <trkpt lat="59.645820" lon="9.612970"><ele>414.3</ele></trkpt>
  <trkpt lat="59.645870" lon="9.612990"><ele>413.7</ele></trkpt>
  <trkpt lat="59.645980" lon="9.613120"><ele>410.3</ele></trkpt>
  <trkpt lat="59.646020" lon="9.613250"><ele>408.8</ele></trkpt>
  <trkpt lat="59.646160" lon="9.613250"><ele>403.8</ele></trkpt>
  <trkpt lat="59.646190" lon="9.613270"><ele>402.1</ele></trkpt>
  <trkpt lat="59.646240" lon="9.613510"><ele>399.5</ele></trkpt>
  <trkpt lat="59.646210" lon="9.613560"><ele>399.5</ele></trkpt>
  <trkpt lat="59.646200" lon="9.613720"><ele>398.4</ele></trkpt>
  <trkpt lat="59.646300" lon="9.613930"><ele>398.3</ele></trkpt>
  <trkpt lat="59.646310" lon="9.614150"><ele>398.4</ele></trkpt>
  <trkpt lat="59.646340" lon="9.614270"><ele>398.2</ele></trkpt>
  <trkpt lat="59.646330" lon="9.614400"><ele>397.9</ele></trkpt>
  <trkpt lat="59.646460" lon="9.615820"><ele>397.7</ele></trkpt>
  <trkpt lat="59.646500" lon="9.615870"><ele>397.7</ele></trkpt>
  <trkpt lat="59.646740" lon="9.615900"><ele>394.7</ele></trkpt>
  <trkpt lat="59.646850" lon="9.615970"><ele>393.7</ele></trkpt>
  <trkpt lat="59.646890" lon="9.616030"><ele>393.3</ele></trkpt>
  <trkpt lat="59.646900" lon="9.616110"><ele>393.3</ele></trkpt>
  <trkpt lat="59.647060" lon="9.616340"><ele>392.6</ele></trkpt>
  <trkpt lat="59.647080" lon="9.616440"><ele>392.4</ele></trkpt>
  <trkpt lat="59.647120" lon="9.616470"><ele>392.4</ele></trkpt>
  <trkpt lat="59.647200" lon="9.616500"><ele>392.4</ele></trkpt>
  <trkpt lat="59.647300" lon="9.616460"><ele>392.3</ele></trkpt>
  <trkpt lat="59.647340" lon="9.616380"><ele>392.3</ele></trkpt>
  <trkpt lat="59.647480" lon="9.616310"><ele>392.3</ele></trkpt>
  <trkpt lat="59.647700" lon="9.616290"><ele>392.7</ele></trkpt>
  <trkpt lat="59.647960" lon="9.616390"><ele>391.9</ele></trkpt>
  <trkpt lat="59.648120" lon="9.616490"><ele>390.9</ele></trkpt>
  <trkpt lat="59.648210" lon="9.616580"><ele>389.6</ele></trkpt>
  <trkpt lat="59.648280" lon="9.616760"><ele>388.9</ele></trkpt>
  <trkpt lat="59.648350" lon="9.617080"><ele>388.0</ele></trkpt>
  <trkpt lat="59.648460" lon="9.617320"><ele>385.9</ele></trkpt>
  <trkpt lat="59.648540" lon="9.617780"><ele>383.2</ele></trkpt>
  <trkpt lat="59.648700" lon="9.618170"><ele>380.6</ele></trkpt>
  <trkpt lat="59.649030" lon="9.618510"><ele>378.2</ele></trkpt>
  <trkpt lat="59.649120" lon="9.618670"><ele>376.7</ele></trkpt>
  <trkpt lat="59.649310" lon="9.618670"><ele>373.8</ele></trkpt>
  <trkpt lat="59.649470" lon="9.618710"><ele>372.6</ele></trkpt>
  <trkpt lat="59.649560" lon="9.618790"><ele>371.8</ele></trkpt>
  <trkpt lat="59.650020" lon="9.618950"><ele>368.8</ele></trkpt>
  <trkpt lat="59.650380" lon="9.619250"><ele>366.5</ele></trkpt>
  <trkpt lat="59.650590" lon="9.619310"><ele>365.9</ele></trkpt>
  <trkpt lat="59.650870" lon="9.619550"><ele>364.3</ele></trkpt>
  <trkpt lat="59.650960" lon="9.619650"><ele>363.7</ele></trkpt>
  <trkpt lat="59.651160" lon="9.619770"><ele>362.9</ele></trkpt>
  <trkpt lat="59.651700" lon="9.619960"><ele>361.5</ele></trkpt>
  <trkpt lat="59.651800" lon="9.620060"><ele>361.5</ele></trkpt>
  <trkpt lat="59.651850" lon="9.620160"><ele>361.0</ele></trkpt>
  <trkpt lat="59.652100" lon="9.620170"><ele>360.6</ele></trkpt>
  <trkpt lat="59.652180" lon="9.619930"><ele>360.4</ele></trkpt>
  <trkpt lat="59.652220" lon="9.619690"><ele>360.4</ele></trkpt>
  <trkpt lat="59.652290" lon="9.619410"><ele>360.3</ele></trkpt>
  <trkpt lat="59.652400" lon="9.619360"><ele>360.3</ele></trkpt>
  <trkpt lat="59.652510" lon="9.619240"><ele>360.1</ele></trkpt>
  <trkpt lat="59.652970" lon="9.619110"><ele>360.1</ele></trkpt>
  <trkpt lat="59.653050" lon="9.619170"><ele>360.1</ele></trkpt>
  <trkpt lat="59.653240" lon="9.619230"><ele>360.1</ele></trkpt>
  <trkpt lat="59.653690" lon="9.619250"><ele>360.1</ele></trkpt>
 </trkseg></trk></gpx>