<?xml version="1.0" encoding="UTF-8"?>
<gpx version="1.1" creator="stikart_web trailguide-snapshot" xmlns="http://www.topografix.com/GPX/1/1">
 <trk><name>Briskemyrrunden</name><desc>Fra Trailguide (trailguide.net), gradering: blue. 5082 m, 199 m nedfart.</desc><trkseg>
  <trkpt lat="59.639582" lon="9.594764"><ele>333.1</ele></trkpt>
  <trkpt lat="59.639635" lon="9.594787"><ele>334.1</ele></trkpt>
  <trkpt lat="59.639712" lon="9.594376"><ele>333.2</ele></trkpt>
  <trkpt lat="59.639992" lon="9.593542"><ele>333.2</ele></trkpt>
  <trkpt lat="59.640043" lon="9.593332"><ele>332.4</ele></trkpt>
  <trkpt lat="59.640009" lon="9.593354"><ele>332.1</ele></trkpt>
  <trkpt lat="59.640059" lon="9.593311"><ele>332.5</ele></trkpt>
  <trkpt lat="59.640210" lon="9.592939"><ele>332.0</ele></trkpt>
  <trkpt lat="59.640324" lon="9.592703"><ele>332.0</ele></trkpt>
  <trkpt lat="59.640405" lon="9.592415"><ele>331.2</ele></trkpt>
  <trkpt lat="59.640512" lon="9.592263"><ele>331.6</ele></trkpt>
  <trkpt lat="59.640551" lon="9.592151"><ele>331.3</ele></trkpt>
  <trkpt lat="59.640690" lon="9.591898"><ele>332.3</ele></trkpt>
  <trkpt lat="59.640733" lon="9.591758"><ele>332.6</ele></trkpt>
  <trkpt lat="59.640665" lon="9.591285"><ele>331.0</ele></trkpt>
  <trkpt lat="59.640619" lon="9.591106"><ele>330.3</ele></trkpt>
  <trkpt lat="59.640628" lon="9.590887"><ele>330.1</ele></trkpt>
  <trkpt lat="59.640724" lon="9.590500"><ele>330.8</ele></trkpt>
  <trkpt lat="59.640713" lon="9.590501"><ele>330.7</ele></trkpt>
  <trkpt lat="59.640714" lon="9.590530"><ele>330.7</ele></trkpt>
  <trkpt lat="59.640732" lon="9.590495"><ele>330.9</ele></trkpt>
  <trkpt lat="59.640765" lon="9.590519"><ele>331.3</ele></trkpt>
  <trkpt lat="59.640722" lon="9.590474"><ele>330.7</ele></trkpt>
  <trkpt lat="59.640712" lon="9.590509"><ele>330.7</ele></trkpt>
  <trkpt lat="59.640767" lon="9.590358"><ele>331.1</ele></trkpt>
  <trkpt lat="59.640811" lon="9.590007"><ele>331.0</ele></trkpt>
  <trkpt lat="59.640792" lon="9.589779"><ele>330.3</ele></trkpt>
  <trkpt lat="59.640810" lon="9.589612"><ele>330.2</ele></trkpt>
  <trkpt lat="59.640805" lon="9.589165"><ele>329.6</ele></trkpt>
  <trkpt lat="59.640757" lon="9.588760"><ele>328.3</ele></trkpt>
  <trkpt lat="59.640755" lon="9.588620"><ele>327.7</ele></trkpt>
  <trkpt lat="59.640692" lon="9.588496"><ele>326.1</ele></trkpt>
  <trkpt lat="59.640661" lon="9.588394"><ele>325.1</ele></trkpt>
  <trkpt lat="59.640713" lon="9.588042"><ele>324.2</ele></trkpt>
  <trkpt lat="59.640816" lon="9.587704"><ele>324.5</ele></trkpt>
  <trkpt lat="59.640832" lon="9.587602"><ele>324.3</ele></trkpt>
  <trkpt lat="59.640756" lon="9.587409"><ele>322.5</ele></trkpt>
  <trkpt lat="59.640756" lon="9.587313"><ele>322.1</ele></trkpt>
  <trkpt lat="59.640810" lon="9.587043"><ele>321.8</ele></trkpt>
  <trkpt lat="59.640819" lon="9.586911"><ele>320.7</ele></trkpt>
  <trkpt lat="59.640839" lon="9.586840"><ele>320.4</ele></trkpt>
  <trkpt lat="59.640845" lon="9.586868"><ele>320.8</ele></trkpt>
  <trkpt lat="59.640847" lon="9.586856"><ele>320.7</ele></trkpt>
  <trkpt lat="59.640881" lon="9.586855"><ele>321.2</ele></trkpt>
  <trkpt lat="59.640934" lon="9.586699"><ele>320.8</ele></trkpt>
  <trkpt lat="59.640949" lon="9.586441"><ele>318.8</ele></trkpt>
  <trkpt lat="59.640941" lon="9.586331"><ele>317.8</ele></trkpt>
  <trkpt lat="59.641019" lon="9.586178"><ele>318.0</ele></trkpt>
  <trkpt lat="59.641032" lon="9.586013"><ele>317.1</ele></trkpt>
  <trkpt lat="59.641110" lon="9.585872"><ele>317.7</ele></trkpt>
  <trkpt lat="59.641254" lon="9.585532"><ele>318.8</ele></trkpt>
  <trkpt lat="59.641308" lon="9.585255"><ele>318.1</ele></trkpt>
  <trkpt lat="59.641376" lon="9.585100"><ele>318.5</ele></trkpt>
  <trkpt lat="59.641474" lon="9.584988"><ele>319.9</ele></trkpt>
  <trkpt lat="59.641622" lon="9.584740"><ele>321.8</ele></trkpt>
  <trkpt lat="59.641671" lon="9.584616"><ele>322.3</ele></trkpt>
  <trkpt lat="59.641683" lon="9.584492"><ele>321.9</ele></trkpt>
  <trkpt lat="59.641748" lon="9.584410"><ele>323.1</ele></trkpt>
  <trkpt lat="59.641858" lon="9.584220"><ele>324.9</ele></trkpt>
  <trkpt lat="59.642084" lon="9.583950"><ele>329.7</ele></trkpt>
  <trkpt lat="59.642095" lon="9.583914"><ele>329.8</ele></trkpt>
  <trkpt lat="59.642085" lon="9.583801"><ele>329.2</ele></trkpt>
  <trkpt lat="59.642051" lon="9.583756"><ele>328.1</ele></trkpt>
  <trkpt lat="59.642038" lon="9.583655"><ele>327.5</ele></trkpt>
  <trkpt lat="59.642050" lon="9.583594"><ele>327.7</ele></trkpt>
  <trkpt lat="59.642172" lon="9.583414"><ele>329.7</ele></trkpt>
  <trkpt lat="59.642374" lon="9.583213"><ele>332.8</ele></trkpt>
  <trkpt lat="59.642444" lon="9.582979"><ele>333.6</ele></trkpt>
  <trkpt lat="59.642581" lon="9.582738"><ele>335.9</ele></trkpt>
  <trkpt lat="59.642627" lon="9.582352"><ele>336.6</ele></trkpt>
  <trkpt lat="59.642684" lon="9.582201"><ele>337.6</ele></trkpt>
  <trkpt lat="59.642677" lon="9.582133"><ele>337.4</ele></trkpt>
  <trkpt lat="59.642771" lon="9.581904"><ele>338.3</ele></trkpt>
  <trkpt lat="59.642808" lon="9.581609"><ele>337.5</ele></trkpt>
  <trkpt lat="59.642787" lon="9.581487"><ele>336.4</ele></trkpt>
  <trkpt lat="59.642827" lon="9.581179"><ele>335.8</ele></trkpt>
  <trkpt lat="59.642832" lon="9.580944"><ele>335.0</ele></trkpt>
  <trkpt lat="59.642819" lon="9.580468"><ele>332.7</ele></trkpt>
  <trkpt lat="59.642796" lon="9.580284"><ele>331.1</ele></trkpt>
  <trkpt lat="59.642817" lon="9.580043"><ele>329.8</ele></trkpt>
  <trkpt lat="59.642813" lon="9.579840"><ele>328.3</ele></trkpt>
  <trkpt lat="59.642944" lon="9.579640"><ele>329.0</ele></trkpt>
  <trkpt lat="59.643077" lon="9.579287"><ele>328.8</ele></trkpt>
  <trkpt lat="59.643184" lon="9.579181"><ele>329.9</ele></trkpt>
  <trkpt lat="59.643236" lon="9.579064"><ele>330.0</ele></trkpt>
  <trkpt lat="59.643297" lon="9.578974"><ele>330.5</ele></trkpt>
  <trkpt lat="59.643331" lon="9.578737"><ele>329.5</ele></trkpt>
  <trkpt lat="59.643411" lon="9.578622"><ele>331.1</ele></trkpt>
  <trkpt lat="59.643507" lon="9.578390"><ele>332.6</ele></trkpt>
  <trkpt lat="59.643545" lon="9.578205"><ele>333.0</ele></trkpt>
  <trkpt lat="59.643528" lon="9.577794"><ele>332.6</ele></trkpt>
  <trkpt lat="59.643548" lon="9.577564"><ele>332.4</ele></trkpt>
  <trkpt lat="59.643604" lon="9.577366"><ele>332.2</ele></trkpt>
  <trkpt lat="59.643817" lon="9.577133"><ele>332.5</ele></trkpt>
  <trkpt lat="59.644219" lon="9.576409"><ele>344.4</ele></trkpt>
  <trkpt lat="59.644352" lon="9.576224"><ele>346.5</ele></trkpt>
  <trkpt lat="59.644515" lon="9.576050"><ele>347.9</ele></trkpt>
  <trkpt lat="59.644734" lon="9.575954"><ele>350.0</ele></trkpt>
  <trkpt lat="59.644873" lon="9.575939"><ele>351.4</ele></trkpt>
  <trkpt lat="59.645005" lon="9.575899"><ele>352.7</ele></trkpt>
  <trkpt lat="59.645297" lon="9.575730"><ele>354.8</ele></trkpt>
  <trkpt lat="59.645446" lon="9.575668"><ele>355.9</ele></trkpt>
  <trkpt lat="59.645612" lon="9.575574"><ele>357.4</ele></trkpt>
  <trkpt lat="59.645916" lon="9.575349"><ele>360.4</ele></trkpt>
  <trkpt lat="59.646229" lon="9.575039"><ele>365.6</ele></trkpt>
  <trkpt lat="59.646742" lon="9.574743"><ele>373.3</ele></trkpt>
  <trkpt lat="59.646802" lon="9.574691"><ele>374.2</ele></trkpt>
  <trkpt lat="59.646891" lon="9.574387"><ele>376.5</ele></trkpt>
  <trkpt lat="59.646833" lon="9.574133"><ele>376.8</ele></trkpt>
  <trkpt lat="59.646692" lon="9.573814"><ele>376.5</ele></trkpt>
  <trkpt lat="59.646525" lon="9.573661"><ele>376.1</ele></trkpt>
  <trkpt lat="59.646300" lon="9.573562"><ele>375.0</ele></trkpt>
  <trkpt lat="59.645962" lon="9.573521"><ele>373.6</ele></trkpt>
  <trkpt lat="59.645142" lon="9.573620"><ele>370.6</ele></trkpt>
  <trkpt lat="59.645018" lon="9.573594"><ele>371.1</ele></trkpt>
  <trkpt lat="59.644909" lon="9.573403"><ele>372.6</ele></trkpt>
  <trkpt lat="59.644892" lon="9.573144"><ele>374.4</ele></trkpt>
  <trkpt lat="59.644918" lon="9.572569"><ele>378.2</ele></trkpt>
  <trkpt lat="59.644895" lon="9.572071"><ele>381.1</ele></trkpt>
  <trkpt lat="59.644781" lon="9.571087"><ele>378.8</ele></trkpt>
  <trkpt lat="59.644674" lon="9.570359"><ele>377.2</ele></trkpt>
  <trkpt lat="59.644693" lon="9.570335"><ele>377.2</ele></trkpt>
  <trkpt lat="59.644673" lon="9.569892"><ele>374.5</ele></trkpt>
  <trkpt lat="59.644700" lon="9.569621"><ele>373.1</ele></trkpt>
  <trkpt lat="59.644783" lon="9.569291"><ele>371.8</ele></trkpt>
  <trkpt lat="59.645091" lon="9.568513"><ele>370.9</ele></trkpt>
  <trkpt lat="59.645173" lon="9.568187"><ele>371.1</ele></trkpt>
  <trkpt lat="59.645297" lon="9.567577"><ele>371.4</ele></trkpt>
  <trkpt lat="59.645324" lon="9.567176"><ele>371.2</ele></trkpt>
  <trkpt lat="59.645305" lon="9.566662"><ele>371.0</ele></trkpt>
  <trkpt lat="59.645271" lon="9.566352"><ele>370.8</ele></trkpt>
  <trkpt lat="59.645176" lon="9.566319"><ele>370.0</ele></trkpt>
  <trkpt lat="59.644831" lon="9.566565"><ele>366.8</ele></trkpt>
  <trkpt lat="59.644617" lon="9.566520"><ele>365.0</ele></trkpt>
  <trkpt lat="59.644519" lon="9.566375"><ele>363.7</ele></trkpt>
  <trkpt lat="59.644312" lon="9.565847"><ele>359.3</ele></trkpt>
  <trkpt lat="59.644274" lon="9.565623"><ele>358.2</ele></trkpt>
  <trkpt lat="59.644183" lon="9.565393"><ele>355.9</ele></trkpt>
  <trkpt lat="59.644037" lon="9.565177"><ele>352.7</ele></trkpt>
  <trkpt lat="59.643926" lon="9.564962"><ele>350.6</ele></trkpt>
  <trkpt lat="59.643806" lon="9.564782"><ele>348.6</ele></trkpt>
  <trkpt lat="59.643711" lon="9.564568"><ele>347.5</ele></trkpt>
  <trkpt lat="59.643569" lon="9.564500"><ele>345.8</ele></trkpt>
  <trkpt lat="59.643450" lon="9.564679"><ele>343.9</ele></trkpt>
  <trkpt lat="59.643316" lon="9.565067"><ele>341.4</ele></trkpt>
  <trkpt lat="59.643242" lon="9.565801"><ele>341.3</ele></trkpt>
  <trkpt lat="59.643145" lon="9.565952"><ele>340.7</ele></trkpt>
  <trkpt lat="59.643036" lon="9.565935"><ele>339.3</ele></trkpt>
  <trkpt lat="59.642870" lon="9.565767"><ele>336.9</ele></trkpt>
  <trkpt lat="59.642781" lon="9.565762"><ele>336.1</ele></trkpt>
  <trkpt lat="59.642596" lon="9.565833"><ele>334.8</ele></trkpt>
  <trkpt lat="59.642536" lon="9.565888"><ele>334.4</ele></trkpt>
  <trkpt lat="59.642377" lon="9.565902"><ele>333.1</ele></trkpt>
  <trkpt lat="59.642222" lon="9.565890"><ele>331.8</ele></trkpt>
  <trkpt lat="59.642158" lon="9.565917"><ele>331.2</ele></trkpt>
  <trkpt lat="59.642087" lon="9.566268"><ele>331.1</ele></trkpt>
  <trkpt lat="59.641937" lon="9.566751"><ele>332.7</ele></trkpt>
  <trkpt lat="59.641902" lon="9.566946"><ele>332.9</ele></trkpt>
  <trkpt lat="59.641884" lon="9.566977"><ele>333.0</ele></trkpt>
  <trkpt lat="59.641855" lon="9.567157"><ele>333.3</ele></trkpt>
  <trkpt lat="59.641845" lon="9.567362"><ele>334.2</ele></trkpt>
  <trkpt lat="59.641777" lon="9.567544"><ele>334.7</ele></trkpt>
  <trkpt lat="59.641642" lon="9.568135"><ele>336.2</ele></trkpt>
  <trkpt lat="59.641573" lon="9.568045"><ele>335.4</ele></trkpt>
  <trkpt lat="59.641541" lon="9.567954"><ele>334.9</ele></trkpt>
  <trkpt lat="59.641518" lon="9.567954"><ele>334.7</ele></trkpt>
  <trkpt lat="59.641403" lon="9.567871"><ele>333.9</ele></trkpt>
  <trkpt lat="59.641285" lon="9.567902"><ele>333.2</ele></trkpt>
  <trkpt lat="59.641240" lon="9.567940"><ele>333.0</ele></trkpt>
  <trkpt lat="59.641199" lon="9.567949"><ele>333.1</ele></trkpt>
  <trkpt lat="59.641156" lon="9.567937"><ele>333.2</ele></trkpt>
  <trkpt lat="59.641069" lon="9.568020"><ele>333.4</ele></trkpt>
  <trkpt lat="59.640978" lon="9.568064"><ele>333.4</ele></trkpt>
  <trkpt lat="59.640899" lon="9.568139"><ele>333.3</ele></trkpt>
  <trkpt lat="59.640876" lon="9.568149"><ele>333.3</ele></trkpt>
  <trkpt lat="59.640815" lon="9.568132"><ele>333.4</ele></trkpt>
  <trkpt lat="59.640669" lon="9.568197"><ele>333.1</ele></trkpt>
  <trkpt lat="59.640590" lon="9.568253"><ele>332.8</ele></trkpt>
  <trkpt lat="59.640376" lon="9.568547"><ele>330.4</ele></trkpt>
  <trkpt lat="59.640319" lon="9.568760"><ele>328.7</ele></trkpt>
  <trkpt lat="59.640121" lon="9.569229"><ele>328.1</ele></trkpt>
  <trkpt lat="59.640050" lon="9.569269"><ele>327.6</ele></trkpt>
  <trkpt lat="59.639909" lon="9.569509"><ele>326.2</ele></trkpt>
  <trkpt lat="59.639885" lon="9.569506"><ele>326.0</ele></trkpt>
  <trkpt lat="59.639832" lon="9.569614"><ele>325.3</ele></trkpt>
  <trkpt lat="59.639745" lon="9.569666"><ele>324.4</ele></trkpt>
  <trkpt lat="59.639533" lon="9.569999"><ele>321.6</ele></trkpt>
  <trkpt lat="59.639283" lon="9.570436"><ele>320.4</ele></trkpt>
  <trkpt lat="59.638893" lon="9.570988"><ele>321.5</ele></trkpt>
  <trkpt lat="59.638869" lon="9.570992"><ele>321.4</ele></trkpt>
  <trkpt lat="59.638842" lon="9.571026"><ele>321.4</ele></trkpt>
  <trkpt lat="59.638746" lon="9.571179"><ele>321.0</ele></trkpt>
  <trkpt lat="59.638545" lon="9.571443"><ele>319.7</ele></trkpt>
  <trkpt lat="59.638190" lon="9.572144"><ele>314.1</ele></trkpt>
  <trkpt lat="59.638096" lon="9.572252"><ele>313.3</ele></trkpt>
  <trkpt lat="59.637835" lon="9.572415"><ele>311.3</ele></trkpt>
  <trkpt lat="59.637679" lon="9.572536"><ele>311.1</ele></trkpt>
  <trkpt lat="59.637545" lon="9.572702"><ele>310.7</ele></trkpt>
  <trkpt lat="59.637413" lon="9.572961"><ele>310.2</ele></trkpt>
  <trkpt lat="59.637312" lon="9.573208"><ele>309.5</ele></trkpt>
  <trkpt lat="59.637216" lon="9.573370"><ele>308.7</ele></trkpt>
  <trkpt lat="59.637140" lon="9.573541"><ele>307.9</ele></trkpt>
  <trkpt lat="59.636986" lon="9.573977"><ele>306.8</ele></trkpt>
  <trkpt lat="59.636869" lon="9.574226"><ele>306.2</ele></trkpt>
  <trkpt lat="59.636743" lon="9.574619"><ele>304.4</ele></trkpt>
  <trkpt lat="59.636689" lon="9.574837"><ele>303.2</ele></trkpt>
  <trkpt lat="59.636647" lon="9.575342"><ele>300.3</ele></trkpt>
  <trkpt lat="59.636435" lon="9.576090"><ele>297.1</ele></trkpt>
  <trkpt lat="59.636195" lon="9.577032"><ele>293.6</ele></trkpt>
  <trkpt lat="59.636141" lon="9.577327"><ele>293.2</ele></trkpt>
  <trkpt lat="59.636102" lon="9.578324"><ele>290.5</ele></trkpt>
  <trkpt lat="59.635919" lon="9.579661"><ele>286.8</ele></trkpt>
  <trkpt lat="59.635864" lon="9.579962"><ele>285.9</ele></trkpt>
  <trkpt lat="59.635854" lon="9.579985"><ele>285.8</ele></trkpt>
  <trkpt lat="59.635792" lon="9.580016"><ele>285.7</ele></trkpt>
  <trkpt lat="59.635755" lon="9.580011"><ele>285.7</ele></trkpt>
  <trkpt lat="59.635540" lon="9.580107"><ele>285.2</ele></trkpt>
  <trkpt lat="59.635469" lon="9.580195"><ele>284.8</ele></trkpt>
  <trkpt lat="59.635461" lon="9.580236"><ele>284.7</ele></trkpt>
  <trkpt lat="59.635222" lon="9.580442"><ele>285.3</ele></trkpt>
  <trkpt lat="59.635185" lon="9.580506"><ele>285.2</ele></trkpt>
  <trkpt lat="59.635023" lon="9.580600"><ele>285.9</ele></trkpt>
  <trkpt lat="59.634832" lon="9.580863"><ele>286.3</ele></trkpt>
  <trkpt lat="59.634607" lon="9.581108"><ele>287.3</ele></trkpt>
  <trkpt lat="59.634526" lon="9.581326"><ele>287.3</ele></trkpt>
  <trkpt lat="59.634515" lon="9.581523"><ele>286.7</ele></trkpt>
  <trkpt lat="59.634529" lon="9.581576"><ele>286.3</ele></trkpt>
  <trkpt lat="59.634537" lon="9.581842"><ele>285.3</ele></trkpt>
  <trkpt lat="59.634511" lon="9.581941"><ele>285.1</ele></trkpt>
  <trkpt lat="59.634233" lon="9.582588"><ele>284.5</ele></trkpt>
  <trkpt lat="59.634111" lon="9.582828"><ele>284.2</ele></trkpt>
  <trkpt lat="59.634028" lon="9.583116"><ele>283.4</ele></trkpt>
  <trkpt lat="59.633875" lon="9.583286"><ele>283.5</ele></trkpt>
  <trkpt lat="59.633832" lon="9.583405"><ele>283.2</ele></trkpt>
  <trkpt lat="59.633733" lon="9.583586"><ele>282.8</ele></trkpt>
  <trkpt lat="59.633660" lon="9.583807"><ele>281.9</ele></trkpt>
  <trkpt lat="59.633571" lon="9.583994"><ele>281.0</ele></trkpt>
  <trkpt lat="59.633509" lon="9.584076"><ele>280.7</ele></trkpt>
  <trkpt lat="59.633467" lon="9.584087"><ele>280.8</ele></trkpt>
  <trkpt lat="59.633414" lon="9.584175"><ele>280.5</ele></trkpt>
  <trkpt lat="59.633430" lon="9.584495"><ele>278.6</ele></trkpt>
  <trkpt lat="59.633408" lon="9.584728"><ele>277.3</ele></trkpt>
  <trkpt lat="59.633189" lon="9.584975"><ele>276.5</ele></trkpt>
  <trkpt lat="59.633088" lon="9.585129"><ele>276.0</ele></trkpt>
  <trkpt lat="59.632780" lon="9.585490"><ele>276.0</ele></trkpt>
  <trkpt lat="59.632550" lon="9.585971"><ele>275.6</ele></trkpt>
  <trkpt lat="59.632166" lon="9.587149"><ele>273.3</ele></trkpt>
  <trkpt lat="59.631969" lon="9.588222"><ele>265.5</ele></trkpt>
  <trkpt lat="59.631942" lon="9.588786"><ele>260.3</ele></trkpt>
  <trkpt lat="59.631896" lon="9.589102"><ele>258.4</ele></trkpt>
  <trkpt lat="59.631981" lon="9.590866"><ele>244.8</ele></trkpt>
  <trkpt lat="59.631872" lon="9.591245"><ele>241.6</ele></trkpt>
  <trkpt lat="59.631826" lon="9.591340"><ele>240.7</ele></trkpt>
  <trkpt lat="59.631508" lon="9.591771"><ele>237.6</ele></trkpt>
  <trkpt lat="59.631407" lon="9.592112"><ele>235.0</ele></trkpt>
  <trkpt lat="59.631210" lon="9.593007"><ele>227.1</ele></trkpt>
  <trkpt lat="59.631112" lon="9.593357"><ele>223.4</ele></trkpt>
  <trkpt lat="59.631050" lon="9.593399"><ele>223.0</ele></trkpt>
  <trkpt lat="59.631036" lon="9.593560"><ele>221.3</ele></trkpt>
  <trkpt lat="59.631126" lon="9.593941"><ele>218.1</ele></trkpt>
  <trkpt lat="59.631055" lon="9.593986"><ele>217.9</ele></trkpt>
  <trkpt lat="59.631017" lon="9.594069"><ele>217.4</ele></trkpt>
  <trkpt lat="59.630926" lon="9.595031"><ele>211.4</ele></trkpt>
  <trkpt lat="59.630886" lon="9.595773"><ele>210.8</ele></trkpt>
  <trkpt lat="59.630890" lon="9.595798"><ele>211.0</ele></trkpt>
  <trkpt lat="59.630948" lon="9.595838"><ele>211.7</ele></trkpt>
  <trkpt lat="59.630960" lon="9.595984"><ele>212.6</ele></trkpt>
 </trkseg></trk></gpx>