<?xml version="1.0" encoding="UTF-8"?>
<gpx version="1.1" creator="stikart_web osm+kartverket" xmlns="http://www.topografix.com/GPX/1/1">
 <trk><name>Eriksløypa</name><desc>Geometri: OSM. Høyder: Kartverket.</desc><trkseg>
  <trkpt lat="59.674130" lon="9.542684"><ele>718.1</ele></trkpt>
  <trkpt lat="59.674145" lon="9.542727"><ele>717.9</ele></trkpt>
  <trkpt lat="59.674144" lon="9.542849"><ele>716.3</ele></trkpt>
  <trkpt lat="59.674105" lon="9.543022"><ele>713.8</ele></trkpt>
  <trkpt lat="59.673989" lon="9.543296"><ele>709.4</ele></trkpt>
  <trkpt lat="59.673899" lon="9.543486"><ele>708.4</ele></trkpt>
  <trkpt lat="59.673797" lon="9.543626"><ele>708.2</ele></trkpt>
  <trkpt lat="59.673459" lon="9.543964"><ele>708.3</ele></trkpt>
  <trkpt lat="59.673376" lon="9.544095"><ele>707.9</ele></trkpt>
  <trkpt lat="59.673326" lon="9.544218"><ele>707.9</ele></trkpt>
  <trkpt lat="59.673291" lon="9.544385"><ele>708.7</ele></trkpt>
  <trkpt lat="59.673261" lon="9.544760"><ele>709.3</ele></trkpt>
  <trkpt lat="59.673227" lon="9.544954"><ele>708.6</ele></trkpt>
  <trkpt lat="59.673147" lon="9.545104"><ele>708.2</ele></trkpt>
  <trkpt lat="59.673073" lon="9.545139"><ele>707.8</ele></trkpt>
  <trkpt lat="59.673023" lon="9.545133"><ele>707.4</ele></trkpt>
  <trkpt lat="59.672934" lon="9.545090"><ele>707.6</ele></trkpt>
  <trkpt lat="59.672815" lon="9.545063"><ele>708.8</ele></trkpt>
  <trkpt lat="59.672720" lon="9.545085"><ele>709.7</ele></trkpt>
  <trkpt lat="59.672573" lon="9.545189"><ele>712.0</ele></trkpt>
  <trkpt lat="59.672475" lon="9.545307"><ele>714.3</ele></trkpt>
  <trkpt lat="59.672447" lon="9.545388"><ele>715.0</ele></trkpt>
  <trkpt lat="59.672435" lon="9.545522"><ele>716.0</ele></trkpt>
  <trkpt lat="59.672451" lon="9.545643"><ele>717.0</ele></trkpt>
  <trkpt lat="59.672494" lon="9.545793"><ele>717.4</ele></trkpt>
  <trkpt lat="59.672569" lon="9.545994"><ele>717.5</ele></trkpt>
  <trkpt lat="59.672610" lon="9.546195"><ele>718.3</ele></trkpt>
  <trkpt lat="59.672624" lon="9.546386"><ele>720.5</ele></trkpt>
  <trkpt lat="59.672628" lon="9.546582"><ele>721.4</ele></trkpt>
  <trkpt lat="59.672601" lon="9.547421"><ele>724.6</ele></trkpt>
  <trkpt lat="59.672623" lon="9.547697"><ele>725.8</ele></trkpt>
  <trkpt lat="59.672645" lon="9.547826"><ele>725.9</ele></trkpt>
  <trkpt lat="59.672676" lon="9.547897"><ele>726.1</ele></trkpt>
  <trkpt lat="59.672726" lon="9.548029"><ele>726.9</ele></trkpt>
  <trkpt lat="59.672796" lon="9.548289"><ele>726.9</ele></trkpt>
  <trkpt lat="59.672812" lon="9.548440"><ele>727.7</ele></trkpt>
  <trkpt lat="59.672844" lon="9.548532"><ele>728.0</ele></trkpt>
  <trkpt lat="59.672929" lon="9.548756"><ele>728.4</ele></trkpt>
  <trkpt lat="59.672942" lon="9.548887"><ele>728.1</ele></trkpt>
  <trkpt lat="59.672783" lon="9.549470"><ele>725.8</ele></trkpt>
  <trkpt lat="59.672698" lon="9.549770"><ele>723.6</ele></trkpt>
  <trkpt lat="59.672617" lon="9.549982"><ele>722.5</ele></trkpt>
  <trkpt lat="59.672373" lon="9.550518"><ele>721.2</ele></trkpt>
  <trkpt lat="59.672315" lon="9.550615"><ele>721.3</ele></trkpt>
  <trkpt lat="59.672263" lon="9.550658"><ele>720.8</ele></trkpt>
  <trkpt lat="59.672163" lon="9.550690"><ele>719.9</ele></trkpt>
  <trkpt lat="59.672067" lon="9.550674"><ele>718.7</ele></trkpt>
  <trkpt lat="59.671994" lon="9.550693"><ele>718.1</ele></trkpt>
  <trkpt lat="59.671930" lon="9.550757"><ele>717.1</ele></trkpt>
  <trkpt lat="59.671812" lon="9.550921"><ele>714.7</ele></trkpt>
  <trkpt lat="59.671655" lon="9.551103"><ele>711.5</ele></trkpt>
  <trkpt lat="59.671560" lon="9.551258"><ele>709.3</ele></trkpt>
  <trkpt lat="59.671476" lon="9.551497"><ele>704.5</ele></trkpt>
  <trkpt lat="59.671348" lon="9.551867"><ele>703.2</ele></trkpt>
  <trkpt lat="59.671322" lon="9.552010"><ele>704.7</ele></trkpt>
  <trkpt lat="59.671322" lon="9.552157"><ele>705.7</ele></trkpt>
  <trkpt lat="59.671402" lon="9.552543"><ele>710.4</ele></trkpt>
  <trkpt lat="59.671456" lon="9.552881"><ele>712.0</ele></trkpt>
  <trkpt lat="59.671506" lon="9.553246"><ele>714.6</ele></trkpt>
  <trkpt lat="59.671529" lon="9.553514"><ele>715.2</ele></trkpt>
  <trkpt lat="59.671548" lon="9.553571"><ele>715.2</ele></trkpt>
  <trkpt lat="59.671616" lon="9.553681"><ele>715.4</ele></trkpt>
  <trkpt lat="59.671650" lon="9.553761"><ele>715.3</ele></trkpt>
  <trkpt lat="59.671678" lon="9.553866"><ele>714.9</ele></trkpt>
  <trkpt lat="59.671697" lon="9.554064"><ele>713.8</ele></trkpt>
  <trkpt lat="59.671754" lon="9.554276"><ele>713.5</ele></trkpt>
  <trkpt lat="59.671824" lon="9.554424"><ele>713.8</ele></trkpt>
  <trkpt lat="59.671861" lon="9.554539"><ele>713.9</ele></trkpt>
  <trkpt lat="59.671880" lon="9.554654"><ele>715.9</ele></trkpt>
  <trkpt lat="59.671892" lon="9.554812"><ele>716.2</ele></trkpt>
  <trkpt lat="59.671919" lon="9.554946"><ele>715.2</ele></trkpt>
  <trkpt lat="59.671968" lon="9.555062"><ele>713.9</ele></trkpt>
  <trkpt lat="59.672097" lon="9.555193"><ele>710.8</ele></trkpt>
  <trkpt lat="59.672210" lon="9.555247"><ele>709.4</ele></trkpt>
  <trkpt lat="59.672388" lon="9.555258"><ele>708.0</ele></trkpt>
  <trkpt lat="59.672488" lon="9.555287"><ele>706.1</ele></trkpt>
  <trkpt lat="59.672570" lon="9.555357"><ele>705.2</ele></trkpt>
  <trkpt lat="59.672652" lon="9.555470"><ele>704.0</ele></trkpt>
  <trkpt lat="59.672740" lon="9.555623"><ele>702.9</ele></trkpt>
  <trkpt lat="59.672798" lon="9.555676"><ele>702.9</ele></trkpt>
  <trkpt lat="59.672911" lon="9.555797"><ele>703.1</ele></trkpt>
  <trkpt lat="59.672984" lon="9.555910"><ele>702.2</ele></trkpt>
  <trkpt lat="59.673051" lon="9.556073"><ele>702.4</ele></trkpt>
  <trkpt lat="59.673092" lon="9.556213"><ele>702.1</ele></trkpt>
  <trkpt lat="59.673229" lon="9.556872"><ele>696.3</ele></trkpt>
  <trkpt lat="59.673368" lon="9.557226"><ele>694.3</ele></trkpt>
  <trkpt lat="59.673447" lon="9.557511"><ele>693.9</ele></trkpt>
  <trkpt lat="59.673498" lon="9.557763"><ele>693.8</ele></trkpt>
  <trkpt lat="59.673574" lon="9.558002"><ele>694.8</ele></trkpt>
  <trkpt lat="59.673659" lon="9.558157"><ele>695.4</ele></trkpt>
  <trkpt lat="59.673764" lon="9.558264"><ele>696.1</ele></trkpt>
  <trkpt lat="59.673901" lon="9.558364"><ele>698.4</ele></trkpt>
  <trkpt lat="59.673955" lon="9.558460"><ele>698.9</ele></trkpt>
  <trkpt lat="59.674165" lon="9.558922"><ele>699.4</ele></trkpt>
  <trkpt lat="59.674324" lon="9.559198"><ele>699.0</ele></trkpt>
  <trkpt lat="59.674404" lon="9.559345"><ele>698.0</ele></trkpt>
  <trkpt lat="59.674475" lon="9.559552"><ele>697.8</ele></trkpt>
  <trkpt lat="59.674521" lon="9.559769"><ele>695.9</ele></trkpt>
  <trkpt lat="59.674521" lon="9.559954"><ele>695.6</ele></trkpt>
  <trkpt lat="59.674450" lon="9.560260"><ele>693.9</ele></trkpt>
  <trkpt lat="59.674379" lon="9.560507"><ele>691.6</ele></trkpt>
  <trkpt lat="59.674303" lon="9.560638"><ele>690.2</ele></trkpt>
  <trkpt lat="59.674202" lon="9.560673"><ele>690.0</ele></trkpt>
  <trkpt lat="59.674062" lon="9.560649"><ele>689.6</ele></trkpt>
  <trkpt lat="59.673956" lon="9.560606"><ele>689.5</ele></trkpt>
  <trkpt lat="59.673875" lon="9.560638"><ele>689.1</ele></trkpt>
  <trkpt lat="59.673787" lon="9.560783"><ele>688.3</ele></trkpt>
  <trkpt lat="59.673692" lon="9.561105"><ele>688.6</ele></trkpt>
  <trkpt lat="59.673581" lon="9.561298"><ele>691.1</ele></trkpt>
  <trkpt lat="59.673473" lon="9.561429"><ele>691.7</ele></trkpt>
  <trkpt lat="59.673219" lon="9.561636"><ele>689.8</ele></trkpt>
  <trkpt lat="59.672958" lon="9.561864"><ele>689.3</ele></trkpt>
  <trkpt lat="59.672870" lon="9.561974"><ele>689.0</ele></trkpt>
  <trkpt lat="59.672753" lon="9.562140"><ele>689.6</ele></trkpt>
  <trkpt lat="59.672604" lon="9.562293"><ele>689.7</ele></trkpt>
  <trkpt lat="59.672531" lon="9.562411"><ele>690.5</ele></trkpt>
  <trkpt lat="59.672487" lon="9.562543"><ele>690.8</ele></trkpt>
  <trkpt lat="59.672458" lon="9.562770"><ele>691.0</ele></trkpt>
  <trkpt lat="59.672430" lon="9.562894"><ele>690.7</ele></trkpt>
  <trkpt lat="59.672390" lon="9.562988"><ele>689.5</ele></trkpt>
  <trkpt lat="59.672344" lon="9.563036"><ele>688.3</ele></trkpt>
  <trkpt lat="59.672301" lon="9.563044"><ele>687.4</ele></trkpt>
  <trkpt lat="59.672159" lon="9.562977"><ele>686.3</ele></trkpt>
  <trkpt lat="59.672059" lon="9.562854"><ele>686.3</ele></trkpt>
  <trkpt lat="59.671776" lon="9.562317"><ele>686.5</ele></trkpt>
  <trkpt lat="59.671702" lon="9.562223"><ele>686.7</ele></trkpt>
  <trkpt lat="59.671622" lon="9.562181"><ele>687.3</ele></trkpt>
  <trkpt lat="59.671536" lon="9.562199"><ele>687.5</ele></trkpt>
  <trkpt lat="59.671369" lon="9.562301"><ele>684.1</ele></trkpt>
  <trkpt lat="59.671273" lon="9.562384"><ele>684.0</ele></trkpt>
  <trkpt lat="59.671205" lon="9.562527"><ele>684.2</ele></trkpt>
  <trkpt lat="59.671154" lon="9.562768"><ele>684.0</ele></trkpt>
  <trkpt lat="59.671115" lon="9.563285"><ele>684.0</ele></trkpt>
  <trkpt lat="59.671120" lon="9.563776"><ele>684.1</ele></trkpt>
  <trkpt lat="59.671201" lon="9.564230"><ele>683.2</ele></trkpt>
  <trkpt lat="59.671243" lon="9.564511"><ele>682.4</ele></trkpt>
  <trkpt lat="59.671278" lon="9.565013"><ele>680.8</ele></trkpt>
  <trkpt lat="59.671273" lon="9.565198"><ele>679.5</ele></trkpt>
  <trkpt lat="59.671224" lon="9.565394"><ele>677.9</ele></trkpt>
  <trkpt lat="59.671112" lon="9.565616"><ele>675.1</ele></trkpt>
  <trkpt lat="59.671058" lon="9.565724"><ele>672.3</ele></trkpt>
  <trkpt lat="59.671027" lon="9.565828"><ele>670.4</ele></trkpt>
  <trkpt lat="59.671024" lon="9.565938"><ele>669.5</ele></trkpt>
  <trkpt lat="59.671047" lon="9.566080"><ele>668.2</ele></trkpt>
  <trkpt lat="59.671120" lon="9.566338"><ele>666.5</ele></trkpt>
  <trkpt lat="59.671329" lon="9.566636"><ele>664.5</ele></trkpt>
  <trkpt lat="59.671524" lon="9.566877"><ele>662.3</ele></trkpt>
  <trkpt lat="59.671595" lon="9.567030"><ele>660.2</ele></trkpt>
  <trkpt lat="59.671628" lon="9.567228"><ele>658.9</ele></trkpt>
  <trkpt lat="59.671616" lon="9.567462"><ele>657.5</ele></trkpt>
  <trkpt lat="59.671553" lon="9.567727"><ele>654.4</ele></trkpt>
  <trkpt lat="59.671515" lon="9.568060"><ele>650.7</ele></trkpt>
  <trkpt lat="59.671510" lon="9.568414"><ele>646.6</ele></trkpt>
  <trkpt lat="59.671409" lon="9.569174"><ele>638.5</ele></trkpt>
  <trkpt lat="59.671394" lon="9.569348"><ele>637.6</ele></trkpt>
  <trkpt lat="59.671402" lon="9.569447"><ele>637.5</ele></trkpt>
  <trkpt lat="59.671400" lon="9.569596"><ele>636.9</ele></trkpt>
  <trkpt lat="59.671372" lon="9.569707"><ele>637.0</ele></trkpt>
  <trkpt lat="59.671301" lon="9.569879"><ele>636.3</ele></trkpt>
  <trkpt lat="59.671273" lon="9.570076"><ele>635.2</ele></trkpt>
  <trkpt lat="59.671257" lon="9.571093"><ele>630.9</ele></trkpt>
  <trkpt lat="59.671233" lon="9.571616"><ele>630.4</ele></trkpt>
  <trkpt lat="59.671207" lon="9.571934"><ele>629.4</ele></trkpt>
  <trkpt lat="59.671206" lon="9.572168"><ele>628.0</ele></trkpt>
  <trkpt lat="59.671162" lon="9.572419"><ele>625.9</ele></trkpt>
  <trkpt lat="59.671049" lon="9.572639"><ele>626.0</ele></trkpt>
  <trkpt lat="59.670876" lon="9.572986"><ele>628.1</ele></trkpt>
  <trkpt lat="59.670790" lon="9.573213"><ele>629.2</ele></trkpt>
  <trkpt lat="59.670749" lon="9.573642"><ele>628.1</ele></trkpt>
  <trkpt lat="59.670752" lon="9.573961"><ele>626.4</ele></trkpt>
  <trkpt lat="59.670753" lon="9.574186"><ele>626.9</ele></trkpt>
  <trkpt lat="59.670767" lon="9.574396"><ele>627.0</ele></trkpt>
  <trkpt lat="59.670844" lon="9.574515"><ele>625.8</ele></trkpt>
  <trkpt lat="59.670963" lon="9.574615"><ele>624.5</ele></trkpt>
  <trkpt lat="59.671026" lon="9.574716"><ele>623.9</ele></trkpt>
  <trkpt lat="59.671051" lon="9.574838"><ele>622.6</ele></trkpt>
  <trkpt lat="59.671051" lon="9.574949"><ele>621.5</ele></trkpt>
  <trkpt lat="59.671019" lon="9.575043"><ele>620.5</ele></trkpt>
  <trkpt lat="59.670947" lon="9.575166"><ele>619.3</ele></trkpt>
  <trkpt lat="59.670847" lon="9.575335"><ele>617.8</ele></trkpt>
  <trkpt lat="59.670752" lon="9.575442"><ele>615.2</ele></trkpt>
  <trkpt lat="59.670603" lon="9.575508"><ele>614.5</ele></trkpt>
  <trkpt lat="59.670526" lon="9.575537"><ele>614.0</ele></trkpt>
  <trkpt lat="59.670394" lon="9.575612"><ele>612.5</ele></trkpt>
  <trkpt lat="59.670280" lon="9.575632"><ele>610.6</ele></trkpt>
  <trkpt lat="59.670156" lon="9.575674"><ele>608.6</ele></trkpt>
  <trkpt lat="59.670055" lon="9.575733"><ele>606.2</ele></trkpt>
  <trkpt lat="59.669953" lon="9.575761"><ele>604.8</ele></trkpt>
  <trkpt lat="59.669885" lon="9.575840"><ele>603.8</ele></trkpt>
  <trkpt lat="59.669851" lon="9.575975"><ele>602.2</ele></trkpt>
  <trkpt lat="59.669807" lon="9.576041"><ele>601.6</ele></trkpt>
  <trkpt lat="59.669664" lon="9.576155"><ele>600.3</ele></trkpt>
  <trkpt lat="59.669633" lon="9.576222"><ele>599.0</ele></trkpt>
  <trkpt lat="59.669613" lon="9.576265"><ele>598.5</ele></trkpt>
  <trkpt lat="59.669605" lon="9.576312"><ele>598.1</ele></trkpt>
  <trkpt lat="59.669585" lon="9.576500"><ele>596.3</ele></trkpt>
  <trkpt lat="59.669581" lon="9.576770"><ele>593.5</ele></trkpt>
  <trkpt lat="59.669583" lon="9.577027"><ele>591.8</ele></trkpt>
  <trkpt lat="59.669579" lon="9.577250"><ele>591.5</ele></trkpt>
  <trkpt lat="59.669569" lon="9.577398"><ele>590.9</ele></trkpt>
  <trkpt lat="59.669567" lon="9.577416"><ele>590.9</ele></trkpt>
  <trkpt lat="59.669553" lon="9.577476"><ele>590.9</ele></trkpt>
  <trkpt lat="59.669536" lon="9.577547"><ele>590.8</ele></trkpt>
  <trkpt lat="59.669497" lon="9.577637"><ele>590.7</ele></trkpt>
  <trkpt lat="59.669392" lon="9.577810"><ele>590.5</ele></trkpt>
  <trkpt lat="59.669262" lon="9.577905"><ele>588.9</ele></trkpt>
 </trkseg></trk></gpx>