<?xml version="1.0" encoding="UTF-8"?>
<gpx version="1.1" creator="stikart_web trailguide-snapshot" xmlns="http://www.topografix.com/GPX/1/1">
 <trk><name>Fugleplassen øvre</name><desc>Fra Trailguide (trailguide.net), gradering: blue. 943 m, 75 m nedfart.</desc><trkseg>
  <trkpt lat="59.692115" lon="9.662948"><ele>370.0</ele></trkpt>
  <trkpt lat="59.692050" lon="9.662956"><ele>370.0</ele></trkpt>
  <trkpt lat="59.692011" lon="9.663012"><ele>370.0</ele></trkpt>
  <trkpt lat="59.691945" lon="9.663062"><ele>370.0</ele></trkpt>
  <trkpt lat="59.691882" lon="9.663094"><ele>371.0</ele></trkpt>
  <trkpt lat="59.691845" lon="9.663090"><ele>371.0</ele></trkpt>
  <trkpt lat="59.691500" lon="9.662746"><ele>369.0</ele></trkpt>
  <trkpt lat="59.691379" lon="9.662536"><ele>369.0</ele></trkpt>
  <trkpt lat="59.691289" lon="9.662508"><ele>368.0</ele></trkpt>
  <trkpt lat="59.691088" lon="9.662409"><ele>367.0</ele></trkpt>
  <trkpt lat="59.690995" lon="9.662337"><ele>366.0</ele></trkpt>
  <trkpt lat="59.690847" lon="9.662293"><ele>364.0</ele></trkpt>
  <trkpt lat="59.690707" lon="9.662130"><ele>364.0</ele></trkpt>
  <trkpt lat="59.690530" lon="9.662049"><ele>362.0</ele></trkpt>
  <trkpt lat="59.690277" lon="9.661888"><ele>361.0</ele></trkpt>
  <trkpt lat="59.690058" lon="9.661826"><ele>361.0</ele></trkpt>
  <trkpt lat="59.689964" lon="9.661765"><ele>360.0</ele></trkpt>
  <trkpt lat="59.689919" lon="9.661777"><ele>359.0</ele></trkpt>
  <trkpt lat="59.689867" lon="9.661767"><ele>359.0</ele></trkpt>
  <trkpt lat="59.689601" lon="9.661532"><ele>356.0</ele></trkpt>
  <trkpt lat="59.689562" lon="9.661526"><ele>356.0</ele></trkpt>
  <trkpt lat="59.689368" lon="9.661396"><ele>354.0</ele></trkpt>
  <trkpt lat="59.689254" lon="9.661269"><ele>353.0</ele></trkpt>
  <trkpt lat="59.689118" lon="9.661051"><ele>351.0</ele></trkpt>
  <trkpt lat="59.689028" lon="9.661014"><ele>350.0</ele></trkpt>
  <trkpt lat="59.688930" lon="9.660934"><ele>349.0</ele></trkpt>
  <trkpt lat="59.688732" lon="9.660818"><ele>347.0</ele></trkpt>
  <trkpt lat="59.688361" lon="9.660271"><ele>345.0</ele></trkpt>
  <trkpt lat="59.687987" lon="9.659844"><ele>343.0</ele></trkpt>
  <trkpt lat="59.687749" lon="9.659896"><ele>342.0</ele></trkpt>
  <trkpt lat="59.687703" lon="9.659922"><ele>342.0</ele></trkpt>
  <trkpt lat="59.687641" lon="9.659990"><ele>342.0</ele></trkpt>
  <trkpt lat="59.687598" lon="9.660004"><ele>341.0</ele></trkpt>
  <trkpt lat="59.687562" lon="9.659996"><ele>341.0</ele></trkpt>
  <trkpt lat="59.687407" lon="9.660022"><ele>340.0</ele></trkpt>
  <trkpt lat="59.687371" lon="9.660022"><ele>339.0</ele></trkpt>
  <trkpt lat="59.687284" lon="9.659985"><ele>338.0</ele></trkpt>
  <trkpt lat="59.687101" lon="9.659993"><ele>336.0</ele></trkpt>
  <trkpt lat="59.686642" lon="9.659921"><ele>328.0</ele></trkpt>
  <trkpt lat="59.686584" lon="9.659917"><ele>328.0</ele></trkpt>
  <trkpt lat="59.686490" lon="9.659949"><ele>326.0</ele></trkpt>
  <trkpt lat="59.686394" lon="9.659949"><ele>324.0</ele></trkpt>
  <trkpt lat="59.686310" lon="9.659926"><ele>323.0</ele></trkpt>
  <trkpt lat="59.686131" lon="9.659837"><ele>319.0</ele></trkpt>
  <trkpt lat="59.686009" lon="9.659705"><ele>317.0</ele></trkpt>
  <trkpt lat="59.685871" lon="9.659621"><ele>313.0</ele></trkpt>
  <trkpt lat="59.685709" lon="9.659593"><ele>311.0</ele></trkpt>
  <trkpt lat="59.685579" lon="9.659508"><ele>308.0</ele></trkpt>
  <trkpt lat="59.685543" lon="9.659500"><ele>307.0</ele></trkpt>
  <trkpt lat="59.685496" lon="9.659519"><ele>306.0</ele></trkpt>
  <trkpt lat="59.685463" lon="9.659503"><ele>305.0</ele></trkpt>
  <trkpt lat="59.685358" lon="9.659356"><ele>302.0</ele></trkpt>
  <trkpt lat="59.685287" lon="9.659325"><ele>301.0</ele></trkpt>
  <trkpt lat="59.685261" lon="9.659287"><ele>300.0</ele></trkpt>
  <trkpt lat="59.685131" lon="9.659198"><ele>298.0</ele></trkpt>
  <trkpt lat="59.684923" lon="9.659130"><ele>296.0</ele></trkpt>
  <trkpt lat="59.684839" lon="9.659166"><ele>296.0</ele></trkpt>
  <trkpt lat="59.684766" lon="9.659256"><ele>296.0</ele></trkpt>
  <trkpt lat="59.684512" lon="9.659208"><ele>295.0</ele></trkpt>
  <trkpt lat="59.684480" lon="9.659223"><ele>295.0</ele></trkpt>
  <trkpt lat="59.684373" lon="9.659292"><ele>295.0</ele></trkpt>
  <trkpt lat="59.684327" lon="9.659369"><ele>295.0</ele></trkpt>
  <trkpt lat="59.684206" lon="9.659477"><ele>294.0</ele></trkpt>
 </trkseg></trk></gpx>