<?xml version="1.0" encoding="UTF-8"?>
<gpx version="1.1" creator="stikart_web trailguide-snapshot" xmlns="http://www.topografix.com/GPX/1/1">
 <trk><name>Fugleplassen</name><desc>Fra Trailguide (trailguide.net), gradering: red. 1842 m, 141 m nedfart.</desc><trkseg>
  <trkpt lat="59.692214" lon="9.662886"><ele>370.0</ele></trkpt>
  <trkpt lat="59.692188" lon="9.662864"><ele>370.0</ele></trkpt>
  <trkpt lat="59.692170" lon="9.662803"><ele>370.0</ele></trkpt>
  <trkpt lat="59.692119" lon="9.662550"><ele>370.0</ele></trkpt>
  <trkpt lat="59.692070" lon="9.662456"><ele>370.0</ele></trkpt>
  <trkpt lat="59.692038" lon="9.662432"><ele>370.0</ele></trkpt>
  <trkpt lat="59.691966" lon="9.662110"><ele>370.0</ele></trkpt>
  <trkpt lat="59.691936" lon="9.662093"><ele>369.0</ele></trkpt>
  <trkpt lat="59.691560" lon="9.661634"><ele>367.0</ele></trkpt>
  <trkpt lat="59.691420" lon="9.661369"><ele>365.0</ele></trkpt>
  <trkpt lat="59.691364" lon="9.661349"><ele>364.0</ele></trkpt>
  <trkpt lat="59.691253" lon="9.661229"><ele>363.0</ele></trkpt>
  <trkpt lat="59.691191" lon="9.661017"><ele>362.0</ele></trkpt>
  <trkpt lat="59.691158" lon="9.660982"><ele>361.0</ele></trkpt>
  <trkpt lat="59.690979" lon="9.660854"><ele>360.0</ele></trkpt>
  <trkpt lat="59.690932" lon="9.660847"><ele>359.0</ele></trkpt>
  <trkpt lat="59.690871" lon="9.660809"><ele>359.0</ele></trkpt>
  <trkpt lat="59.690625" lon="9.660615"><ele>357.0</ele></trkpt>
  <trkpt lat="59.690479" lon="9.660551"><ele>356.0</ele></trkpt>
  <trkpt lat="59.690392" lon="9.660479"><ele>355.0</ele></trkpt>
  <trkpt lat="59.690230" lon="9.660282"><ele>353.0</ele></trkpt>
  <trkpt lat="59.690167" lon="9.660247"><ele>351.0</ele></trkpt>
  <trkpt lat="59.690057" lon="9.660206"><ele>349.0</ele></trkpt>
  <trkpt lat="59.689856" lon="9.660213"><ele>346.0</ele></trkpt>
  <trkpt lat="59.689720" lon="9.660132"><ele>344.0</ele></trkpt>
  <trkpt lat="59.689672" lon="9.660128"><ele>344.0</ele></trkpt>
  <trkpt lat="59.689624" lon="9.660163"><ele>343.0</ele></trkpt>
  <trkpt lat="59.689578" lon="9.660171"><ele>343.0</ele></trkpt>
  <trkpt lat="59.689415" lon="9.659991"><ele>340.0</ele></trkpt>
  <trkpt lat="59.689242" lon="9.659659"><ele>337.0</ele></trkpt>
  <trkpt lat="59.689188" lon="9.659595"><ele>336.0</ele></trkpt>
  <trkpt lat="59.689133" lon="9.659584"><ele>335.0</ele></trkpt>
  <trkpt lat="59.689089" lon="9.659545"><ele>335.0</ele></trkpt>
  <trkpt lat="59.689041" lon="9.659550"><ele>335.0</ele></trkpt>
  <trkpt lat="59.688931" lon="9.659526"><ele>334.0</ele></trkpt>
  <trkpt lat="59.688824" lon="9.659445"><ele>333.0</ele></trkpt>
  <trkpt lat="59.688712" lon="9.659394"><ele>333.0</ele></trkpt>
  <trkpt lat="59.688621" lon="9.659281"><ele>332.0</ele></trkpt>
  <trkpt lat="59.688584" lon="9.659261"><ele>332.0</ele></trkpt>
  <trkpt lat="59.688511" lon="9.659238"><ele>332.0</ele></trkpt>
  <trkpt lat="59.688430" lon="9.659245"><ele>332.0</ele></trkpt>
  <trkpt lat="59.688326" lon="9.659226"><ele>332.0</ele></trkpt>
  <trkpt lat="59.688291" lon="9.659229"><ele>332.0</ele></trkpt>
  <trkpt lat="59.688253" lon="9.659262"><ele>332.0</ele></trkpt>
  <trkpt lat="59.688217" lon="9.659260"><ele>332.0</ele></trkpt>
  <trkpt lat="59.688159" lon="9.659234"><ele>332.0</ele></trkpt>
  <trkpt lat="59.688066" lon="9.659231"><ele>332.0</ele></trkpt>
  <trkpt lat="59.687950" lon="9.659181"><ele>333.0</ele></trkpt>
  <trkpt lat="59.687797" lon="9.659036"><ele>333.0</ele></trkpt>
  <trkpt lat="59.687765" lon="9.659022"><ele>332.0</ele></trkpt>
  <trkpt lat="59.687614" lon="9.659047"><ele>332.0</ele></trkpt>
  <trkpt lat="59.687504" lon="9.659043"><ele>332.0</ele></trkpt>
  <trkpt lat="59.687434" lon="9.659079"><ele>332.0</ele></trkpt>
  <trkpt lat="59.687266" lon="9.659119"><ele>329.0</ele></trkpt>
  <trkpt lat="59.686895" lon="9.659110"><ele>322.0</ele></trkpt>
  <trkpt lat="59.686811" lon="9.659141"><ele>321.0</ele></trkpt>
  <trkpt lat="59.686469" lon="9.659199"><ele>315.0</ele></trkpt>
  <trkpt lat="59.685824" lon="9.659370"><ele>308.0</ele></trkpt>
  <trkpt lat="59.685754" lon="9.659313"><ele>307.0</ele></trkpt>
  <trkpt lat="59.685727" lon="9.659326"><ele>307.0</ele></trkpt>
  <trkpt lat="59.685520" lon="9.659337"><ele>304.0</ele></trkpt>
  <trkpt lat="59.685469" lon="9.659328"><ele>304.0</ele></trkpt>
  <trkpt lat="59.685308" lon="9.659229"><ele>302.0</ele></trkpt>
  <trkpt lat="59.685182" lon="9.659280"><ele>299.0</ele></trkpt>
  <trkpt lat="59.685133" lon="9.659235"><ele>298.0</ele></trkpt>
  <trkpt lat="59.685038" lon="9.659201"><ele>297.0</ele></trkpt>
  <trkpt lat="59.684861" lon="9.659222"><ele>296.0</ele></trkpt>
  <trkpt lat="59.684786" lon="9.659289"><ele>296.0</ele></trkpt>
  <trkpt lat="59.684560" lon="9.659294"><ele>295.0</ele></trkpt>
  <trkpt lat="59.684469" lon="9.659347"><ele>295.0</ele></trkpt>
  <trkpt lat="59.684364" lon="9.659346"><ele>294.0</ele></trkpt>
  <trkpt lat="59.684164" lon="9.659409"><ele>294.0</ele></trkpt>
  <trkpt lat="59.684088" lon="9.659365"><ele>293.0</ele></trkpt>
  <trkpt lat="59.683999" lon="9.659376"><ele>292.0</ele></trkpt>
  <trkpt lat="59.683962" lon="9.659403"><ele>292.0</ele></trkpt>
  <trkpt lat="59.683670" lon="9.659452"><ele>287.0</ele></trkpt>
  <trkpt lat="59.683581" lon="9.659439"><ele>286.0</ele></trkpt>
  <trkpt lat="59.683507" lon="9.659409"><ele>286.0</ele></trkpt>
  <trkpt lat="59.683460" lon="9.659420"><ele>285.0</ele></trkpt>
  <trkpt lat="59.683318" lon="9.659504"><ele>281.0</ele></trkpt>
  <trkpt lat="59.683201" lon="9.659504"><ele>279.0</ele></trkpt>
  <trkpt lat="59.683153" lon="9.659522"><ele>278.0</ele></trkpt>
  <trkpt lat="59.683080" lon="9.659493"><ele>277.0</ele></trkpt>
  <trkpt lat="59.682906" lon="9.659337"><ele>274.0</ele></trkpt>
  <trkpt lat="59.682781" lon="9.659290"><ele>273.0</ele></trkpt>
  <trkpt lat="59.682586" lon="9.659355"><ele>272.0</ele></trkpt>
  <trkpt lat="59.682454" lon="9.659368"><ele>271.0</ele></trkpt>
  <trkpt lat="59.682353" lon="9.659342"><ele>271.0</ele></trkpt>
  <trkpt lat="59.682243" lon="9.659255"><ele>270.0</ele></trkpt>
  <trkpt lat="59.682120" lon="9.659267"><ele>269.0</ele></trkpt>
  <trkpt lat="59.682064" lon="9.659251"><ele>269.0</ele></trkpt>
  <trkpt lat="59.682006" lon="9.659205"><ele>268.0</ele></trkpt>
  <trkpt lat="59.681917" lon="9.659229"><ele>267.0</ele></trkpt>
  <trkpt lat="59.681817" lon="9.659194"><ele>266.0</ele></trkpt>
  <trkpt lat="59.681666" lon="9.659061"><ele>263.0</ele></trkpt>
  <trkpt lat="59.681418" lon="9.658965"><ele>260.0</ele></trkpt>
  <trkpt lat="59.681196" lon="9.658981"><ele>259.0</ele></trkpt>
  <trkpt lat="59.680962" lon="9.658895"><ele>256.0</ele></trkpt>
  <trkpt lat="59.680853" lon="9.658920"><ele>255.0</ele></trkpt>
  <trkpt lat="59.680668" lon="9.658912"><ele>253.0</ele></trkpt>
  <trkpt lat="59.680630" lon="9.658939"><ele>252.0</ele></trkpt>
  <trkpt lat="59.680576" lon="9.659032"><ele>251.0</ele></trkpt>
  <trkpt lat="59.680390" lon="9.659235"><ele>247.0</ele></trkpt>
  <trkpt lat="59.680207" lon="9.659407"><ele>246.0</ele></trkpt>
  <trkpt lat="59.680062" lon="9.659402"><ele>244.0</ele></trkpt>
  <trkpt lat="59.679963" lon="9.659370"><ele>243.0</ele></trkpt>
  <trkpt lat="59.679709" lon="9.659236"><ele>242.0</ele></trkpt>
  <trkpt lat="59.679574" lon="9.659243"><ele>243.0</ele></trkpt>
  <trkpt lat="59.679539" lon="9.659215"><ele>243.0</ele></trkpt>
  <trkpt lat="59.679512" lon="9.659218"><ele>243.0</ele></trkpt>
  <trkpt lat="59.679436" lon="9.659284"><ele>242.0</ele></trkpt>
  <trkpt lat="59.679400" lon="9.659296"><ele>242.0</ele></trkpt>
  <trkpt lat="59.679366" lon="9.659272"><ele>242.0</ele></trkpt>
  <trkpt lat="59.679293" lon="9.659298"><ele>242.0</ele></trkpt>
  <trkpt lat="59.679084" lon="9.659486"><ele>242.0</ele></trkpt>
  <trkpt lat="59.678923" lon="9.659663"><ele>242.0</ele></trkpt>
  <trkpt lat="59.678852" lon="9.659705"><ele>242.0</ele></trkpt>
  <trkpt lat="59.678817" lon="9.659770"><ele>242.0</ele></trkpt>
  <trkpt lat="59.678710" lon="9.659886"><ele>242.0</ele></trkpt>
  <trkpt lat="59.678621" lon="9.660053"><ele>242.0</ele></trkpt>
  <trkpt lat="59.678513" lon="9.660207"><ele>244.0</ele></trkpt>
  <trkpt lat="59.678094" lon="9.660590"><ele>247.0</ele></trkpt>
  <trkpt lat="59.677994" lon="9.660666"><ele>247.0</ele></trkpt>
  <trkpt lat="59.677918" lon="9.660697"><ele>247.0</ele></trkpt>
  <trkpt lat="59.677787" lon="9.660641"><ele>247.0</ele></trkpt>
  <trkpt lat="59.677756" lon="9.660655"><ele>246.0</ele></trkpt>
  <trkpt lat="59.677726" lon="9.660643"><ele>246.0</ele></trkpt>
  <trkpt lat="59.677704" lon="9.660611"><ele>246.0</ele></trkpt>
  <trkpt lat="59.677674" lon="9.660605"><ele>246.0</ele></trkpt>
  <trkpt lat="59.677584" lon="9.660744"><ele>244.0</ele></trkpt>
  <trkpt lat="59.677477" lon="9.660800"><ele>242.0</ele></trkpt>
  <trkpt lat="59.677327" lon="9.660921"><ele>240.0</ele></trkpt>
  <trkpt lat="59.677264" lon="9.661001"><ele>238.0</ele></trkpt>
  <trkpt lat="59.676971" lon="9.661501"><ele>233.0</ele></trkpt>
  <trkpt lat="59.676899" lon="9.661591"><ele>232.0</ele></trkpt>
 </trkseg></trk></gpx>