<?xml version="1.0" encoding="UTF-8"?>
<gpx version="1.1" creator="stikart_web osm+kartverket" xmlns="http://www.topografix.com/GPX/1/1">
 <trk><name>Funkelia til Korsveien</name><desc>Geometri: OSM. Høyder: Kartverket.</desc><trkseg>
  <trkpt lat="59.662940" lon="9.622200"><ele>239.9</ele></trkpt>
  <trkpt lat="59.662880" lon="9.622140"><ele>240.3</ele></trkpt>
  <trkpt lat="59.662820" lon="9.622050"><ele>240.6</ele></trkpt>
  <trkpt lat="59.662790" lon="9.621970"><ele>240.7</ele></trkpt>
  <trkpt lat="59.662760" lon="9.622270"><ele>239.6</ele></trkpt>
  <trkpt lat="59.662730" lon="9.622320"><ele>239.5</ele></trkpt>
  <trkpt lat="59.662710" lon="9.622390"><ele>239.4</ele></trkpt>
  <trkpt lat="59.662680" lon="9.622620"><ele>239.4</ele></trkpt>
  <trkpt lat="59.662630" lon="9.622790"><ele>239.3</ele></trkpt>
  <trkpt lat="59.662520" lon="9.623030"><ele>238.9</ele></trkpt>
  <trkpt lat="59.662740" lon="9.623280"><ele>238.4</ele></trkpt>
  <trkpt lat="59.662790" lon="9.623410"><ele>238.3</ele></trkpt>
  <trkpt lat="59.662860" lon="9.623670"><ele>238.2</ele></trkpt>
  <trkpt lat="59.662920" lon="9.623750"><ele>238.2</ele></trkpt>
  <trkpt lat="59.663050" lon="9.623820"><ele>238.3</ele></trkpt>
  <trkpt lat="59.663110" lon="9.623810"><ele>238.5</ele></trkpt>
  <trkpt lat="59.663450" lon="9.623600"><ele>242.3</ele></trkpt>
  <trkpt lat="59.663520" lon="9.623510"><ele>243.3</ele></trkpt>
  <trkpt lat="59.663560" lon="9.623440"><ele>243.5</ele></trkpt>
  <trkpt lat="59.663640" lon="9.622860"><ele>243.1</ele></trkpt>
  <trkpt lat="59.663760" lon="9.622490"><ele>242.8</ele></trkpt>
  <trkpt lat="59.663800" lon="9.622470"><ele>242.9</ele></trkpt>
  <trkpt lat="59.663820" lon="9.622470"><ele>243.3</ele></trkpt>
  <trkpt lat="59.663900" lon="9.622520"><ele>245.3</ele></trkpt>
  <trkpt lat="59.664200" lon="9.622640"><ele>252.9</ele></trkpt>
  <trkpt lat="59.664330" lon="9.622770"><ele>256.4</ele></trkpt>
  <trkpt lat="59.664480" lon="9.622880"><ele>259.9</ele></trkpt>
  <trkpt lat="59.664630" lon="9.622930"><ele>262.9</ele></trkpt>
  <trkpt lat="59.664730" lon="9.622950"><ele>264.5</ele></trkpt>
  <trkpt lat="59.664840" lon="9.622960"><ele>265.9</ele></trkpt>
  <trkpt lat="59.664930" lon="9.622930"><ele>266.9</ele></trkpt>
  <trkpt lat="59.664980" lon="9.622920"><ele>266.7</ele></trkpt>
  <trkpt lat="59.665040" lon="9.622800"><ele>266.4</ele></trkpt>
  <trkpt lat="59.665090" lon="9.622790"><ele>265.9</ele></trkpt>
  <trkpt lat="59.665150" lon="9.622790"><ele>265.6</ele></trkpt>
  <trkpt lat="59.665160" lon="9.622760"><ele>265.2</ele></trkpt>
  <trkpt lat="59.665250" lon="9.622670"><ele>264.3</ele></trkpt>
  <trkpt lat="59.665460" lon="9.622620"><ele>262.3</ele></trkpt>
  <trkpt lat="59.665590" lon="9.622590"><ele>260.1</ele></trkpt>
  <trkpt lat="59.665680" lon="9.622590"><ele>258.0</ele></trkpt>
  <trkpt lat="59.665760" lon="9.622680"><ele>256.3</ele></trkpt>
  <trkpt lat="59.665830" lon="9.622840"><ele>254.5</ele></trkpt>
  <trkpt lat="59.665820" lon="9.622690"><ele>254.3</ele></trkpt>
  <trkpt lat="59.665810" lon="9.622590"><ele>253.5</ele></trkpt>
  <trkpt lat="59.665790" lon="9.622430"><ele>252.6</ele></trkpt>
  <trkpt lat="59.665790" lon="9.622230"><ele>250.7</ele></trkpt>
  <trkpt lat="59.665760" lon="9.621900"><ele>247.2</ele></trkpt>
  <trkpt lat="59.665790" lon="9.621720"><ele>246.2</ele></trkpt>
  <trkpt lat="59.665780" lon="9.621530"><ele>244.7</ele></trkpt>
  <trkpt lat="59.665750" lon="9.621370"><ele>243.5</ele></trkpt>
  <trkpt lat="59.665870" lon="9.621270"><ele>245.7</ele></trkpt>
  <trkpt lat="59.665850" lon="9.621160"><ele>245.2</ele></trkpt>
  <trkpt lat="59.665850" lon="9.621060"><ele>244.8</ele></trkpt>
  <trkpt lat="59.665890" lon="9.620760"><ele>243.9</ele></trkpt>
  <trkpt lat="59.665900" lon="9.620670"><ele>243.7</ele></trkpt>
  <trkpt lat="59.665920" lon="9.620390"><ele>243.4</ele></trkpt>
  <trkpt lat="59.665910" lon="9.620190"><ele>243.3</ele></trkpt>
  <trkpt lat="59.665940" lon="9.619820"><ele>243.9</ele></trkpt>
  <trkpt lat="59.666030" lon="9.619480"><ele>245.1</ele></trkpt>
  <trkpt lat="59.666130" lon="9.619440"><ele>245.3</ele></trkpt>
  <trkpt lat="59.666150" lon="9.619380"><ele>245.2</ele></trkpt>
  <trkpt lat="59.666180" lon="9.619340"><ele>245.1</ele></trkpt>
  <trkpt lat="59.666210" lon="9.619290"><ele>244.8</ele></trkpt>
  <trkpt lat="59.666230" lon="9.619230"><ele>244.7</ele></trkpt>
  <trkpt lat="59.666320" lon="9.619070"><ele>244.7</ele></trkpt>
  <trkpt lat="59.666400" lon="9.618900"><ele>244.9</ele></trkpt>
  <trkpt lat="59.666530" lon="9.618560"><ele>247.3</ele></trkpt>
  <trkpt lat="59.666570" lon="9.618380"><ele>250.3</ele></trkpt>
  <trkpt lat="59.666650" lon="9.618140"><ele>252.4</ele></trkpt>
  <trkpt lat="59.666690" lon="9.618050"><ele>255.9</ele></trkpt>
  <trkpt lat="59.666760" lon="9.618040"><ele>256.4</ele></trkpt>
  <trkpt lat="59.666830" lon="9.617930"><ele>259.9</ele></trkpt>
  <trkpt lat="59.666900" lon="9.617860"><ele>261.6</ele></trkpt>
  <trkpt lat="59.666990" lon="9.617740"><ele>264.6</ele></trkpt>
  <trkpt lat="59.667100" lon="9.617610"><ele>267.2</ele></trkpt>
  <trkpt lat="59.667210" lon="9.617440"><ele>271.0</ele></trkpt>
  <trkpt lat="59.667270" lon="9.617320"><ele>273.1</ele></trkpt>
  <trkpt lat="59.667310" lon="9.617110"><ele>274.8</ele></trkpt>
  <trkpt lat="59.667330" lon="9.617000"><ele>275.9</ele></trkpt>
  <trkpt lat="59.667360" lon="9.616810"><ele>277.9</ele></trkpt>
  <trkpt lat="59.667420" lon="9.616470"><ele>279.5</ele></trkpt>
  <trkpt lat="59.667460" lon="9.616320"><ele>279.7</ele></trkpt>
  <trkpt lat="59.667640" lon="9.615650"><ele>284.2</ele></trkpt>
  <trkpt lat="59.667660" lon="9.615490"><ele>284.6</ele></trkpt>
  <trkpt lat="59.667750" lon="9.615210"><ele>284.8</ele></trkpt>
  <trkpt lat="59.667860" lon="9.614950"><ele>285.4</ele></trkpt>
  <trkpt lat="59.667980" lon="9.614420"><ele>287.3</ele></trkpt>
  <trkpt lat="59.668020" lon="9.614090"><ele>288.8</ele></trkpt>
  <trkpt lat="59.668030" lon="9.614020"><ele>288.9</ele></trkpt>
  <trkpt lat="59.668040" lon="9.613910"><ele>289.3</ele></trkpt>
  <trkpt lat="59.668030" lon="9.613740"><ele>290.4</ele></trkpt>
  <trkpt lat="59.668020" lon="9.613590"><ele>292.3</ele></trkpt>
  <trkpt lat="59.667990" lon="9.613440"><ele>293.7</ele></trkpt>
  <trkpt lat="59.667930" lon="9.613200"><ele>297.1</ele></trkpt>
  <trkpt lat="59.667810" lon="9.612520"><ele>302.6</ele></trkpt>
  <trkpt lat="59.667760" lon="9.612340"><ele>303.8</ele></trkpt>
  <trkpt lat="59.667710" lon="9.611930"><ele>307.3</ele></trkpt>
  <trkpt lat="59.667770" lon="9.611660"><ele>310.3</ele></trkpt>
  <trkpt lat="59.667860" lon="9.611460"><ele>313.1</ele></trkpt>
  <trkpt lat="59.668020" lon="9.611220"><ele>318.2</ele></trkpt>
  <trkpt lat="59.668080" lon="9.611100"><ele>319.9</ele></trkpt>
  <trkpt lat="59.668130" lon="9.610860"><ele>323.8</ele></trkpt>
  <trkpt lat="59.668110" lon="9.610720"><ele>325.4</ele></trkpt>
  <trkpt lat="59.668090" lon="9.610580"><ele>326.2</ele></trkpt>
  <trkpt lat="59.667970" lon="9.610240"><ele>327.2</ele></trkpt>
  <trkpt lat="59.667880" lon="9.609960"><ele>329.9</ele></trkpt>
  <trkpt lat="59.667650" lon="9.610100"><ele>330.8</ele></trkpt>
  <trkpt lat="59.667480" lon="9.610180"><ele>331.6</ele></trkpt>
  <trkpt lat="59.667380" lon="9.610170"><ele>331.9</ele></trkpt>
  <trkpt lat="59.667290" lon="9.610110"><ele>332.4</ele></trkpt>
  <trkpt lat="59.667210" lon="9.610010"><ele>333.1</ele></trkpt>
  <trkpt lat="59.667100" lon="9.609860"><ele>334.4</ele></trkpt>
  <trkpt lat="59.667000" lon="9.609730"><ele>336.3</ele></trkpt>
  <trkpt lat="59.666870" lon="9.609640"><ele>336.9</ele></trkpt>
  <trkpt lat="59.666710" lon="9.609550"><ele>337.9</ele></trkpt>
  <trkpt lat="59.666530" lon="9.609520"><ele>339.0</ele></trkpt>
  <trkpt lat="59.666340" lon="9.609530"><ele>339.1</ele></trkpt>
  <trkpt lat="59.666080" lon="9.609510"><ele>339.4</ele></trkpt>
  <trkpt lat="59.665770" lon="9.609420"><ele>341.0</ele></trkpt>
  <trkpt lat="59.665690" lon="9.609410"><ele>341.4</ele></trkpt>
  <trkpt lat="59.665580" lon="9.609440"><ele>341.6</ele></trkpt>
  <trkpt lat="59.665430" lon="9.609510"><ele>341.6</ele></trkpt>
  <trkpt lat="59.665140" lon="9.609670"><ele>342.1</ele></trkpt>
  <trkpt lat="59.664690" lon="9.609960"><ele>346.7</ele></trkpt>
  <trkpt lat="59.664570" lon="9.610050"><ele>347.4</ele></trkpt>
  <trkpt lat="59.664440" lon="9.610190"><ele>347.5</ele></trkpt>
  <trkpt lat="59.664320" lon="9.610360"><ele>347.7</ele></trkpt>
  <trkpt lat="59.664180" lon="9.610520"><ele>348.7</ele></trkpt>
  <trkpt lat="59.664050" lon="9.610630"><ele>349.6</ele></trkpt>
  <trkpt lat="59.663940" lon="9.610680"><ele>350.5</ele></trkpt>
  <trkpt lat="59.663760" lon="9.610740"><ele>350.6</ele></trkpt>
  <trkpt lat="59.663640" lon="9.610800"><ele>350.8</ele></trkpt>
  <trkpt lat="59.663450" lon="9.610930"><ele>351.8</ele></trkpt>
  <trkpt lat="59.663150" lon="9.611240"><ele>354.6</ele></trkpt>
  <trkpt lat="59.662970" lon="9.611420"><ele>355.8</ele></trkpt>
  <trkpt lat="59.662770" lon="9.611580"><ele>356.3</ele></trkpt>
  <trkpt lat="59.662440" lon="9.611790"><ele>358.6</ele></trkpt>
  <trkpt lat="59.662350" lon="9.611830"><ele>358.8</ele></trkpt>
  <trkpt lat="59.662010" lon="9.612010"><ele>362.5</ele></trkpt>
  <trkpt lat="59.661860" lon="9.612060"><ele>364.7</ele></trkpt>
  <trkpt lat="59.661680" lon="9.612160"><ele>365.4</ele></trkpt>
  <trkpt lat="59.661600" lon="9.612170"><ele>365.3</ele></trkpt>
  <trkpt lat="59.661410" lon="9.612130"><ele>365.2</ele></trkpt>
  <trkpt lat="59.661270" lon="9.612070"><ele>365.0</ele></trkpt>
  <trkpt lat="59.661200" lon="9.612030"><ele>364.8</ele></trkpt>
  <trkpt lat="59.661020" lon="9.611990"><ele>364.1</ele></trkpt>
  <trkpt lat="59.660940" lon="9.611970"><ele>363.8</ele></trkpt>
  <trkpt lat="59.660890" lon="9.611920"><ele>363.8</ele></trkpt>
  <trkpt lat="59.660750" lon="9.611770"><ele>364.2</ele></trkpt>
  <trkpt lat="59.660610" lon="9.611630"><ele>364.7</ele></trkpt>
  <trkpt lat="59.660580" lon="9.611600"><ele>364.9</ele></trkpt>
  <trkpt lat="59.660480" lon="9.611560"><ele>365.3</ele></trkpt>
  <trkpt lat="59.660390" lon="9.611580"><ele>365.4</ele></trkpt>
  <trkpt lat="59.660320" lon="9.611620"><ele>365.0</ele></trkpt>
  <trkpt lat="59.660250" lon="9.611720"><ele>364.0</ele></trkpt>
 </trkseg></trk></gpx>