<?xml version="1.0" encoding="UTF-8"?>
<gpx version="1.1" creator="stikart_web trailguide-snapshot" xmlns="http://www.topografix.com/GPX/1/1">
 <trk><name>Gruveåsen</name><desc>Fra Trailguide (trailguide.net), gradering: red. 4417 m, 347 m nedfart.</desc><trkseg>
  <trkpt lat="59.675361" lon="9.569131"><ele>625.3</ele></trkpt>
  <trkpt lat="59.675441" lon="9.569005"><ele>625.4</ele></trkpt>
  <trkpt lat="59.675534" lon="9.568969"><ele>623.8</ele></trkpt>
  <trkpt lat="59.675654" lon="9.568663"><ele>624.4</ele></trkpt>
  <trkpt lat="59.675886" lon="9.568543"><ele>623.7</ele></trkpt>
  <trkpt lat="59.675987" lon="9.568474"><ele>623.8</ele></trkpt>
  <trkpt lat="59.676095" lon="9.568429"><ele>622.9</ele></trkpt>
  <trkpt lat="59.676277" lon="9.568290"><ele>619.1</ele></trkpt>
  <trkpt lat="59.676486" lon="9.567829"><ele>623.1</ele></trkpt>
  <trkpt lat="59.676567" lon="9.567730"><ele>623.2</ele></trkpt>
  <trkpt lat="59.676671" lon="9.567686"><ele>622.1</ele></trkpt>
  <trkpt lat="59.676754" lon="9.567578"><ele>622.5</ele></trkpt>
  <trkpt lat="59.676825" lon="9.567428"><ele>623.4</ele></trkpt>
  <trkpt lat="59.676916" lon="9.567318"><ele>623.8</ele></trkpt>
  <trkpt lat="59.676926" lon="9.567132"><ele>626.1</ele></trkpt>
  <trkpt lat="59.676983" lon="9.566983"><ele>627.5</ele></trkpt>
  <trkpt lat="59.677183" lon="9.566860"><ele>627.5</ele></trkpt>
  <trkpt lat="59.677378" lon="9.566703"><ele>627.2</ele></trkpt>
  <trkpt lat="59.677517" lon="9.566453"><ele>626.4</ele></trkpt>
  <trkpt lat="59.677577" lon="9.566294"><ele>625.7</ele></trkpt>
  <trkpt lat="59.677626" lon="9.565933"><ele>625.2</ele></trkpt>
  <trkpt lat="59.677533" lon="9.565810"><ele>629.3</ele></trkpt>
  <trkpt lat="59.677606" lon="9.565470"><ele>626.0</ele></trkpt>
  <trkpt lat="59.677570" lon="9.565082"><ele>626.2</ele></trkpt>
  <trkpt lat="59.677535" lon="9.564914"><ele>627.4</ele></trkpt>
  <trkpt lat="59.677494" lon="9.564538"><ele>629.6</ele></trkpt>
  <trkpt lat="59.677513" lon="9.564126"><ele>629.8</ele></trkpt>
  <trkpt lat="59.677552" lon="9.563934"><ele>629.8</ele></trkpt>
  <trkpt lat="59.677656" lon="9.563613"><ele>628.9</ele></trkpt>
  <trkpt lat="59.677693" lon="9.563433"><ele>632.0</ele></trkpt>
  <trkpt lat="59.677782" lon="9.563323"><ele>631.7</ele></trkpt>
  <trkpt lat="59.677869" lon="9.563176"><ele>628.3</ele></trkpt>
  <trkpt lat="59.677985" lon="9.562653"><ele>629.9</ele></trkpt>
  <trkpt lat="59.677947" lon="9.562461"><ele>632.2</ele></trkpt>
  <trkpt lat="59.678025" lon="9.562351"><ele>630.4</ele></trkpt>
  <trkpt lat="59.678087" lon="9.562191"><ele>629.5</ele></trkpt>
  <trkpt lat="59.678165" lon="9.561849"><ele>628.7</ele></trkpt>
  <trkpt lat="59.678176" lon="9.561626"><ele>630.3</ele></trkpt>
  <trkpt lat="59.678224" lon="9.561423"><ele>631.6</ele></trkpt>
  <trkpt lat="59.678254" lon="9.561182"><ele>631.6</ele></trkpt>
  <trkpt lat="59.678251" lon="9.560974"><ele>631.5</ele></trkpt>
  <trkpt lat="59.678280" lon="9.560503"><ele>636.6</ele></trkpt>
  <trkpt lat="59.678234" lon="9.560334"><ele>638.2</ele></trkpt>
  <trkpt lat="59.678298" lon="9.560205"><ele>640.1</ele></trkpt>
  <trkpt lat="59.678326" lon="9.560032"><ele>641.9</ele></trkpt>
  <trkpt lat="59.678256" lon="9.559888"><ele>643.0</ele></trkpt>
  <trkpt lat="59.678230" lon="9.559498"><ele>646.9</ele></trkpt>
  <trkpt lat="59.678161" lon="9.559379"><ele>647.5</ele></trkpt>
  <trkpt lat="59.678242" lon="9.559273"><ele>649.1</ele></trkpt>
  <trkpt lat="59.678260" lon="9.559094"><ele>650.0</ele></trkpt>
  <trkpt lat="59.678260" lon="9.558888"><ele>650.0</ele></trkpt>
  <trkpt lat="59.678297" lon="9.558721"><ele>650.0</ele></trkpt>
  <trkpt lat="59.678306" lon="9.558529"><ele>650.0</ele></trkpt>
  <trkpt lat="59.678275" lon="9.558288"><ele>650.0</ele></trkpt>
  <trkpt lat="59.678289" lon="9.558105"><ele>655.1</ele></trkpt>
  <trkpt lat="59.678364" lon="9.557946"><ele>656.0</ele></trkpt>
  <trkpt lat="59.678420" lon="9.557773"><ele>657.3</ele></trkpt>
  <trkpt lat="59.678366" lon="9.557184"><ele>660.0</ele></trkpt>
  <trkpt lat="59.678371" lon="9.556956"><ele>660.0</ele></trkpt>
  <trkpt lat="59.678356" lon="9.556778"><ele>660.0</ele></trkpt>
  <trkpt lat="59.678329" lon="9.556598"><ele>664.1</ele></trkpt>
  <trkpt lat="59.678281" lon="9.556443"><ele>664.7</ele></trkpt>
  <trkpt lat="59.678236" lon="9.556058"><ele>667.1</ele></trkpt>
  <trkpt lat="59.678158" lon="9.555893"><ele>668.8</ele></trkpt>
  <trkpt lat="59.678154" lon="9.555708"><ele>670.0</ele></trkpt>
  <trkpt lat="59.678179" lon="9.555531"><ele>670.0</ele></trkpt>
  <trkpt lat="59.678167" lon="9.555348"><ele>670.0</ele></trkpt>
  <trkpt lat="59.678110" lon="9.555205"><ele>670.0</ele></trkpt>
  <trkpt lat="59.678086" lon="9.555030"><ele>670.0</ele></trkpt>
  <trkpt lat="59.678073" lon="9.554645"><ele>670.0</ele></trkpt>
  <trkpt lat="59.678009" lon="9.554506"><ele>675.3</ele></trkpt>
  <trkpt lat="59.678002" lon="9.554318"><ele>680.0</ele></trkpt>
  <trkpt lat="59.678099" lon="9.554005"><ele>680.0</ele></trkpt>
  <trkpt lat="59.678182" lon="9.553900"><ele>680.0</ele></trkpt>
  <trkpt lat="59.678273" lon="9.553926"><ele>680.0</ele></trkpt>
  <trkpt lat="59.678364" lon="9.553887"><ele>680.0</ele></trkpt>
  <trkpt lat="59.678447" lon="9.553777"><ele>680.0</ele></trkpt>
  <trkpt lat="59.678533" lon="9.553694"><ele>681.5</ele></trkpt>
  <trkpt lat="59.678625" lon="9.553701"><ele>682.9</ele></trkpt>
  <trkpt lat="59.678723" lon="9.553670"><ele>684.4</ele></trkpt>
  <trkpt lat="59.678881" lon="9.553434"><ele>688.2</ele></trkpt>
  <trkpt lat="59.678940" lon="9.553290"><ele>690.0</ele></trkpt>
  <trkpt lat="59.679109" lon="9.553111"><ele>690.0</ele></trkpt>
  <trkpt lat="59.679167" lon="9.552971"><ele>690.0</ele></trkpt>
  <trkpt lat="59.679225" lon="9.553109"><ele>690.0</ele></trkpt>
  <trkpt lat="59.679302" lon="9.553213"><ele>690.0</ele></trkpt>
  <trkpt lat="59.679391" lon="9.553243"><ele>690.0</ele></trkpt>
  <trkpt lat="59.679475" lon="9.553329"><ele>690.0</ele></trkpt>
  <trkpt lat="59.679422" lon="9.553172"><ele>690.0</ele></trkpt>
  <trkpt lat="59.679333" lon="9.553134"><ele>690.0</ele></trkpt>
  <trkpt lat="59.679178" lon="9.552946"><ele>690.0</ele></trkpt>
  <trkpt lat="59.679269" lon="9.552950"><ele>690.0</ele></trkpt>
  <trkpt lat="59.679360" lon="9.552924"><ele>690.0</ele></trkpt>
  <trkpt lat="59.679447" lon="9.552858"><ele>690.0</ele></trkpt>
  <trkpt lat="59.679554" lon="9.552806"><ele>690.0</ele></trkpt>
  <trkpt lat="59.679713" lon="9.552515"><ele>694.3</ele></trkpt>
  <trkpt lat="59.679807" lon="9.552400"><ele>694.3</ele></trkpt>
  <trkpt lat="59.679980" lon="9.552247"><ele>694.4</ele></trkpt>
  <trkpt lat="59.680070" lon="9.552214"><ele>694.3</ele></trkpt>
  <trkpt lat="59.680217" lon="9.551939"><ele>696.0</ele></trkpt>
  <trkpt lat="59.680254" lon="9.551756"><ele>697.7</ele></trkpt>
  <trkpt lat="59.680311" lon="9.551615"><ele>701.1</ele></trkpt>
  <trkpt lat="59.680396" lon="9.551532"><ele>700.9</ele></trkpt>
  <trkpt lat="59.680495" lon="9.551486"><ele>702.6</ele></trkpt>
  <trkpt lat="59.680602" lon="9.551547"><ele>702.5</ele></trkpt>
  <trkpt lat="59.680698" lon="9.551492"><ele>703.5</ele></trkpt>
  <trkpt lat="59.680767" lon="9.551260"><ele>705.8</ele></trkpt>
  <trkpt lat="59.680938" lon="9.551081"><ele>705.9</ele></trkpt>
  <trkpt lat="59.681086" lon="9.550760"><ele>704.2</ele></trkpt>
  <trkpt lat="59.681109" lon="9.550583"><ele>704.0</ele></trkpt>
  <trkpt lat="59.681079" lon="9.550387"><ele>704.5</ele></trkpt>
  <trkpt lat="59.681086" lon="9.550170"><ele>700.0</ele></trkpt>
  <trkpt lat="59.681207" lon="9.549584"><ele>700.0</ele></trkpt>
  <trkpt lat="59.681300" lon="9.549625"><ele>700.0</ele></trkpt>
  <trkpt lat="59.681484" lon="9.549774"><ele>698.6</ele></trkpt>
  <trkpt lat="59.681571" lon="9.549880"><ele>699.0</ele></trkpt>
  <trkpt lat="59.681663" lon="9.549929"><ele>699.4</ele></trkpt>
  <trkpt lat="59.681758" lon="9.549912"><ele>697.5</ele></trkpt>
  <trkpt lat="59.681880" lon="9.550014"><ele>695.8</ele></trkpt>
  <trkpt lat="59.681987" lon="9.550053"><ele>693.8</ele></trkpt>
  <trkpt lat="59.682081" lon="9.550117"><ele>688.0</ele></trkpt>
  <trkpt lat="59.682170" lon="9.550200"><ele>689.9</ele></trkpt>
  <trkpt lat="59.682285" lon="9.550063"><ele>687.2</ele></trkpt>
  <trkpt lat="59.682372" lon="9.549994"><ele>684.6</ele></trkpt>
  <trkpt lat="59.682485" lon="9.549965"><ele>681.2</ele></trkpt>
  <trkpt lat="59.682682" lon="9.549783"><ele>674.4</ele></trkpt>
  <trkpt lat="59.682776" lon="9.549722"><ele>670.8</ele></trkpt>
  <trkpt lat="59.682902" lon="9.549815"><ele>672.4</ele></trkpt>
  <trkpt lat="59.682982" lon="9.549936"><ele>666.2</ele></trkpt>
  <trkpt lat="59.683333" lon="9.550733"><ele>655.9</ele></trkpt>
  <trkpt lat="59.683858" lon="9.551226"><ele>645.4</ele></trkpt>
  <trkpt lat="59.683968" lon="9.551300"><ele>643.6</ele></trkpt>
  <trkpt lat="59.684076" lon="9.551291"><ele>641.8</ele></trkpt>
  <trkpt lat="59.684211" lon="9.551230"><ele>638.9</ele></trkpt>
  <trkpt lat="59.684334" lon="9.551197"><ele>635.6</ele></trkpt>
  <trkpt lat="59.684561" lon="9.551263"><ele>630.1</ele></trkpt>
  <trkpt lat="59.684652" lon="9.551314"><ele>628.0</ele></trkpt>
  <trkpt lat="59.684860" lon="9.551528"><ele>623.5</ele></trkpt>
  <trkpt lat="59.685079" lon="9.551654"><ele>618.3</ele></trkpt>
  <trkpt lat="59.685184" lon="9.551743"><ele>615.2</ele></trkpt>
  <trkpt lat="59.685306" lon="9.551778"><ele>612.0</ele></trkpt>
  <trkpt lat="59.685396" lon="9.551843"><ele>609.4</ele></trkpt>
  <trkpt lat="59.685494" lon="9.551948"><ele>606.1</ele></trkpt>
  <trkpt lat="59.685628" lon="9.552059"><ele>602.2</ele></trkpt>
  <trkpt lat="59.685781" lon="9.552157"><ele>600.5</ele></trkpt>
  <trkpt lat="59.685879" lon="9.552128"><ele>601.3</ele></trkpt>
  <trkpt lat="59.686092" lon="9.551961"><ele>595.4</ele></trkpt>
  <trkpt lat="59.686159" lon="9.552081"><ele>595.6</ele></trkpt>
  <trkpt lat="59.686066" lon="9.551945"><ele>595.5</ele></trkpt>
  <trkpt lat="59.686314" lon="9.551975"><ele>592.6</ele></trkpt>
  <trkpt lat="59.686443" lon="9.551966"><ele>590.9</ele></trkpt>
  <trkpt lat="59.686578" lon="9.552011"><ele>589.3</ele></trkpt>
  <trkpt lat="59.686966" lon="9.552315"><ele>586.1</ele></trkpt>
  <trkpt lat="59.687071" lon="9.552336"><ele>584.5</ele></trkpt>
  <trkpt lat="59.687177" lon="9.552397"><ele>583.2</ele></trkpt>
  <trkpt lat="59.687277" lon="9.552498"><ele>582.2</ele></trkpt>
  <trkpt lat="59.687449" lon="9.552780"><ele>580.0</ele></trkpt>
  <trkpt lat="59.687652" lon="9.553041"><ele>580.0</ele></trkpt>
  <trkpt lat="59.687770" lon="9.553118"><ele>576.4</ele></trkpt>
  <trkpt lat="59.687952" lon="9.553379"><ele>573.9</ele></trkpt>
  <trkpt lat="59.688170" lon="9.553568"><ele>570.0</ele></trkpt>
  <trkpt lat="59.688268" lon="9.553697"><ele>570.5</ele></trkpt>
  <trkpt lat="59.688357" lon="9.553769"><ele>568.5</ele></trkpt>
  <trkpt lat="59.688475" lon="9.553775"><ele>566.8</ele></trkpt>
  <trkpt lat="59.688580" lon="9.553825"><ele>565.8</ele></trkpt>
  <trkpt lat="59.688678" lon="9.553848"><ele>565.0</ele></trkpt>
  <trkpt lat="59.688788" lon="9.553823"><ele>564.1</ele></trkpt>
  <trkpt lat="59.688985" lon="9.553736"><ele>562.3</ele></trkpt>
  <trkpt lat="59.689324" lon="9.553632"><ele>557.7</ele></trkpt>
  <trkpt lat="59.689465" lon="9.553675"><ele>555.9</ele></trkpt>
  <trkpt lat="59.689581" lon="9.553754"><ele>555.0</ele></trkpt>
  <trkpt lat="59.689714" lon="9.553817"><ele>553.4</ele></trkpt>
  <trkpt lat="59.689843" lon="9.553838"><ele>551.1</ele></trkpt>
  <trkpt lat="59.689950" lon="9.553881"><ele>549.2</ele></trkpt>
  <trkpt lat="59.690053" lon="9.554001"><ele>547.7</ele></trkpt>
  <trkpt lat="59.690135" lon="9.554148"><ele>546.7</ele></trkpt>
  <trkpt lat="59.690181" lon="9.554303"><ele>546.6</ele></trkpt>
  <trkpt lat="59.690362" lon="9.554570"><ele>544.9</ele></trkpt>
  <trkpt lat="59.690493" lon="9.554885"><ele>544.0</ele></trkpt>
  <trkpt lat="59.690659" lon="9.555146"><ele>540.0</ele></trkpt>
  <trkpt lat="59.690737" lon="9.555240"><ele>540.0</ele></trkpt>
  <trkpt lat="59.690884" lon="9.555614"><ele>540.0</ele></trkpt>
  <trkpt lat="59.690918" lon="9.556716"><ele>535.4</ele></trkpt>
  <trkpt lat="59.690945" lon="9.556932"><ele>534.8</ele></trkpt>
  <trkpt lat="59.691036" lon="9.557262"><ele>532.2</ele></trkpt>
  <trkpt lat="59.691011" lon="9.557478"><ele>531.3</ele></trkpt>
  <trkpt lat="59.690933" lon="9.557688"><ele>531.7</ele></trkpt>
  <trkpt lat="59.690795" lon="9.558292"><ele>531.0</ele></trkpt>
  <trkpt lat="59.690788" lon="9.558477"><ele>531.7</ele></trkpt>
  <trkpt lat="59.690859" lon="9.558654"><ele>530.0</ele></trkpt>
  <trkpt lat="59.690947" lon="9.558711"><ele>526.1</ele></trkpt>
  <trkpt lat="59.690975" lon="9.558906"><ele>524.9</ele></trkpt>
  <trkpt lat="59.691069" lon="9.558868"><ele>524.7</ele></trkpt>
  <trkpt lat="59.691180" lon="9.558897"><ele>520.0</ele></trkpt>
  <trkpt lat="59.691244" lon="9.559058"><ele>520.0</ele></trkpt>
  <trkpt lat="59.691215" lon="9.559260"><ele>520.0</ele></trkpt>
  <trkpt lat="59.691295" lon="9.559467"><ele>519.7</ele></trkpt>
  <trkpt lat="59.691327" lon="9.559668"><ele>518.0</ele></trkpt>
  <trkpt lat="59.691310" lon="9.559976"><ele>514.8</ele></trkpt>
  <trkpt lat="59.691265" lon="9.560273"><ele>511.3</ele></trkpt>
  <trkpt lat="59.691214" lon="9.560457"><ele>508.7</ele></trkpt>
  <trkpt lat="59.691175" lon="9.560726"><ele>505.9</ele></trkpt>
  <trkpt lat="59.691061" lon="9.561183"><ele>499.4</ele></trkpt>
  <trkpt lat="59.690953" lon="9.561783"><ele>494.1</ele></trkpt>
  <trkpt lat="59.690879" lon="9.561968"><ele>491.6</ele></trkpt>
  <trkpt lat="59.690792" lon="9.562100"><ele>489.2</ele></trkpt>
  <trkpt lat="59.690585" lon="9.562141"><ele>486.1</ele></trkpt>
  <trkpt lat="59.690403" lon="9.562338"><ele>486.6</ele></trkpt>
  <trkpt lat="59.690328" lon="9.562471"><ele>487.2</ele></trkpt>
  <trkpt lat="59.690274" lon="9.562622"><ele>486.7</ele></trkpt>
  <trkpt lat="59.690162" lon="9.562992"><ele>483.2</ele></trkpt>
  <trkpt lat="59.690101" lon="9.563255"><ele>479.6</ele></trkpt>
  <trkpt lat="59.690018" lon="9.563473"><ele>478.3</ele></trkpt>
  <trkpt lat="59.689892" lon="9.563660"><ele>476.9</ele></trkpt>
  <trkpt lat="59.689734" lon="9.563760"><ele>477.2</ele></trkpt>
  <trkpt lat="59.689634" lon="9.563913"><ele>477.3</ele></trkpt>
  <trkpt lat="59.689557" lon="9.564106"><ele>476.8</ele></trkpt>
  <trkpt lat="59.689473" lon="9.564260"><ele>476.7</ele></trkpt>
  <trkpt lat="59.689275" lon="9.564384"><ele>477.0</ele></trkpt>
  <trkpt lat="59.688927" lon="9.564924"><ele>472.7</ele></trkpt>
  <trkpt lat="59.688826" lon="9.564993"><ele>471.7</ele></trkpt>
  <trkpt lat="59.688658" lon="9.565143"><ele>468.2</ele></trkpt>
  <trkpt lat="59.688568" lon="9.565252"><ele>466.6</ele></trkpt>
  <trkpt lat="59.688431" lon="9.566077"><ele>457.1</ele></trkpt>
  <trkpt lat="59.688305" lon="9.566499"><ele>452.4</ele></trkpt>
  <trkpt lat="59.688120" lon="9.567222"><ele>446.1</ele></trkpt>
  <trkpt lat="59.687976" lon="9.567620"><ele>442.5</ele></trkpt>
  <trkpt lat="59.687952" lon="9.567804"><ele>440.3</ele></trkpt>
  <trkpt lat="59.688031" lon="9.568207"><ele>434.3</ele></trkpt>
  <trkpt lat="59.688127" lon="9.568579"><ele>428.2</ele></trkpt>
  <trkpt lat="59.688111" lon="9.568759"><ele>426.0</ele></trkpt>
  <trkpt lat="59.687943" lon="9.569134"><ele>421.5</ele></trkpt>
  <trkpt lat="59.687879" lon="9.569391"><ele>418.2</ele></trkpt>
  <trkpt lat="59.687762" lon="9.570418"><ele>410.0</ele></trkpt>
  <trkpt lat="59.687671" lon="9.570652"><ele>410.0</ele></trkpt>
  <trkpt lat="59.687610" lon="9.570866"><ele>404.6</ele></trkpt>
  <trkpt lat="59.687594" lon="9.571118"><ele>400.0</ele></trkpt>
  <trkpt lat="59.687512" lon="9.571700"><ele>400.0</ele></trkpt>
  <trkpt lat="59.687497" lon="9.572074"><ele>396.0</ele></trkpt>
  <trkpt lat="59.687501" lon="9.572535"><ele>390.0</ele></trkpt>
  <trkpt lat="59.687430" lon="9.573050"><ele>390.0</ele></trkpt>
  <trkpt lat="59.687391" lon="9.573220"><ele>390.0</ele></trkpt>
  <trkpt lat="59.687281" lon="9.573528"><ele>390.0</ele></trkpt>
  <trkpt lat="59.687250" lon="9.573764"><ele>390.0</ele></trkpt>
  <trkpt lat="59.687236" lon="9.574864"><ele>380.0</ele></trkpt>
  <trkpt lat="59.687215" lon="9.575098"><ele>380.0</ele></trkpt>
  <trkpt lat="59.687144" lon="9.575297"><ele>380.0</ele></trkpt>
  <trkpt lat="59.687063" lon="9.575663"><ele>380.0</ele></trkpt>
  <trkpt lat="59.687001" lon="9.575827"><ele>380.0</ele></trkpt>
  <trkpt lat="59.686924" lon="9.576226"><ele>374.2</ele></trkpt>
  <trkpt lat="59.686865" lon="9.576391"><ele>370.0</ele></trkpt>
  <trkpt lat="59.686798" lon="9.576737"><ele>370.0</ele></trkpt>
  <trkpt lat="59.686788" lon="9.577017"><ele>370.0</ele></trkpt>
  <trkpt lat="59.686898" lon="9.577221"><ele>370.0</ele></trkpt>
  <trkpt lat="59.686949" lon="9.577418"><ele>365.8</ele></trkpt>
  <trkpt lat="59.686904" lon="9.577878"><ele>360.0</ele></trkpt>
  <trkpt lat="59.686909" lon="9.578090"><ele>360.0</ele></trkpt>
  <trkpt lat="59.686938" lon="9.578294"><ele>360.0</ele></trkpt>
  <trkpt lat="59.686993" lon="9.578489"><ele>360.0</ele></trkpt>
  <trkpt lat="59.687003" lon="9.578687"><ele>360.0</ele></trkpt>
 </trkseg></trk></gpx>