<?xml version="1.0" encoding="UTF-8"?>
<gpx version="1.1" creator="stikart_web trailguide-snapshot" xmlns="http://www.topografix.com/GPX/1/1">
 <trk><name>Gruvesafari</name><desc>Fra Trailguide (trailguide.net), gradering: blue. 599 m, 26 m nedfart.</desc><trkseg>
  <trkpt lat="59.657567" lon="9.614082"><ele>379.0</ele></trkpt>
  <trkpt lat="59.657570" lon="9.614157"><ele>379.2</ele></trkpt>
  <trkpt lat="59.657506" lon="9.614329"><ele>379.7</ele></trkpt>
  <trkpt lat="59.657487" lon="9.614475"><ele>379.9</ele></trkpt>
  <trkpt lat="59.657430" lon="9.614615"><ele>379.8</ele></trkpt>
  <trkpt lat="59.657434" lon="9.614768"><ele>379.4</ele></trkpt>
  <trkpt lat="59.657500" lon="9.615075"><ele>378.2</ele></trkpt>
  <trkpt lat="59.657454" lon="9.615140"><ele>377.9</ele></trkpt>
  <trkpt lat="59.657370" lon="9.615120"><ele>376.9</ele></trkpt>
  <trkpt lat="59.657178" lon="9.614948"><ele>373.6</ele></trkpt>
  <trkpt lat="59.657092" lon="9.614985"><ele>373.0</ele></trkpt>
  <trkpt lat="59.657052" lon="9.615077"><ele>372.7</ele></trkpt>
  <trkpt lat="59.656990" lon="9.615135"><ele>372.4</ele></trkpt>
  <trkpt lat="59.656891" lon="9.615298"><ele>371.9</ele></trkpt>
  <trkpt lat="59.656844" lon="9.615337"><ele>371.6</ele></trkpt>
  <trkpt lat="59.656674" lon="9.615579"><ele>369.7</ele></trkpt>
  <trkpt lat="59.656637" lon="9.615645"><ele>369.2</ele></trkpt>
  <trkpt lat="59.656590" lon="9.615832"><ele>368.4</ele></trkpt>
  <trkpt lat="59.656487" lon="9.615963"><ele>368.0</ele></trkpt>
  <trkpt lat="59.656359" lon="9.616059"><ele>367.7</ele></trkpt>
  <trkpt lat="59.656309" lon="9.616028"><ele>367.6</ele></trkpt>
  <trkpt lat="59.656260" lon="9.616046"><ele>367.5</ele></trkpt>
  <trkpt lat="59.656163" lon="9.616113"><ele>367.3</ele></trkpt>
  <trkpt lat="59.656143" lon="9.616151"><ele>367.3</ele></trkpt>
  <trkpt lat="59.655988" lon="9.616249"><ele>366.7</ele></trkpt>
  <trkpt lat="59.655701" lon="9.616344"><ele>365.9</ele></trkpt>
  <trkpt lat="59.655642" lon="9.616393"><ele>365.8</ele></trkpt>
  <trkpt lat="59.655613" lon="9.616393"><ele>365.9</ele></trkpt>
  <trkpt lat="59.655450" lon="9.616491"><ele>366.3</ele></trkpt>
  <trkpt lat="59.655431" lon="9.616528"><ele>366.6</ele></trkpt>
  <trkpt lat="59.655400" lon="9.616502"><ele>366.9</ele></trkpt>
  <trkpt lat="59.655318" lon="9.616572"><ele>368.4</ele></trkpt>
  <trkpt lat="59.655226" lon="9.616684"><ele>371.7</ele></trkpt>
  <trkpt lat="59.655162" lon="9.616718"><ele>372.9</ele></trkpt>
  <trkpt lat="59.655132" lon="9.616722"><ele>373.1</ele></trkpt>
  <trkpt lat="59.655106" lon="9.616700"><ele>373.2</ele></trkpt>
  <trkpt lat="59.655082" lon="9.616725"><ele>373.4</ele></trkpt>
  <trkpt lat="59.655054" lon="9.616724"><ele>373.5</ele></trkpt>
  <trkpt lat="59.655018" lon="9.616831"><ele>373.6</ele></trkpt>
  <trkpt lat="59.654937" lon="9.616978"><ele>373.5</ele></trkpt>
  <trkpt lat="59.654861" lon="9.617236"><ele>373.4</ele></trkpt>
  <trkpt lat="59.654790" lon="9.617361"><ele>373.4</ele></trkpt>
  <trkpt lat="59.654560" lon="9.617571"><ele>374.1</ele></trkpt>
  <trkpt lat="59.654494" lon="9.617607"><ele>374.4</ele></trkpt>
  <trkpt lat="59.654401" lon="9.617704"><ele>375.0</ele></trkpt>
  <trkpt lat="59.654315" lon="9.617737"><ele>375.7</ele></trkpt>
  <trkpt lat="59.654171" lon="9.617856"><ele>377.2</ele></trkpt>
  <trkpt lat="59.654152" lon="9.617910"><ele>377.5</ele></trkpt>
  <trkpt lat="59.654153" lon="9.617991"><ele>378.0</ele></trkpt>
  <trkpt lat="59.654257" lon="9.618322"><ele>379.0</ele></trkpt>
  <trkpt lat="59.654234" lon="9.618348"><ele>378.5</ele></trkpt>
  <trkpt lat="59.654200" lon="9.618332"><ele>375.5</ele></trkpt>
  <trkpt lat="59.654165" lon="9.618350"><ele>372.4</ele></trkpt>
  <trkpt lat="59.654059" lon="9.618500"><ele>366.6</ele></trkpt>
  <trkpt lat="59.653959" lon="9.618887"><ele>366.6</ele></trkpt>
  <trkpt lat="59.653796" lon="9.619181"><ele>365.8</ele></trkpt>
  <trkpt lat="59.653760" lon="9.619215"><ele>364.3</ele></trkpt>
 </trkseg></trk></gpx>