<?xml version="1.0" encoding="UTF-8"?>
<gpx version="1.1" creator="stikart_web trailguide-snapshot" xmlns="http://www.topografix.com/GPX/1/1">
 <trk><name>Gule Sva</name><desc>Fra Trailguide (trailguide.net), gradering: red. 1629 m, 131 m nedfart.</desc><trkseg>
  <trkpt lat="59.651950" lon="9.593600"><ele>555.0</ele></trkpt>
  <trkpt lat="59.651950" lon="9.594060"><ele>557.0</ele></trkpt>
  <trkpt lat="59.651890" lon="9.594350"><ele>557.0</ele></trkpt>
  <trkpt lat="59.651760" lon="9.594540"><ele>557.0</ele></trkpt>
  <trkpt lat="59.651660" lon="9.594810"><ele>557.0</ele></trkpt>
  <trkpt lat="59.651290" lon="9.595490"><ele>555.0</ele></trkpt>
  <trkpt lat="59.651180" lon="9.595590"><ele>554.0</ele></trkpt>
  <trkpt lat="59.651030" lon="9.595680"><ele>552.0</ele></trkpt>
  <trkpt lat="59.650920" lon="9.595700"><ele>551.0</ele></trkpt>
  <trkpt lat="59.650700" lon="9.595790"><ele>548.0</ele></trkpt>
  <trkpt lat="59.650650" lon="9.595760"><ele>548.0</ele></trkpt>
  <trkpt lat="59.650590" lon="9.595680"><ele>547.0</ele></trkpt>
  <trkpt lat="59.650390" lon="9.595480"><ele>545.0</ele></trkpt>
  <trkpt lat="59.650380" lon="9.595300"><ele>544.0</ele></trkpt>
  <trkpt lat="59.650230" lon="9.595770"><ele>539.0</ele></trkpt>
  <trkpt lat="59.650180" lon="9.596020"><ele>536.0</ele></trkpt>
  <trkpt lat="59.650010" lon="9.596600"><ele>531.0</ele></trkpt>
  <trkpt lat="59.649950" lon="9.596860"><ele>529.0</ele></trkpt>
  <trkpt lat="59.649890" lon="9.596920"><ele>528.0</ele></trkpt>
  <trkpt lat="59.649680" lon="9.597030"><ele>525.0</ele></trkpt>
  <trkpt lat="59.649640" lon="9.597070"><ele>525.0</ele></trkpt>
  <trkpt lat="59.649590" lon="9.597180"><ele>524.0</ele></trkpt>
  <trkpt lat="59.649510" lon="9.597200"><ele>523.0</ele></trkpt>
  <trkpt lat="59.649290" lon="9.597150"><ele>518.0</ele></trkpt>
  <trkpt lat="59.649240" lon="9.597210"><ele>518.0</ele></trkpt>
  <trkpt lat="59.649130" lon="9.597210"><ele>517.0</ele></trkpt>
  <trkpt lat="59.649020" lon="9.597370"><ele>513.0</ele></trkpt>
  <trkpt lat="59.648930" lon="9.597380"><ele>512.0</ele></trkpt>
  <trkpt lat="59.648830" lon="9.597570"><ele>509.0</ele></trkpt>
  <trkpt lat="59.648790" lon="9.597520"><ele>508.0</ele></trkpt>
  <trkpt lat="59.648760" lon="9.597540"><ele>507.0</ele></trkpt>
  <trkpt lat="59.648710" lon="9.597620"><ele>506.0</ele></trkpt>
  <trkpt lat="59.648670" lon="9.597630"><ele>505.0</ele></trkpt>
  <trkpt lat="59.648580" lon="9.597690"><ele>505.0</ele></trkpt>
  <trkpt lat="59.648360" lon="9.597890"><ele>503.0</ele></trkpt>
  <trkpt lat="59.648290" lon="9.598030"><ele>503.0</ele></trkpt>
  <trkpt lat="59.648220" lon="9.598100"><ele>503.0</ele></trkpt>
  <trkpt lat="59.648180" lon="9.598170"><ele>503.0</ele></trkpt>
  <trkpt lat="59.648130" lon="9.598200"><ele>503.0</ele></trkpt>
  <trkpt lat="59.647810" lon="9.598120"><ele>501.0</ele></trkpt>
  <trkpt lat="59.647750" lon="9.598070"><ele>500.0</ele></trkpt>
  <trkpt lat="59.647670" lon="9.598220"><ele>500.0</ele></trkpt>
  <trkpt lat="59.647600" lon="9.598210"><ele>500.0</ele></trkpt>
  <trkpt lat="59.647510" lon="9.598070"><ele>499.0</ele></trkpt>
  <trkpt lat="59.647440" lon="9.597830"><ele>499.0</ele></trkpt>
  <trkpt lat="59.647350" lon="9.597740"><ele>499.0</ele></trkpt>
  <trkpt lat="59.647210" lon="9.597660"><ele>498.0</ele></trkpt>
  <trkpt lat="59.647100" lon="9.597560"><ele>497.0</ele></trkpt>
  <trkpt lat="59.647020" lon="9.597460"><ele>496.0</ele></trkpt>
  <trkpt lat="59.646930" lon="9.597250"><ele>494.0</ele></trkpt>
  <trkpt lat="59.646870" lon="9.597160"><ele>493.0</ele></trkpt>
  <trkpt lat="59.646810" lon="9.597120"><ele>492.0</ele></trkpt>
  <trkpt lat="59.646670" lon="9.597100"><ele>489.0</ele></trkpt>
  <trkpt lat="59.646640" lon="9.597110"><ele>489.0</ele></trkpt>
  <trkpt lat="59.646630" lon="9.597150"><ele>489.0</ele></trkpt>
  <trkpt lat="59.646450" lon="9.597290"><ele>486.0</ele></trkpt>
  <trkpt lat="59.646340" lon="9.597420"><ele>483.0</ele></trkpt>
  <trkpt lat="59.646300" lon="9.597530"><ele>482.0</ele></trkpt>
  <trkpt lat="59.646210" lon="9.597650"><ele>481.0</ele></trkpt>
  <trkpt lat="59.646120" lon="9.597650"><ele>480.0</ele></trkpt>
  <trkpt lat="59.645930" lon="9.597900"><ele>478.0</ele></trkpt>
  <trkpt lat="59.645770" lon="9.597920"><ele>476.0</ele></trkpt>
  <trkpt lat="59.645660" lon="9.597910"><ele>475.0</ele></trkpt>
  <trkpt lat="59.645570" lon="9.597960"><ele>474.0</ele></trkpt>
  <trkpt lat="59.645470" lon="9.597950"><ele>473.0</ele></trkpt>
  <trkpt lat="59.645400" lon="9.597990"><ele>472.0</ele></trkpt>
  <trkpt lat="59.645330" lon="9.597990"><ele>470.0</ele></trkpt>
  <trkpt lat="59.645310" lon="9.598020"><ele>470.0</ele></trkpt>
  <trkpt lat="59.645250" lon="9.598020"><ele>468.0</ele></trkpt>
  <trkpt lat="59.645170" lon="9.598100"><ele>467.0</ele></trkpt>
  <trkpt lat="59.645090" lon="9.598240"><ele>465.0</ele></trkpt>
  <trkpt lat="59.644910" lon="9.598680"><ele>462.0</ele></trkpt>
  <trkpt lat="59.644870" lon="9.598890"><ele>461.0</ele></trkpt>
  <trkpt lat="59.644870" lon="9.599030"><ele>459.0</ele></trkpt>
  <trkpt lat="59.644800" lon="9.599500"><ele>456.0</ele></trkpt>
  <trkpt lat="59.644810" lon="9.599670"><ele>456.0</ele></trkpt>
  <trkpt lat="59.644720" lon="9.600110"><ele>454.0</ele></trkpt>
  <trkpt lat="59.644660" lon="9.600280"><ele>454.0</ele></trkpt>
  <trkpt lat="59.644590" lon="9.600560"><ele>454.0</ele></trkpt>
  <trkpt lat="59.644550" lon="9.600960"><ele>454.0</ele></trkpt>
  <trkpt lat="59.644540" lon="9.601770"><ele>452.0</ele></trkpt>
  <trkpt lat="59.644510" lon="9.602050"><ele>451.0</ele></trkpt>
  <trkpt lat="59.644380" lon="9.602290"><ele>451.0</ele></trkpt>
  <trkpt lat="59.644310" lon="9.602350"><ele>451.0</ele></trkpt>
  <trkpt lat="59.644190" lon="9.602510"><ele>452.0</ele></trkpt>
  <trkpt lat="59.644100" lon="9.602680"><ele>451.0</ele></trkpt>
  <trkpt lat="59.644080" lon="9.602760"><ele>451.0</ele></trkpt>
  <trkpt lat="59.643970" lon="9.602950"><ele>450.0</ele></trkpt>
  <trkpt lat="59.643680" lon="9.603620"><ele>444.0</ele></trkpt>
  <trkpt lat="59.643580" lon="9.603720"><ele>443.0</ele></trkpt>
  <trkpt lat="59.643280" lon="9.604200"><ele>442.0</ele></trkpt>
  <trkpt lat="59.643220" lon="9.604370"><ele>442.0</ele></trkpt>
  <trkpt lat="59.642860" lon="9.604850"><ele>439.0</ele></trkpt>
  <trkpt lat="59.642740" lon="9.604950"><ele>438.0</ele></trkpt>
  <trkpt lat="59.642490" lon="9.605330"><ele>435.0</ele></trkpt>
  <trkpt lat="59.642420" lon="9.605530"><ele>434.0</ele></trkpt>
  <trkpt lat="59.642320" lon="9.605720"><ele>433.0</ele></trkpt>
  <trkpt lat="59.642280" lon="9.605880"><ele>432.0</ele></trkpt>
  <trkpt lat="59.642210" lon="9.606020"><ele>431.0</ele></trkpt>
  <trkpt lat="59.642200" lon="9.606120"><ele>431.0</ele></trkpt>
  <trkpt lat="59.642110" lon="9.606350"><ele>431.0</ele></trkpt>
  <trkpt lat="59.641870" lon="9.606910"><ele>427.0</ele></trkpt>
  <trkpt lat="59.641740" lon="9.607060"><ele>425.0</ele></trkpt>
  <trkpt lat="59.641660" lon="9.607100"><ele>425.0</ele></trkpt>
 </trkseg></trk></gpx>