<?xml version="1.0" encoding="UTF-8"?>
<gpx version="1.1" creator="stikart_web osm+kartverket" xmlns="http://www.topografix.com/GPX/1/1">
 <trk><name>Heimaten</name><desc>Geometri: OSM. Høyder: Kartverket.</desc><trkseg>
  <trkpt lat="59.676540" lon="9.616210"><ele>290.1</ele></trkpt>
  <trkpt lat="59.676530" lon="9.616400"><ele>290.5</ele></trkpt>
  <trkpt lat="59.676540" lon="9.616520"><ele>290.8</ele></trkpt>
  <trkpt lat="59.676560" lon="9.616610"><ele>291.1</ele></trkpt>
  <trkpt lat="59.676600" lon="9.616700"><ele>291.3</ele></trkpt>
  <trkpt lat="59.676660" lon="9.616770"><ele>291.6</ele></trkpt>
  <trkpt lat="59.676810" lon="9.616910"><ele>291.1</ele></trkpt>
  <trkpt lat="59.676890" lon="9.617040"><ele>290.2</ele></trkpt>
  <trkpt lat="59.676950" lon="9.617200"><ele>289.4</ele></trkpt>
  <trkpt lat="59.676930" lon="9.617360"><ele>289.9</ele></trkpt>
  <trkpt lat="59.676850" lon="9.617540"><ele>290.6</ele></trkpt>
  <trkpt lat="59.676750" lon="9.617740"><ele>290.9</ele></trkpt>
  <trkpt lat="59.676730" lon="9.618000"><ele>293.6</ele></trkpt>
  <trkpt lat="59.676620" lon="9.618270"><ele>296.5</ele></trkpt>
  <trkpt lat="59.676580" lon="9.618260"><ele>295.8</ele></trkpt>
  <trkpt lat="59.676550" lon="9.618280"><ele>295.0</ele></trkpt>
  <trkpt lat="59.676510" lon="9.618270"><ele>294.6</ele></trkpt>
  <trkpt lat="59.676470" lon="9.618320"><ele>293.7</ele></trkpt>
  <trkpt lat="59.676430" lon="9.618340"><ele>293.2</ele></trkpt>
  <trkpt lat="59.676360" lon="9.618350"><ele>292.1</ele></trkpt>
  <trkpt lat="59.676300" lon="9.618300"><ele>291.9</ele></trkpt>
  <trkpt lat="59.676260" lon="9.618240"><ele>291.8</ele></trkpt>
  <trkpt lat="59.676210" lon="9.618150"><ele>291.7</ele></trkpt>
  <trkpt lat="59.676180" lon="9.618130"><ele>291.7</ele></trkpt>
  <trkpt lat="59.676150" lon="9.618120"><ele>291.8</ele></trkpt>
  <trkpt lat="59.675850" lon="9.618250"><ele>291.9</ele></trkpt>
  <trkpt lat="59.675790" lon="9.618250"><ele>291.9</ele></trkpt>
  <trkpt lat="59.675770" lon="9.618460"><ele>293.6</ele></trkpt>
  <trkpt lat="59.675760" lon="9.618420"><ele>294.4</ele></trkpt>
  <trkpt lat="59.675740" lon="9.618370"><ele>295.1</ele></trkpt>
  <trkpt lat="59.675720" lon="9.618330"><ele>295.4</ele></trkpt>
  <trkpt lat="59.675730" lon="9.618290"><ele>294.5</ele></trkpt>
  <trkpt lat="59.675700" lon="9.618280"><ele>295.4</ele></trkpt>
  <trkpt lat="59.675640" lon="9.618260"><ele>297.6</ele></trkpt>
  <trkpt lat="59.675630" lon="9.618290"><ele>298.2</ele></trkpt>
  <trkpt lat="59.675600" lon="9.618300"><ele>299.0</ele></trkpt>
  <trkpt lat="59.675570" lon="9.618360"><ele>300.0</ele></trkpt>
  <trkpt lat="59.675530" lon="9.618360"><ele>300.8</ele></trkpt>
  <trkpt lat="59.675510" lon="9.618350"><ele>301.4</ele></trkpt>
  <trkpt lat="59.675480" lon="9.618320"><ele>302.0</ele></trkpt>
  <trkpt lat="59.675450" lon="9.618330"><ele>302.2</ele></trkpt>
  <trkpt lat="59.675410" lon="9.618360"><ele>302.8</ele></trkpt>
  <trkpt lat="59.675410" lon="9.618390"><ele>302.9</ele></trkpt>
  <trkpt lat="59.675350" lon="9.618380"><ele>303.1</ele></trkpt>
  <trkpt lat="59.675330" lon="9.618470"><ele>304.9</ele></trkpt>
  <trkpt lat="59.675310" lon="9.618510"><ele>306.0</ele></trkpt>
  <trkpt lat="59.675270" lon="9.618540"><ele>306.6</ele></trkpt>
  <trkpt lat="59.675250" lon="9.618500"><ele>306.7</ele></trkpt>
  <trkpt lat="59.675220" lon="9.618520"><ele>307.7</ele></trkpt>
  <trkpt lat="59.675170" lon="9.618510"><ele>308.6</ele></trkpt>
  <trkpt lat="59.675120" lon="9.618560"><ele>309.6</ele></trkpt>
  <trkpt lat="59.675070" lon="9.618580"><ele>310.6</ele></trkpt>
  <trkpt lat="59.675010" lon="9.618570"><ele>312.2</ele></trkpt>
  <trkpt lat="59.674960" lon="9.618600"><ele>313.0</ele></trkpt>
  <trkpt lat="59.674930" lon="9.618590"><ele>313.4</ele></trkpt>
  <trkpt lat="59.674880" lon="9.618600"><ele>313.7</ele></trkpt>
  <trkpt lat="59.674850" lon="9.618660"><ele>314.4</ele></trkpt>
  <trkpt lat="59.674810" lon="9.618690"><ele>314.9</ele></trkpt>
  <trkpt lat="59.674790" lon="9.618770"><ele>314.4</ele></trkpt>
  <trkpt lat="59.674740" lon="9.618830"><ele>315.8</ele></trkpt>
  <trkpt lat="59.674680" lon="9.618870"><ele>317.0</ele></trkpt>
  <trkpt lat="59.674620" lon="9.618860"><ele>317.9</ele></trkpt>
  <trkpt lat="59.674550" lon="9.618900"><ele>318.8</ele></trkpt>
  <trkpt lat="59.674510" lon="9.618980"><ele>319.6</ele></trkpt>
  <trkpt lat="59.674470" lon="9.618980"><ele>319.6</ele></trkpt>
  <trkpt lat="59.674420" lon="9.619010"><ele>319.9</ele></trkpt>
  <trkpt lat="59.674400" lon="9.619010"><ele>319.9</ele></trkpt>
  <trkpt lat="59.674370" lon="9.619030"><ele>319.9</ele></trkpt>
  <trkpt lat="59.674340" lon="9.619070"><ele>320.3</ele></trkpt>
  <trkpt lat="59.674320" lon="9.619110"><ele>320.5</ele></trkpt>
  <trkpt lat="59.674300" lon="9.619110"><ele>319.8</ele></trkpt>
  <trkpt lat="59.674280" lon="9.619100"><ele>319.5</ele></trkpt>
  <trkpt lat="59.674260" lon="9.619070"><ele>318.8</ele></trkpt>
  <trkpt lat="59.674240" lon="9.619080"><ele>318.6</ele></trkpt>
  <trkpt lat="59.674220" lon="9.619090"><ele>318.4</ele></trkpt>
  <trkpt lat="59.674200" lon="9.619130"><ele>318.4</ele></trkpt>
  <trkpt lat="59.674160" lon="9.619180"><ele>318.5</ele></trkpt>
  <trkpt lat="59.674120" lon="9.619230"><ele>318.4</ele></trkpt>
  <trkpt lat="59.674120" lon="9.619100"><ele>316.8</ele></trkpt>
  <trkpt lat="59.674120" lon="9.619030"><ele>315.3</ele></trkpt>
  <trkpt lat="59.674110" lon="9.619000"><ele>313.7</ele></trkpt>
  <trkpt lat="59.674090" lon="9.618950"><ele>310.7</ele></trkpt>
  <trkpt lat="59.674100" lon="9.618890"><ele>309.0</ele></trkpt>
  <trkpt lat="59.674110" lon="9.618770"><ele>308.2</ele></trkpt>
  <trkpt lat="59.674080" lon="9.618700"><ele>309.1</ele></trkpt>
  <trkpt lat="59.674040" lon="9.618660"><ele>309.9</ele></trkpt>
  <trkpt lat="59.674000" lon="9.618610"><ele>309.3</ele></trkpt>
  <trkpt lat="59.673990" lon="9.618570"><ele>308.4</ele></trkpt>
  <trkpt lat="59.673960" lon="9.618470"><ele>307.1</ele></trkpt>
  <trkpt lat="59.673790" lon="9.618670"><ele>305.0</ele></trkpt>
  <trkpt lat="59.673650" lon="9.618990"><ele>304.2</ele></trkpt>
  <trkpt lat="59.673390" lon="9.619320"><ele>300.6</ele></trkpt>
  <trkpt lat="59.673360" lon="9.619420"><ele>298.9</ele></trkpt>
  <trkpt lat="59.673200" lon="9.619480"><ele>297.5</ele></trkpt>
  <trkpt lat="59.673000" lon="9.619500"><ele>294.9</ele></trkpt>
  <trkpt lat="59.672710" lon="9.619580"><ele>290.0</ele></trkpt>
  <trkpt lat="59.672660" lon="9.619750"><ele>288.6</ele></trkpt>
  <trkpt lat="59.672570" lon="9.619840"><ele>288.3</ele></trkpt>
  <trkpt lat="59.672520" lon="9.620120"><ele>289.3</ele></trkpt>
  <trkpt lat="59.672330" lon="9.620460"><ele>288.0</ele></trkpt>
  <trkpt lat="59.672080" lon="9.620690"><ele>287.1</ele></trkpt>
  <trkpt lat="59.671900" lon="9.620720"><ele>287.6</ele></trkpt>
  <trkpt lat="59.671830" lon="9.620730"><ele>287.0</ele></trkpt>
  <trkpt lat="59.671730" lon="9.620670"><ele>285.1</ele></trkpt>
  <trkpt lat="59.671690" lon="9.620640"><ele>284.3</ele></trkpt>
  <trkpt lat="59.671660" lon="9.620640"><ele>283.6</ele></trkpt>
  <trkpt lat="59.671610" lon="9.620660"><ele>282.7</ele></trkpt>
  <trkpt lat="59.671560" lon="9.620660"><ele>280.9</ele></trkpt>
  <trkpt lat="59.671510" lon="9.620640"><ele>278.8</ele></trkpt>
  <trkpt lat="59.671460" lon="9.620640"><ele>278.4</ele></trkpt>
  <trkpt lat="59.671440" lon="9.620600"><ele>277.7</ele></trkpt>
  <trkpt lat="59.671410" lon="9.620610"><ele>277.1</ele></trkpt>
  <trkpt lat="59.671350" lon="9.620640"><ele>276.4</ele></trkpt>
  <trkpt lat="59.671280" lon="9.620650"><ele>275.4</ele></trkpt>
  <trkpt lat="59.671220" lon="9.620670"><ele>274.3</ele></trkpt>
  <trkpt lat="59.671150" lon="9.620650"><ele>273.4</ele></trkpt>
  <trkpt lat="59.671090" lon="9.620620"><ele>273.1</ele></trkpt>
  <trkpt lat="59.671020" lon="9.620630"><ele>273.5</ele></trkpt>
  <trkpt lat="59.670950" lon="9.620630"><ele>272.8</ele></trkpt>
  <trkpt lat="59.670870" lon="9.620610"><ele>271.0</ele></trkpt>
  <trkpt lat="59.670830" lon="9.620590"><ele>270.1</ele></trkpt>
  <trkpt lat="59.670790" lon="9.620610"><ele>270.0</ele></trkpt>
  <trkpt lat="59.670760" lon="9.620600"><ele>269.6</ele></trkpt>
  <trkpt lat="59.670700" lon="9.620570"><ele>269.0</ele></trkpt>
  <trkpt lat="59.670640" lon="9.620470"><ele>268.9</ele></trkpt>
  <trkpt lat="59.670600" lon="9.620410"><ele>269.0</ele></trkpt>
  <trkpt lat="59.670560" lon="9.620390"><ele>268.9</ele></trkpt>
  <trkpt lat="59.670520" lon="9.620380"><ele>269.4</ele></trkpt>
  <trkpt lat="59.670490" lon="9.620360"><ele>269.6</ele></trkpt>
  <trkpt lat="59.670430" lon="9.620330"><ele>269.1</ele></trkpt>
  <trkpt lat="59.670410" lon="9.620360"><ele>270.2</ele></trkpt>
  <trkpt lat="59.670380" lon="9.620370"><ele>270.2</ele></trkpt>
  <trkpt lat="59.670330" lon="9.620360"><ele>269.9</ele></trkpt>
  <trkpt lat="59.670250" lon="9.620390"><ele>270.6</ele></trkpt>
  <trkpt lat="59.670230" lon="9.620390"><ele>270.9</ele></trkpt>
  <trkpt lat="59.670190" lon="9.620390"><ele>271.3</ele></trkpt>
  <trkpt lat="59.670160" lon="9.620390"><ele>271.4</ele></trkpt>
  <trkpt lat="59.670140" lon="9.620400"><ele>271.4</ele></trkpt>
  <trkpt lat="59.670010" lon="9.620450"><ele>271.5</ele></trkpt>
  <trkpt lat="59.669950" lon="9.620450"><ele>271.6</ele></trkpt>
  <trkpt lat="59.669900" lon="9.620480"><ele>271.2</ele></trkpt>
  <trkpt lat="59.669840" lon="9.620430"><ele>270.6</ele></trkpt>
  <trkpt lat="59.669790" lon="9.620360"><ele>269.1</ele></trkpt>
  <trkpt lat="59.669710" lon="9.620290"><ele>267.9</ele></trkpt>
  <trkpt lat="59.669640" lon="9.620260"><ele>267.9</ele></trkpt>
  <trkpt lat="59.669530" lon="9.620200"><ele>268.0</ele></trkpt>
  <trkpt lat="59.669400" lon="9.620130"><ele>267.6</ele></trkpt>
  <trkpt lat="59.669330" lon="9.620080"><ele>267.5</ele></trkpt>
  <trkpt lat="59.669250" lon="9.620080"><ele>267.5</ele></trkpt>
  <trkpt lat="59.669180" lon="9.620070"><ele>267.1</ele></trkpt>
  <trkpt lat="59.669140" lon="9.620040"><ele>267.0</ele></trkpt>
  <trkpt lat="59.669060" lon="9.619970"><ele>265.9</ele></trkpt>
  <trkpt lat="59.668980" lon="9.619910"><ele>264.2</ele></trkpt>
  <trkpt lat="59.668930" lon="9.619900"><ele>264.2</ele></trkpt>
  <trkpt lat="59.668910" lon="9.619870"><ele>264.1</ele></trkpt>
  <trkpt lat="59.668890" lon="9.619810"><ele>264.0</ele></trkpt>
  <trkpt lat="59.668850" lon="9.619730"><ele>264.0</ele></trkpt>
  <trkpt lat="59.668800" lon="9.619640"><ele>264.0</ele></trkpt>
  <trkpt lat="59.668770" lon="9.619580"><ele>264.3</ele></trkpt>
  <trkpt lat="59.668730" lon="9.619540"><ele>265.6</ele></trkpt>
  <trkpt lat="59.668700" lon="9.619540"><ele>265.8</ele></trkpt>
  <trkpt lat="59.668650" lon="9.619510"><ele>266.2</ele></trkpt>
  <trkpt lat="59.668600" lon="9.619560"><ele>266.7</ele></trkpt>
  <trkpt lat="59.668560" lon="9.619580"><ele>267.5</ele></trkpt>
  <trkpt lat="59.668540" lon="9.619620"><ele>267.8</ele></trkpt>
  <trkpt lat="59.668500" lon="9.619670"><ele>268.1</ele></trkpt>
  <trkpt lat="59.668460" lon="9.619690"><ele>268.4</ele></trkpt>
  <trkpt lat="59.668410" lon="9.619730"><ele>269.1</ele></trkpt>
  <trkpt lat="59.668350" lon="9.619750"><ele>269.5</ele></trkpt>
  <trkpt lat="59.668320" lon="9.619790"><ele>269.6</ele></trkpt>
  <trkpt lat="59.668270" lon="9.619820"><ele>269.4</ele></trkpt>
  <trkpt lat="59.668230" lon="9.619840"><ele>269.4</ele></trkpt>
  <trkpt lat="59.668190" lon="9.619840"><ele>269.4</ele></trkpt>
  <trkpt lat="59.668100" lon="9.619840"><ele>268.8</ele></trkpt>
  <trkpt lat="59.668050" lon="9.619850"><ele>268.9</ele></trkpt>
  <trkpt lat="59.668000" lon="9.619900"><ele>268.5</ele></trkpt>
  <trkpt lat="59.667950" lon="9.619920"><ele>268.2</ele></trkpt>
  <trkpt lat="59.667870" lon="9.619990"><ele>268.5</ele></trkpt>
  <trkpt lat="59.667810" lon="9.620070"><ele>268.7</ele></trkpt>
  <trkpt lat="59.667750" lon="9.620120"><ele>268.5</ele></trkpt>
  <trkpt lat="59.667710" lon="9.620180"><ele>268.2</ele></trkpt>
  <trkpt lat="59.667660" lon="9.620240"><ele>267.9</ele></trkpt>
  <trkpt lat="59.667570" lon="9.620290"><ele>267.1</ele></trkpt>
  <trkpt lat="59.667470" lon="9.620310"><ele>266.6</ele></trkpt>
  <trkpt lat="59.667400" lon="9.620320"><ele>266.8</ele></trkpt>
  <trkpt lat="59.667340" lon="9.620290"><ele>265.8</ele></trkpt>
  <trkpt lat="59.667280" lon="9.620300"><ele>265.0</ele></trkpt>
  <trkpt lat="59.667140" lon="9.620300"><ele>265.5</ele></trkpt>
  <trkpt lat="59.667020" lon="9.620300"><ele>264.7</ele></trkpt>
  <trkpt lat="59.666920" lon="9.620340"><ele>264.0</ele></trkpt>
  <trkpt lat="59.666820" lon="9.620400"><ele>263.3</ele></trkpt>
  <trkpt lat="59.666740" lon="9.620430"><ele>262.0</ele></trkpt>
  <trkpt lat="59.666640" lon="9.620480"><ele>260.3</ele></trkpt>
  <trkpt lat="59.666520" lon="9.620530"><ele>258.6</ele></trkpt>
  <trkpt lat="59.666380" lon="9.620580"><ele>257.5</ele></trkpt>
  <trkpt lat="59.666310" lon="9.620620"><ele>256.6</ele></trkpt>
  <trkpt lat="59.666250" lon="9.620720"><ele>256.3</ele></trkpt>
  <trkpt lat="59.666160" lon="9.620850"><ele>254.5</ele></trkpt>
  <trkpt lat="59.666080" lon="9.621020"><ele>251.7</ele></trkpt>
  <trkpt lat="59.666040" lon="9.621110"><ele>250.5</ele></trkpt>
  <trkpt lat="59.665940" lon="9.621200"><ele>247.7</ele></trkpt>
  <trkpt lat="59.665870" lon="9.621270"><ele>245.7</ele></trkpt>
  <trkpt lat="59.665750" lon="9.621370"><ele>243.5</ele></trkpt>
  <trkpt lat="59.665780" lon="9.621530"><ele>244.7</ele></trkpt>
  <trkpt lat="59.665790" lon="9.621720"><ele>246.2</ele></trkpt>
  <trkpt lat="59.665760" lon="9.621900"><ele>247.2</ele></trkpt>
  <trkpt lat="59.665790" lon="9.622230"><ele>250.7</ele></trkpt>
  <trkpt lat="59.665790" lon="9.622430"><ele>252.6</ele></trkpt>
  <trkpt lat="59.665810" lon="9.622590"><ele>253.5</ele></trkpt>
  <trkpt lat="59.665820" lon="9.622690"><ele>254.3</ele></trkpt>
  <trkpt lat="59.665830" lon="9.622840"><ele>254.5</ele></trkpt>
  <trkpt lat="59.665760" lon="9.622680"><ele>256.3</ele></trkpt>
  <trkpt lat="59.665680" lon="9.622590"><ele>258.0</ele></trkpt>
  <trkpt lat="59.665590" lon="9.622590"><ele>260.1</ele></trkpt>
  <trkpt lat="59.665460" lon="9.622620"><ele>262.3</ele></trkpt>
  <trkpt lat="59.665250" lon="9.622670"><ele>264.3</ele></trkpt>
  <trkpt lat="59.665160" lon="9.622760"><ele>265.2</ele></trkpt>
  <trkpt lat="59.665150" lon="9.622790"><ele>265.6</ele></trkpt>
  <trkpt lat="59.665090" lon="9.622790"><ele>265.9</ele></trkpt>
  <trkpt lat="59.665040" lon="9.622800"><ele>266.4</ele></trkpt>
  <trkpt lat="59.664980" lon="9.622920"><ele>266.7</ele></trkpt>
  <trkpt lat="59.664930" lon="9.622930"><ele>266.9</ele></trkpt>
  <trkpt lat="59.664840" lon="9.622960"><ele>265.9</ele></trkpt>
  <trkpt lat="59.664730" lon="9.622950"><ele>264.5</ele></trkpt>
  <trkpt lat="59.664630" lon="9.622930"><ele>262.9</ele></trkpt>
  <trkpt lat="59.664480" lon="9.622880"><ele>259.9</ele></trkpt>
  <trkpt lat="59.664330" lon="9.622770"><ele>256.4</ele></trkpt>
  <trkpt lat="59.664200" lon="9.622640"><ele>252.9</ele></trkpt>
  <trkpt lat="59.663900" lon="9.622520"><ele>245.3</ele></trkpt>
  <trkpt lat="59.663820" lon="9.622470"><ele>243.3</ele></trkpt>
  <trkpt lat="59.663800" lon="9.622470"><ele>242.9</ele></trkpt>
  <trkpt lat="59.663760" lon="9.622490"><ele>242.8</ele></trkpt>
  <trkpt lat="59.663640" lon="9.622860"><ele>243.1</ele></trkpt>
  <trkpt lat="59.663560" lon="9.623440"><ele>243.5</ele></trkpt>
  <trkpt lat="59.663520" lon="9.623510"><ele>243.3</ele></trkpt>
  <trkpt lat="59.663450" lon="9.623600"><ele>242.3</ele></trkpt>
  <trkpt lat="59.663110" lon="9.623810"><ele>238.5</ele></trkpt>
  <trkpt lat="59.663050" lon="9.623820"><ele>238.3</ele></trkpt>
  <trkpt lat="59.662920" lon="9.623750"><ele>238.2</ele></trkpt>
  <trkpt lat="59.662860" lon="9.623670"><ele>238.2</ele></trkpt>
  <trkpt lat="59.662790" lon="9.623410"><ele>238.3</ele></trkpt>
  <trkpt lat="59.662740" lon="9.623280"><ele>238.4</ele></trkpt>
  <trkpt lat="59.662520" lon="9.623030"><ele>238.9</ele></trkpt>
  <trkpt lat="59.662630" lon="9.622790"><ele>239.3</ele></trkpt>
  <trkpt lat="59.662680" lon="9.622620"><ele>239.4</ele></trkpt>
  <trkpt lat="59.662710" lon="9.622390"><ele>239.4</ele></trkpt>
  <trkpt lat="59.662730" lon="9.622320"><ele>239.5</ele></trkpt>
  <trkpt lat="59.662760" lon="9.622270"><ele>239.6</ele></trkpt>
  <trkpt lat="59.662790" lon="9.621970"><ele>240.7</ele></trkpt>
  <trkpt lat="59.662820" lon="9.622050"><ele>240.6</ele></trkpt>
  <trkpt lat="59.662880" lon="9.622140"><ele>240.3</ele></trkpt>
  <trkpt lat="59.662940" lon="9.622200"><ele>239.9</ele></trkpt>
 </trkseg></trk></gpx>