<?xml version="1.0" encoding="UTF-8"?>
<gpx version="1.1" creator="stikart_web trailguide-snapshot" xmlns="http://www.topografix.com/GPX/1/1">
 <trk><name>Helvetesdalen</name><desc>Fra Trailguide (trailguide.net), gradering: red. 1383 m, 135 m nedfart.</desc><trkseg>
  <trkpt lat="59.647013" lon="9.616505"><ele>391.0</ele></trkpt>
  <trkpt lat="59.646899" lon="9.616667"><ele>391.0</ele></trkpt>
  <trkpt lat="59.646791" lon="9.616894"><ele>390.0</ele></trkpt>
  <trkpt lat="59.646687" lon="9.617244"><ele>390.0</ele></trkpt>
  <trkpt lat="59.646623" lon="9.617378"><ele>390.0</ele></trkpt>
  <trkpt lat="59.646524" lon="9.617519"><ele>390.0</ele></trkpt>
  <trkpt lat="59.646309" lon="9.617623"><ele>389.0</ele></trkpt>
  <trkpt lat="59.646177" lon="9.617840"><ele>389.0</ele></trkpt>
  <trkpt lat="59.646079" lon="9.617964"><ele>388.0</ele></trkpt>
  <trkpt lat="59.645974" lon="9.618040"><ele>387.0</ele></trkpt>
  <trkpt lat="59.645852" lon="9.618192"><ele>387.0</ele></trkpt>
  <trkpt lat="59.645643" lon="9.618654"><ele>384.0</ele></trkpt>
  <trkpt lat="59.645342" lon="9.618708"><ele>382.0</ele></trkpt>
  <trkpt lat="59.645121" lon="9.618812"><ele>380.0</ele></trkpt>
  <trkpt lat="59.644899" lon="9.618830"><ele>378.0</ele></trkpt>
  <trkpt lat="59.644575" lon="9.618887"><ele>374.0</ele></trkpt>
  <trkpt lat="59.644536" lon="9.618906"><ele>373.0</ele></trkpt>
  <trkpt lat="59.644451" lon="9.619026"><ele>366.0</ele></trkpt>
  <trkpt lat="59.644440" lon="9.619069"><ele>364.0</ele></trkpt>
  <trkpt lat="59.644343" lon="9.619164"><ele>357.0</ele></trkpt>
  <trkpt lat="59.644302" lon="9.619258"><ele>353.0</ele></trkpt>
  <trkpt lat="59.644266" lon="9.619301"><ele>351.0</ele></trkpt>
  <trkpt lat="59.644195" lon="9.619508"><ele>346.0</ele></trkpt>
  <trkpt lat="59.644085" lon="9.619927"><ele>343.0</ele></trkpt>
  <trkpt lat="59.644076" lon="9.620390"><ele>340.0</ele></trkpt>
  <trkpt lat="59.644023" lon="9.620881"><ele>337.0</ele></trkpt>
  <trkpt lat="59.644088" lon="9.621052"><ele>333.0</ele></trkpt>
  <trkpt lat="59.644030" lon="9.621816"><ele>328.0</ele></trkpt>
  <trkpt lat="59.644074" lon="9.621941"><ele>327.0</ele></trkpt>
  <trkpt lat="59.644194" lon="9.622453"><ele>324.0</ele></trkpt>
  <trkpt lat="59.644232" lon="9.622772"><ele>323.0</ele></trkpt>
  <trkpt lat="59.644285" lon="9.622904"><ele>323.0</ele></trkpt>
  <trkpt lat="59.644485" lon="9.623177"><ele>322.0</ele></trkpt>
  <trkpt lat="59.644529" lon="9.623286"><ele>321.0</ele></trkpt>
  <trkpt lat="59.644559" lon="9.623454"><ele>321.0</ele></trkpt>
  <trkpt lat="59.644573" lon="9.623835"><ele>320.0</ele></trkpt>
  <trkpt lat="59.644514" lon="9.624171"><ele>319.0</ele></trkpt>
  <trkpt lat="59.644380" lon="9.624716"><ele>316.0</ele></trkpt>
  <trkpt lat="59.644292" lon="9.624964"><ele>314.0</ele></trkpt>
  <trkpt lat="59.644236" lon="9.625061"><ele>313.0</ele></trkpt>
  <trkpt lat="59.644166" lon="9.625395"><ele>311.0</ele></trkpt>
  <trkpt lat="59.644142" lon="9.625569"><ele>310.0</ele></trkpt>
  <trkpt lat="59.644131" lon="9.625994"><ele>308.0</ele></trkpt>
  <trkpt lat="59.644089" lon="9.626307"><ele>305.0</ele></trkpt>
  <trkpt lat="59.644054" lon="9.626400"><ele>304.0</ele></trkpt>
  <trkpt lat="59.643908" lon="9.626509"><ele>301.0</ele></trkpt>
  <trkpt lat="59.643860" lon="9.626584"><ele>300.0</ele></trkpt>
  <trkpt lat="59.643782" lon="9.626786"><ele>297.0</ele></trkpt>
  <trkpt lat="59.643734" lon="9.626982"><ele>295.0</ele></trkpt>
  <trkpt lat="59.643630" lon="9.627193"><ele>293.0</ele></trkpt>
  <trkpt lat="59.643564" lon="9.627245"><ele>291.0</ele></trkpt>
  <trkpt lat="59.643387" lon="9.627465"><ele>288.0</ele></trkpt>
  <trkpt lat="59.643276" lon="9.627639"><ele>286.0</ele></trkpt>
  <trkpt lat="59.643081" lon="9.628333"><ele>281.0</ele></trkpt>
  <trkpt lat="59.643010" lon="9.628526"><ele>280.0</ele></trkpt>
  <trkpt lat="59.642865" lon="9.628817"><ele>278.0</ele></trkpt>
  <trkpt lat="59.642790" lon="9.629304"><ele>275.0</ele></trkpt>
  <trkpt lat="59.642801" lon="9.629778"><ele>272.0</ele></trkpt>
  <trkpt lat="59.642823" lon="9.630029"><ele>270.0</ele></trkpt>
  <trkpt lat="59.642799" lon="9.630297"><ele>269.0</ele></trkpt>
  <trkpt lat="59.642801" lon="9.631090"><ele>266.0</ele></trkpt>
  <trkpt lat="59.642838" lon="9.631342"><ele>264.0</ele></trkpt>
  <trkpt lat="59.642861" lon="9.631677"><ele>263.0</ele></trkpt>
  <trkpt lat="59.642912" lon="9.631987"><ele>262.0</ele></trkpt>
  <trkpt lat="59.642944" lon="9.632496"><ele>261.0</ele></trkpt>
  <trkpt lat="59.642902" lon="9.632777"><ele>260.0</ele></trkpt>
  <trkpt lat="59.642897" lon="9.633063"><ele>259.0</ele></trkpt>
  <trkpt lat="59.642912" lon="9.633221"><ele>259.0</ele></trkpt>
  <trkpt lat="59.642962" lon="9.633346"><ele>258.0</ele></trkpt>
  <trkpt lat="59.643096" lon="9.633548"><ele>258.0</ele></trkpt>
  <trkpt lat="59.643184" lon="9.633724"><ele>257.0</ele></trkpt>
  <trkpt lat="59.643314" lon="9.634070"><ele>256.0</ele></trkpt>
  <trkpt lat="59.643368" lon="9.634458"><ele>255.0</ele></trkpt>
  <trkpt lat="59.643357" lon="9.635203"><ele>254.0</ele></trkpt>
 </trkseg></trk></gpx>