<?xml version="1.0" encoding="UTF-8"?>
<gpx version="1.1" creator="stikart_web trailguide-snapshot" xmlns="http://www.topografix.com/GPX/1/1">
 <trk><name>Henchensetra</name><desc>Fra Trailguide (trailguide.net), gradering: green. 1993 m, 59 m nedfart.</desc><trkseg>
  <trkpt lat="59.664320" lon="9.578580"><ele>585.0</ele></trkpt>
  <trkpt lat="59.664320" lon="9.578520"><ele>584.0</ele></trkpt>
  <trkpt lat="59.664040" lon="9.577860"><ele>579.0</ele></trkpt>
  <trkpt lat="59.663860" lon="9.577580"><ele>577.0</ele></trkpt>
  <trkpt lat="59.663690" lon="9.577050"><ele>575.0</ele></trkpt>
  <trkpt lat="59.663600" lon="9.576910"><ele>575.0</ele></trkpt>
  <trkpt lat="59.663510" lon="9.576880"><ele>574.0</ele></trkpt>
  <trkpt lat="59.663120" lon="9.576920"><ele>570.0</ele></trkpt>
  <trkpt lat="59.662950" lon="9.576850"><ele>568.0</ele></trkpt>
  <trkpt lat="59.662650" lon="9.576650"><ele>565.0</ele></trkpt>
  <trkpt lat="59.662540" lon="9.576500"><ele>563.0</ele></trkpt>
  <trkpt lat="59.662330" lon="9.576390"><ele>562.0</ele></trkpt>
  <trkpt lat="59.662120" lon="9.576180"><ele>562.0</ele></trkpt>
  <trkpt lat="59.662060" lon="9.576070"><ele>561.0</ele></trkpt>
  <trkpt lat="59.661960" lon="9.575810"><ele>560.0</ele></trkpt>
  <trkpt lat="59.661900" lon="9.575550"><ele>560.0</ele></trkpt>
  <trkpt lat="59.661820" lon="9.575460"><ele>559.0</ele></trkpt>
  <trkpt lat="59.661690" lon="9.575390"><ele>559.0</ele></trkpt>
  <trkpt lat="59.661580" lon="9.575380"><ele>558.0</ele></trkpt>
  <trkpt lat="59.661500" lon="9.575300"><ele>556.0</ele></trkpt>
  <trkpt lat="59.661390" lon="9.575130"><ele>555.0</ele></trkpt>
  <trkpt lat="59.661300" lon="9.575050"><ele>554.0</ele></trkpt>
  <trkpt lat="59.661220" lon="9.575060"><ele>553.0</ele></trkpt>
  <trkpt lat="59.661140" lon="9.575020"><ele>552.0</ele></trkpt>
  <trkpt lat="59.661010" lon="9.574890"><ele>550.0</ele></trkpt>
  <trkpt lat="59.660880" lon="9.574670"><ele>548.0</ele></trkpt>
  <trkpt lat="59.660740" lon="9.574520"><ele>546.0</ele></trkpt>
  <trkpt lat="59.660730" lon="9.574360"><ele>546.0</ele></trkpt>
  <trkpt lat="59.660770" lon="9.574180"><ele>545.0</ele></trkpt>
  <trkpt lat="59.660960" lon="9.573660"><ele>545.0</ele></trkpt>
  <trkpt lat="59.661010" lon="9.573420"><ele>545.0</ele></trkpt>
  <trkpt lat="59.661160" lon="9.573040"><ele>545.0</ele></trkpt>
  <trkpt lat="59.661440" lon="9.572100"><ele>545.0</ele></trkpt>
  <trkpt lat="59.661500" lon="9.571640"><ele>544.0</ele></trkpt>
  <trkpt lat="59.661420" lon="9.570900"><ele>543.0</ele></trkpt>
  <trkpt lat="59.661420" lon="9.570440"><ele>542.0</ele></trkpt>
  <trkpt lat="59.661370" lon="9.569790"><ele>540.0</ele></trkpt>
  <trkpt lat="59.661330" lon="9.569600"><ele>540.0</ele></trkpt>
  <trkpt lat="59.661260" lon="9.569470"><ele>539.0</ele></trkpt>
  <trkpt lat="59.661070" lon="9.569320"><ele>537.0</ele></trkpt>
  <trkpt lat="59.660910" lon="9.569310"><ele>535.0</ele></trkpt>
  <trkpt lat="59.660810" lon="9.569250"><ele>534.0</ele></trkpt>
  <trkpt lat="59.660540" lon="9.568530"><ele>528.0</ele></trkpt>
  <trkpt lat="59.660510" lon="9.568310"><ele>526.0</ele></trkpt>
  <trkpt lat="59.660440" lon="9.568030"><ele>526.0</ele></trkpt>
  <trkpt lat="59.660430" lon="9.567830"><ele>526.0</ele></trkpt>
  <trkpt lat="59.660500" lon="9.567350"><ele>527.0</ele></trkpt>
  <trkpt lat="59.660470" lon="9.567210"><ele>527.0</ele></trkpt>
  <trkpt lat="59.660420" lon="9.567090"><ele>526.0</ele></trkpt>
  <trkpt lat="59.660430" lon="9.566870"><ele>526.0</ele></trkpt>
  <trkpt lat="59.660350" lon="9.566510"><ele>525.0</ele></trkpt>
  <trkpt lat="59.660220" lon="9.566180"><ele>524.0</ele></trkpt>
  <trkpt lat="59.660174" lon="9.565585"><ele>524.0</ele></trkpt>
  <trkpt lat="59.659984" lon="9.565244"><ele>522.0</ele></trkpt>
  <trkpt lat="59.659945" lon="9.564990"><ele>523.0</ele></trkpt>
  <trkpt lat="59.659823" lon="9.564660"><ele>523.0</ele></trkpt>
  <trkpt lat="59.659784" lon="9.564410"><ele>524.0</ele></trkpt>
  <trkpt lat="59.659838" lon="9.564193"><ele>525.0</ele></trkpt>
  <trkpt lat="59.659839" lon="9.563807"><ele>526.0</ele></trkpt>
  <trkpt lat="59.659698" lon="9.563402"><ele>526.0</ele></trkpt>
  <trkpt lat="59.659640" lon="9.563356"><ele>527.0</ele></trkpt>
  <trkpt lat="59.659452" lon="9.562718"><ele>529.0</ele></trkpt>
  <trkpt lat="59.659325" lon="9.562586"><ele>529.0</ele></trkpt>
  <trkpt lat="59.659053" lon="9.562600"><ele>528.0</ele></trkpt>
  <trkpt lat="59.658971" lon="9.562533"><ele>528.0</ele></trkpt>
  <trkpt lat="59.658784" lon="9.562058"><ele>529.0</ele></trkpt>
  <trkpt lat="59.658621" lon="9.561814"><ele>530.0</ele></trkpt>
  <trkpt lat="59.658566" lon="9.561698"><ele>530.0</ele></trkpt>
  <trkpt lat="59.658533" lon="9.561379"><ele>530.0</ele></trkpt>
  <trkpt lat="59.658364" lon="9.560567"><ele>529.0</ele></trkpt>
  <trkpt lat="59.658255" lon="9.560371"><ele>529.0</ele></trkpt>
  <trkpt lat="59.658066" lon="9.559220"><ele>531.0</ele></trkpt>
  <trkpt lat="59.657989" lon="9.558142"><ele>533.0</ele></trkpt>
  <trkpt lat="59.657890" lon="9.557761"><ele>534.0</ele></trkpt>
  <trkpt lat="59.657586" lon="9.557079"><ele>535.0</ele></trkpt>
  <trkpt lat="59.657762" lon="9.555470"><ele>538.0</ele></trkpt>
  <trkpt lat="59.657664" lon="9.554499"><ele>540.0</ele></trkpt>
  <trkpt lat="59.657430" lon="9.553432"><ele>541.0</ele></trkpt>
  <trkpt lat="59.657158" lon="9.552386"><ele>549.0</ele></trkpt>
  <trkpt lat="59.657059" lon="9.552241"><ele>550.0</ele></trkpt>
  <trkpt lat="59.656922" lon="9.552343"><ele>547.0</ele></trkpt>
 </trkseg></trk></gpx>