<?xml version="1.0" encoding="UTF-8"?>
<gpx version="1.1" creator="stikart_web trailguide-snapshot" xmlns="http://www.topografix.com/GPX/1/1">
 <trk><name>Jernbordet (Knutehytta - Sachsen)</name><desc>Fra Trailguide (trailguide.net), gradering: red. 2623 m, 136 m nedfart.</desc><trkseg>
  <trkpt lat="59.670963" lon="9.544261"><ele>699.9</ele></trkpt>
  <trkpt lat="59.670931" lon="9.544654"><ele>699.6</ele></trkpt>
  <trkpt lat="59.670956" lon="9.544692"><ele>699.9</ele></trkpt>
  <trkpt lat="59.670974" lon="9.544997"><ele>700.2</ele></trkpt>
  <trkpt lat="59.670994" lon="9.545104"><ele>700.5</ele></trkpt>
  <trkpt lat="59.670985" lon="9.545209"><ele>700.4</ele></trkpt>
  <trkpt lat="59.671011" lon="9.545305"><ele>700.8</ele></trkpt>
  <trkpt lat="59.670994" lon="9.545424"><ele>700.6</ele></trkpt>
  <trkpt lat="59.671028" lon="9.545696"><ele>701.1</ele></trkpt>
  <trkpt lat="59.671059" lon="9.545732"><ele>701.5</ele></trkpt>
  <trkpt lat="59.671097" lon="9.545737"><ele>702.0</ele></trkpt>
  <trkpt lat="59.671197" lon="9.545687"><ele>703.3</ele></trkpt>
  <trkpt lat="59.671223" lon="9.545708"><ele>703.6</ele></trkpt>
  <trkpt lat="59.671257" lon="9.545705"><ele>704.1</ele></trkpt>
  <trkpt lat="59.671307" lon="9.545785"><ele>704.5</ele></trkpt>
  <trkpt lat="59.671340" lon="9.545800"><ele>704.9</ele></trkpt>
  <trkpt lat="59.671435" lon="9.545788"><ele>705.8</ele></trkpt>
  <trkpt lat="59.671548" lon="9.545858"><ele>706.9</ele></trkpt>
  <trkpt lat="59.671649" lon="9.545868"><ele>707.8</ele></trkpt>
  <trkpt lat="59.671709" lon="9.545909"><ele>708.4</ele></trkpt>
  <trkpt lat="59.671876" lon="9.545943"><ele>710.0</ele></trkpt>
  <trkpt lat="59.671898" lon="9.545986"><ele>710.2</ele></trkpt>
  <trkpt lat="59.671954" lon="9.546145"><ele>710.8</ele></trkpt>
  <trkpt lat="59.671967" lon="9.546274"><ele>710.9</ele></trkpt>
  <trkpt lat="59.672019" lon="9.546454"><ele>711.4</ele></trkpt>
  <trkpt lat="59.672071" lon="9.546526"><ele>711.9</ele></trkpt>
  <trkpt lat="59.672123" lon="9.546765"><ele>712.4</ele></trkpt>
  <trkpt lat="59.672184" lon="9.546793"><ele>712.9</ele></trkpt>
  <trkpt lat="59.672213" lon="9.546833"><ele>713.2</ele></trkpt>
  <trkpt lat="59.672323" lon="9.547268"><ele>715.0</ele></trkpt>
  <trkpt lat="59.672398" lon="9.547376"><ele>716.1</ele></trkpt>
  <trkpt lat="59.672533" lon="9.547508"><ele>717.9</ele></trkpt>
  <trkpt lat="59.672641" lon="9.547730"><ele>719.6</ele></trkpt>
  <trkpt lat="59.672682" lon="9.547970"><ele>720.7</ele></trkpt>
  <trkpt lat="59.672780" lon="9.548218"><ele>722.6</ele></trkpt>
  <trkpt lat="59.672823" lon="9.548471"><ele>724.0</ele></trkpt>
  <trkpt lat="59.672937" lon="9.548794"><ele>726.1</ele></trkpt>
  <trkpt lat="59.672942" lon="9.548908"><ele>726.1</ele></trkpt>
  <trkpt lat="59.673050" lon="9.549096"><ele>726.6</ele></trkpt>
  <trkpt lat="59.673063" lon="9.549221"><ele>726.7</ele></trkpt>
  <trkpt lat="59.673120" lon="9.549393"><ele>727.1</ele></trkpt>
  <trkpt lat="59.673144" lon="9.549431"><ele>727.3</ele></trkpt>
  <trkpt lat="59.673218" lon="9.549429"><ele>727.7</ele></trkpt>
  <trkpt lat="59.673255" lon="9.549452"><ele>727.9</ele></trkpt>
  <trkpt lat="59.673281" lon="9.549497"><ele>728.1</ele></trkpt>
  <trkpt lat="59.673291" lon="9.549560"><ele>728.2</ele></trkpt>
  <trkpt lat="59.673389" lon="9.549604"><ele>728.9</ele></trkpt>
  <trkpt lat="59.673474" lon="9.549781"><ele>729.8</ele></trkpt>
  <trkpt lat="59.673534" lon="9.549772"><ele>730.2</ele></trkpt>
  <trkpt lat="59.673574" lon="9.549851"><ele>730.7</ele></trkpt>
  <trkpt lat="59.673594" lon="9.549977"><ele>731.2</ele></trkpt>
  <trkpt lat="59.673616" lon="9.550010"><ele>731.5</ele></trkpt>
  <trkpt lat="59.673641" lon="9.550198"><ele>732.3</ele></trkpt>
  <trkpt lat="59.673694" lon="9.550286"><ele>733.0</ele></trkpt>
  <trkpt lat="59.673724" lon="9.550444"><ele>733.8</ele></trkpt>
  <trkpt lat="59.673773" lon="9.550530"><ele>734.3</ele></trkpt>
  <trkpt lat="59.673816" lon="9.550691"><ele>734.8</ele></trkpt>
  <trkpt lat="59.673813" lon="9.550854"><ele>735.2</ele></trkpt>
  <trkpt lat="59.673972" lon="9.551271"><ele>736.3</ele></trkpt>
  <trkpt lat="59.674039" lon="9.551499"><ele>736.7</ele></trkpt>
  <trkpt lat="59.674054" lon="9.551725"><ele>737.1</ele></trkpt>
  <trkpt lat="59.674080" lon="9.551679"><ele>737.0</ele></trkpt>
  <trkpt lat="59.674110" lon="9.551704"><ele>737.1</ele></trkpt>
  <trkpt lat="59.674161" lon="9.551949"><ele>737.3</ele></trkpt>
  <trkpt lat="59.674173" lon="9.552150"><ele>737.4</ele></trkpt>
  <trkpt lat="59.674200" lon="9.552192"><ele>737.3</ele></trkpt>
  <trkpt lat="59.674260" lon="9.552215"><ele>737.2</ele></trkpt>
  <trkpt lat="59.674311" lon="9.552291"><ele>737.1</ele></trkpt>
  <trkpt lat="59.674287" lon="9.552462"><ele>736.9</ele></trkpt>
  <trkpt lat="59.674314" lon="9.552503"><ele>736.8</ele></trkpt>
  <trkpt lat="59.674320" lon="9.552568"><ele>736.7</ele></trkpt>
  <trkpt lat="59.674272" lon="9.552651"><ele>736.7</ele></trkpt>
  <trkpt lat="59.674267" lon="9.552827"><ele>736.5</ele></trkpt>
  <trkpt lat="59.674153" lon="9.553035"><ele>736.2</ele></trkpt>
  <trkpt lat="59.674094" lon="9.553068"><ele>736.2</ele></trkpt>
  <trkpt lat="59.674313" lon="9.553258"><ele>735.5</ele></trkpt>
  <trkpt lat="59.674341" lon="9.553319"><ele>735.3</ele></trkpt>
  <trkpt lat="59.674333" lon="9.553485"><ele>734.9</ele></trkpt>
  <trkpt lat="59.674312" lon="9.553533"><ele>734.8</ele></trkpt>
  <trkpt lat="59.674242" lon="9.553601"><ele>734.8</ele></trkpt>
  <trkpt lat="59.674314" lon="9.553501"><ele>734.9</ele></trkpt>
  <trkpt lat="59.674317" lon="9.553433"><ele>735.1</ele></trkpt>
  <trkpt lat="59.674318" lon="9.553488"><ele>734.9</ele></trkpt>
  <trkpt lat="59.674297" lon="9.553550"><ele>734.8</ele></trkpt>
  <trkpt lat="59.674220" lon="9.553716"><ele>734.5</ele></trkpt>
  <trkpt lat="59.674255" lon="9.553868"><ele>733.7</ele></trkpt>
  <trkpt lat="59.674253" lon="9.554079"><ele>732.3</ele></trkpt>
  <trkpt lat="59.674271" lon="9.554227"><ele>731.4</ele></trkpt>
  <trkpt lat="59.674295" lon="9.554274"><ele>731.2</ele></trkpt>
  <trkpt lat="59.674324" lon="9.554249"><ele>731.4</ele></trkpt>
  <trkpt lat="59.674378" lon="9.554299"><ele>731.1</ele></trkpt>
  <trkpt lat="59.674398" lon="9.554349"><ele>730.9</ele></trkpt>
  <trkpt lat="59.674464" lon="9.554832"><ele>728.1</ele></trkpt>
  <trkpt lat="59.674468" lon="9.555056"><ele>726.7</ele></trkpt>
  <trkpt lat="59.674506" lon="9.555295"><ele>725.4</ele></trkpt>
  <trkpt lat="59.674504" lon="9.555517"><ele>723.8</ele></trkpt>
  <trkpt lat="59.674540" lon="9.555661"><ele>722.7</ele></trkpt>
  <trkpt lat="59.674497" lon="9.555678"><ele>722.3</ele></trkpt>
  <trkpt lat="59.674463" lon="9.555716"><ele>721.8</ele></trkpt>
  <trkpt lat="59.674415" lon="9.555942"><ele>719.5</ele></trkpt>
  <trkpt lat="59.674360" lon="9.555990"><ele>718.7</ele></trkpt>
  <trkpt lat="59.674333" lon="9.556067"><ele>717.9</ele></trkpt>
  <trkpt lat="59.674286" lon="9.556380"><ele>714.6</ele></trkpt>
  <trkpt lat="59.674282" lon="9.556539"><ele>713.0</ele></trkpt>
  <trkpt lat="59.674346" lon="9.556853"><ele>710.6</ele></trkpt>
  <trkpt lat="59.674343" lon="9.556959"><ele>709.6</ele></trkpt>
  <trkpt lat="59.674298" lon="9.557129"><ele>707.7</ele></trkpt>
  <trkpt lat="59.674229" lon="9.557269"><ele>706.3</ele></trkpt>
  <trkpt lat="59.674184" lon="9.557488"><ele>704.7</ele></trkpt>
  <trkpt lat="59.674197" lon="9.557796"><ele>703.4</ele></trkpt>
  <trkpt lat="59.674262" lon="9.557983"><ele>703.2</ele></trkpt>
  <trkpt lat="59.674307" lon="9.558327"><ele>701.7</ele></trkpt>
  <trkpt lat="59.674304" lon="9.558401"><ele>701.3</ele></trkpt>
  <trkpt lat="59.674335" lon="9.558372"><ele>701.7</ele></trkpt>
  <trkpt lat="59.674366" lon="9.558400"><ele>701.9</ele></trkpt>
  <trkpt lat="59.674363" lon="9.558454"><ele>701.6</ele></trkpt>
  <trkpt lat="59.674348" lon="9.558558"><ele>700.8</ele></trkpt>
  <trkpt lat="59.674308" lon="9.558645"><ele>699.9</ele></trkpt>
  <trkpt lat="59.674313" lon="9.558937"><ele>699.1</ele></trkpt>
  <trkpt lat="59.674255" lon="9.559276"><ele>698.1</ele></trkpt>
  <trkpt lat="59.674228" lon="9.559340"><ele>697.8</ele></trkpt>
  <trkpt lat="59.674146" lon="9.559403"><ele>697.1</ele></trkpt>
  <trkpt lat="59.674116" lon="9.559453"><ele>696.8</ele></trkpt>
  <trkpt lat="59.674102" lon="9.559532"><ele>696.6</ele></trkpt>
  <trkpt lat="59.674108" lon="9.559628"><ele>696.5</ele></trkpt>
  <trkpt lat="59.674157" lon="9.559779"><ele>696.6</ele></trkpt>
  <trkpt lat="59.674150" lon="9.559841"><ele>696.4</ele></trkpt>
  <trkpt lat="59.674116" lon="9.559952"><ele>696.0</ele></trkpt>
  <trkpt lat="59.674011" lon="9.560145"><ele>695.0</ele></trkpt>
  <trkpt lat="59.673983" lon="9.560227"><ele>694.7</ele></trkpt>
  <trkpt lat="59.673958" lon="9.560443"><ele>694.2</ele></trkpt>
  <trkpt lat="59.673918" lon="9.560564"><ele>693.9</ele></trkpt>
  <trkpt lat="59.673904" lon="9.560675"><ele>693.7</ele></trkpt>
  <trkpt lat="59.673876" lon="9.560704"><ele>693.5</ele></trkpt>
  <trkpt lat="59.673812" lon="9.561075"><ele>693.1</ele></trkpt>
  <trkpt lat="59.673686" lon="9.561589"><ele>692.7</ele></trkpt>
  <trkpt lat="59.673610" lon="9.561723"><ele>692.4</ele></trkpt>
  <trkpt lat="59.673522" lon="9.561973"><ele>692.3</ele></trkpt>
  <trkpt lat="59.673506" lon="9.562287"><ele>692.7</ele></trkpt>
  <trkpt lat="59.673467" lon="9.562462"><ele>692.8</ele></trkpt>
  <trkpt lat="59.673410" lon="9.562580"><ele>692.8</ele></trkpt>
  <trkpt lat="59.673371" lon="9.562627"><ele>692.7</ele></trkpt>
  <trkpt lat="59.673132" lon="9.562862"><ele>692.5</ele></trkpt>
  <trkpt lat="59.673101" lon="9.562907"><ele>692.4</ele></trkpt>
  <trkpt lat="59.673062" lon="9.563024"><ele>692.5</ele></trkpt>
  <trkpt lat="59.673035" lon="9.563068"><ele>692.5</ele></trkpt>
  <trkpt lat="59.672979" lon="9.563113"><ele>692.4</ele></trkpt>
  <trkpt lat="59.672932" lon="9.563296"><ele>692.5</ele></trkpt>
  <trkpt lat="59.672740" lon="9.563614"><ele>691.8</ele></trkpt>
  <trkpt lat="59.672662" lon="9.564047"><ele>691.1</ele></trkpt>
  <trkpt lat="59.672593" lon="9.564252"><ele>690.5</ele></trkpt>
  <trkpt lat="59.672532" lon="9.564333"><ele>690.0</ele></trkpt>
  <trkpt lat="59.672414" lon="9.564437"><ele>689.2</ele></trkpt>
  <trkpt lat="59.672259" lon="9.564656"><ele>687.9</ele></trkpt>
  <trkpt lat="59.672151" lon="9.564731"><ele>687.2</ele></trkpt>
  <trkpt lat="59.672103" lon="9.564824"><ele>686.8</ele></trkpt>
  <trkpt lat="59.672072" lon="9.564930"><ele>686.5</ele></trkpt>
  <trkpt lat="59.672041" lon="9.564962"><ele>686.1</ele></trkpt>
  <trkpt lat="59.671962" lon="9.564929"><ele>685.3</ele></trkpt>
  <trkpt lat="59.671856" lon="9.564944"><ele>684.1</ele></trkpt>
  <trkpt lat="59.671681" lon="9.564849"><ele>682.3</ele></trkpt>
  <trkpt lat="59.671512" lon="9.564988"><ele>680.3</ele></trkpt>
  <trkpt lat="59.671474" lon="9.564999"><ele>679.9</ele></trkpt>
  <trkpt lat="59.671425" lon="9.564983"><ele>679.4</ele></trkpt>
  <trkpt lat="59.671385" lon="9.565006"><ele>679.0</ele></trkpt>
  <trkpt lat="59.671272" lon="9.565292"><ele>677.4</ele></trkpt>
  <trkpt lat="59.671100" lon="9.565337"><ele>674.0</ele></trkpt>
  <trkpt lat="59.670898" lon="9.565286"><ele>669.8</ele></trkpt>
  <trkpt lat="59.670929" lon="9.565275"><ele>670.5</ele></trkpt>
  <trkpt lat="59.670887" lon="9.565277"><ele>669.6</ele></trkpt>
  <trkpt lat="59.670842" lon="9.565321"><ele>668.7</ele></trkpt>
  <trkpt lat="59.670837" lon="9.565374"><ele>668.6</ele></trkpt>
  <trkpt lat="59.670875" lon="9.565619"><ele>669.3</ele></trkpt>
  <trkpt lat="59.670862" lon="9.565758"><ele>669.0</ele></trkpt>
  <trkpt lat="59.670833" lon="9.565839"><ele>668.5</ele></trkpt>
  <trkpt lat="59.670716" lon="9.566029"><ele>666.7</ele></trkpt>
  <trkpt lat="59.670572" lon="9.566326"><ele>665.2</ele></trkpt>
  <trkpt lat="59.670383" lon="9.566820"><ele>664.7</ele></trkpt>
  <trkpt lat="59.670310" lon="9.566915"><ele>664.2</ele></trkpt>
  <trkpt lat="59.670263" lon="9.567194"><ele>664.3</ele></trkpt>
  <trkpt lat="59.670233" lon="9.567275"><ele>663.9</ele></trkpt>
  <trkpt lat="59.670165" lon="9.567375"><ele>663.1</ele></trkpt>
  <trkpt lat="59.670110" lon="9.567413"><ele>662.6</ele></trkpt>
  <trkpt lat="59.669999" lon="9.567400"><ele>661.5</ele></trkpt>
  <trkpt lat="59.669960" lon="9.567417"><ele>661.1</ele></trkpt>
  <trkpt lat="59.669863" lon="9.567599"><ele>660.2</ele></trkpt>
  <trkpt lat="59.669812" lon="9.567445"><ele>659.7</ele></trkpt>
  <trkpt lat="59.669874" lon="9.567658"><ele>660.3</ele></trkpt>
  <trkpt lat="59.669887" lon="9.567773"><ele>660.5</ele></trkpt>
  <trkpt lat="59.669813" lon="9.568089"><ele>660.0</ele></trkpt>
  <trkpt lat="59.669803" lon="9.568666"><ele>660.3</ele></trkpt>
  <trkpt lat="59.669834" lon="9.568819"><ele>659.9</ele></trkpt>
  <trkpt lat="59.669898" lon="9.568921"><ele>659.5</ele></trkpt>
  <trkpt lat="59.669969" lon="9.568988"><ele>659.3</ele></trkpt>
  <trkpt lat="59.669972" lon="9.569199"><ele>657.6</ele></trkpt>
  <trkpt lat="59.669908" lon="9.569645"><ele>653.4</ele></trkpt>
  <trkpt lat="59.669920" lon="9.569995"><ele>650.4</ele></trkpt>
  <trkpt lat="59.669997" lon="9.570161"><ele>649.3</ele></trkpt>
  <trkpt lat="59.670061" lon="9.570379"><ele>647.6</ele></trkpt>
  <trkpt lat="59.670087" lon="9.570491"><ele>647.0</ele></trkpt>
  <trkpt lat="59.670109" lon="9.570729"><ele>645.8</ele></trkpt>
  <trkpt lat="59.670163" lon="9.570785"><ele>645.7</ele></trkpt>
  <trkpt lat="59.670224" lon="9.570909"><ele>645.3</ele></trkpt>
  <trkpt lat="59.670464" lon="9.571290"><ele>643.5</ele></trkpt>
  <trkpt lat="59.670629" lon="9.571962"><ele>638.5</ele></trkpt>
  <trkpt lat="59.670658" lon="9.571989"><ele>638.3</ele></trkpt>
  <trkpt lat="59.670649" lon="9.571938"><ele>638.7</ele></trkpt>
  <trkpt lat="59.670687" lon="9.571917"><ele>638.7</ele></trkpt>
  <trkpt lat="59.670719" lon="9.571953"><ele>638.5</ele></trkpt>
  <trkpt lat="59.670758" lon="9.572191"><ele>637.5</ele></trkpt>
  <trkpt lat="59.670788" lon="9.572253"><ele>637.4</ele></trkpt>
  <trkpt lat="59.670854" lon="9.572304"><ele>637.2</ele></trkpt>
  <trkpt lat="59.670833" lon="9.572267"><ele>637.3</ele></trkpt>
  <trkpt lat="59.670829" lon="9.572334"><ele>637.2</ele></trkpt>
  <trkpt lat="59.670903" lon="9.572601"><ele>636.7</ele></trkpt>
  <trkpt lat="59.670933" lon="9.572806"><ele>636.3</ele></trkpt>
  <trkpt lat="59.671038" lon="9.572880"><ele>635.8</ele></trkpt>
  <trkpt lat="59.671199" lon="9.573194"><ele>634.5</ele></trkpt>
  <trkpt lat="59.671290" lon="9.573303"><ele>633.8</ele></trkpt>
  <trkpt lat="59.671310" lon="9.573356"><ele>633.5</ele></trkpt>
  <trkpt lat="59.671356" lon="9.573658"><ele>632.5</ele></trkpt>
  <trkpt lat="59.671409" lon="9.573835"><ele>631.4</ele></trkpt>
  <trkpt lat="59.671432" lon="9.574021"><ele>630.3</ele></trkpt>
  <trkpt lat="59.671426" lon="9.574172"><ele>629.6</ele></trkpt>
  <trkpt lat="59.671354" lon="9.574516"><ele>628.5</ele></trkpt>
  <trkpt lat="59.671366" lon="9.574873"><ele>626.3</ele></trkpt>
  <trkpt lat="59.671362" lon="9.574954"><ele>625.8</ele></trkpt>
  <trkpt lat="59.671334" lon="9.574958"><ele>626.0</ele></trkpt>
  <trkpt lat="59.671333" lon="9.575026"><ele>625.6</ele></trkpt>
  <trkpt lat="59.671354" lon="9.575502"><ele>622.1</ele></trkpt>
  <trkpt lat="59.671348" lon="9.575712"><ele>619.7</ele></trkpt>
  <trkpt lat="59.671410" lon="9.576250"><ele>613.0</ele></trkpt>
  <trkpt lat="59.671401" lon="9.576377"><ele>611.5</ele></trkpt>
  <trkpt lat="59.671445" lon="9.576558"><ele>609.0</ele></trkpt>
  <trkpt lat="59.671537" lon="9.577261"><ele>601.5</ele></trkpt>
  <trkpt lat="59.671520" lon="9.577397"><ele>600.8</ele></trkpt>
  <trkpt lat="59.671490" lon="9.577366"><ele>601.0</ele></trkpt>
 </trkseg></trk></gpx>