<?xml version="1.0" encoding="UTF-8"?>
<gpx version="1.1" creator="stikart_web trailguide-snapshot" xmlns="http://www.topografix.com/GPX/1/1">
 <trk><name>Justitsen</name><desc>Fra Trailguide (trailguide.net), gradering: blue. 1461 m, 206 m nedfart.</desc><trkseg>
  <trkpt lat="59.651990" lon="9.593230"><ele>560.0</ele></trkpt>
  <trkpt lat="59.651950" lon="9.593080"><ele>559.0</ele></trkpt>
  <trkpt lat="59.651860" lon="9.592890"><ele>559.0</ele></trkpt>
  <trkpt lat="59.651790" lon="9.592680"><ele>558.0</ele></trkpt>
  <trkpt lat="59.651560" lon="9.592530"><ele>555.0</ele></trkpt>
  <trkpt lat="59.651390" lon="9.592290"><ele>552.0</ele></trkpt>
  <trkpt lat="59.651300" lon="9.592200"><ele>550.0</ele></trkpt>
  <trkpt lat="59.651240" lon="9.592190"><ele>549.0</ele></trkpt>
  <trkpt lat="59.650910" lon="9.592610"><ele>547.0</ele></trkpt>
  <trkpt lat="59.650680" lon="9.592730"><ele>544.0</ele></trkpt>
  <trkpt lat="59.650330" lon="9.592700"><ele>539.0</ele></trkpt>
  <trkpt lat="59.650110" lon="9.592810"><ele>536.0</ele></trkpt>
  <trkpt lat="59.650030" lon="9.592890"><ele>535.0</ele></trkpt>
  <trkpt lat="59.649760" lon="9.593320"><ele>532.0</ele></trkpt>
  <trkpt lat="59.649630" lon="9.593380"><ele>530.0</ele></trkpt>
  <trkpt lat="59.649400" lon="9.593350"><ele>526.0</ele></trkpt>
  <trkpt lat="59.649040" lon="9.593510"><ele>519.0</ele></trkpt>
  <trkpt lat="59.648780" lon="9.593590"><ele>515.0</ele></trkpt>
  <trkpt lat="59.648640" lon="9.593590"><ele>512.0</ele></trkpt>
  <trkpt lat="59.648370" lon="9.593500"><ele>507.0</ele></trkpt>
  <trkpt lat="59.647770" lon="9.593530"><ele>495.0</ele></trkpt>
  <trkpt lat="59.647720" lon="9.593510"><ele>494.0</ele></trkpt>
  <trkpt lat="59.647570" lon="9.593280"><ele>490.0</ele></trkpt>
  <trkpt lat="59.647410" lon="9.593100"><ele>487.0</ele></trkpt>
  <trkpt lat="59.647320" lon="9.592750"><ele>485.0</ele></trkpt>
  <trkpt lat="59.647290" lon="9.592680"><ele>484.0</ele></trkpt>
  <trkpt lat="59.647240" lon="9.592650"><ele>483.0</ele></trkpt>
  <trkpt lat="59.647190" lon="9.592650"><ele>482.0</ele></trkpt>
  <trkpt lat="59.646980" lon="9.592840"><ele>479.0</ele></trkpt>
  <trkpt lat="59.646890" lon="9.592850"><ele>477.0</ele></trkpt>
  <trkpt lat="59.646760" lon="9.592820"><ele>475.0</ele></trkpt>
  <trkpt lat="59.646650" lon="9.592740"><ele>473.0</ele></trkpt>
  <trkpt lat="59.646590" lon="9.592760"><ele>472.0</ele></trkpt>
  <trkpt lat="59.646480" lon="9.592720"><ele>470.0</ele></trkpt>
  <trkpt lat="59.646220" lon="9.592850"><ele>466.0</ele></trkpt>
  <trkpt lat="59.646130" lon="9.592960"><ele>465.0</ele></trkpt>
  <trkpt lat="59.646030" lon="9.593020"><ele>463.0</ele></trkpt>
  <trkpt lat="59.645700" lon="9.592930"><ele>457.0</ele></trkpt>
  <trkpt lat="59.645660" lon="9.592940"><ele>457.0</ele></trkpt>
  <trkpt lat="59.645620" lon="9.592990"><ele>456.0</ele></trkpt>
  <trkpt lat="59.645230" lon="9.593020"><ele>448.0</ele></trkpt>
  <trkpt lat="59.645010" lon="9.593120"><ele>444.0</ele></trkpt>
  <trkpt lat="59.644900" lon="9.593050"><ele>441.0</ele></trkpt>
  <trkpt lat="59.644760" lon="9.593060"><ele>438.0</ele></trkpt>
  <trkpt lat="59.644620" lon="9.593170"><ele>435.0</ele></trkpt>
  <trkpt lat="59.644570" lon="9.593310"><ele>435.0</ele></trkpt>
  <trkpt lat="59.644187" lon="9.593527"><ele>427.0</ele></trkpt>
  <trkpt lat="59.644108" lon="9.593527"><ele>426.0</ele></trkpt>
  <trkpt lat="59.643991" lon="9.593688"><ele>424.0</ele></trkpt>
  <trkpt lat="59.643648" lon="9.593849"><ele>417.0</ele></trkpt>
  <trkpt lat="59.643563" lon="9.593828"><ele>416.0</ele></trkpt>
  <trkpt lat="59.643462" lon="9.593935"><ele>414.0</ele></trkpt>
  <trkpt lat="59.643266" lon="9.594364"><ele>410.0</ele></trkpt>
  <trkpt lat="59.642851" lon="9.594761"><ele>404.0</ele></trkpt>
  <trkpt lat="59.642205" lon="9.595137"><ele>393.0</ele></trkpt>
  <trkpt lat="59.642055" lon="9.595298"><ele>390.0</ele></trkpt>
  <trkpt lat="59.641932" lon="9.595383"><ele>388.0</ele></trkpt>
  <trkpt lat="59.641533" lon="9.595491"><ele>380.0</ele></trkpt>
  <trkpt lat="59.641232" lon="9.595705"><ele>375.0</ele></trkpt>
  <trkpt lat="59.641082" lon="9.595909"><ele>372.0</ele></trkpt>
  <trkpt lat="59.640900" lon="9.595952"><ele>369.0</ele></trkpt>
  <trkpt lat="59.640777" lon="9.595963"><ele>366.0</ele></trkpt>
  <trkpt lat="59.640481" lon="9.596145"><ele>360.0</ele></trkpt>
  <trkpt lat="59.639900" lon="9.596328"><ele>346.0</ele></trkpt>
 </trkseg></trk></gpx>