<?xml version="1.0" encoding="UTF-8"?>
<gpx version="1.1" creator="stikart_web trailguide-snapshot" xmlns="http://www.topografix.com/GPX/1/1">
 <trk><name>Kampestad travers</name><desc>Fra Trailguide (trailguide.net), gradering: black. 743 m, 91 m nedfart.</desc><trkseg>
  <trkpt lat="59.693350" lon="9.656752"><ele>344.0</ele></trkpt>
  <trkpt lat="59.693246" lon="9.656695"><ele>342.0</ele></trkpt>
  <trkpt lat="59.693015" lon="9.656379"><ele>337.0</ele></trkpt>
  <trkpt lat="59.692926" lon="9.656355"><ele>335.0</ele></trkpt>
  <trkpt lat="59.692899" lon="9.656324"><ele>334.0</ele></trkpt>
  <trkpt lat="59.692857" lon="9.656212"><ele>333.0</ele></trkpt>
  <trkpt lat="59.692802" lon="9.656161"><ele>332.0</ele></trkpt>
  <trkpt lat="59.692729" lon="9.656024"><ele>330.0</ele></trkpt>
  <trkpt lat="59.692643" lon="9.655905"><ele>329.0</ele></trkpt>
  <trkpt lat="59.692604" lon="9.655882"><ele>329.0</ele></trkpt>
  <trkpt lat="59.692493" lon="9.655872"><ele>327.0</ele></trkpt>
  <trkpt lat="59.692403" lon="9.655895"><ele>327.0</ele></trkpt>
  <trkpt lat="59.692256" lon="9.655894"><ele>325.0</ele></trkpt>
  <trkpt lat="59.692186" lon="9.655828"><ele>324.0</ele></trkpt>
  <trkpt lat="59.692109" lon="9.655805"><ele>324.0</ele></trkpt>
  <trkpt lat="59.692033" lon="9.655719"><ele>323.0</ele></trkpt>
  <trkpt lat="59.691791" lon="9.655552"><ele>320.0</ele></trkpt>
  <trkpt lat="59.691707" lon="9.655450"><ele>318.0</ele></trkpt>
  <trkpt lat="59.691641" lon="9.655425"><ele>317.0</ele></trkpt>
  <trkpt lat="59.691588" lon="9.655441"><ele>316.0</ele></trkpt>
  <trkpt lat="59.691483" lon="9.655432"><ele>314.0</ele></trkpt>
  <trkpt lat="59.691385" lon="9.655479"><ele>313.0</ele></trkpt>
  <trkpt lat="59.691360" lon="9.655549"><ele>312.0</ele></trkpt>
  <trkpt lat="59.691324" lon="9.655567"><ele>311.0</ele></trkpt>
  <trkpt lat="59.691256" lon="9.655641"><ele>309.0</ele></trkpt>
  <trkpt lat="59.691235" lon="9.655687"><ele>309.0</ele></trkpt>
  <trkpt lat="59.691095" lon="9.655792"><ele>306.0</ele></trkpt>
  <trkpt lat="59.691060" lon="9.655868"><ele>307.0</ele></trkpt>
  <trkpt lat="59.690863" lon="9.656084"><ele>304.0</ele></trkpt>
  <trkpt lat="59.690751" lon="9.656112"><ele>303.0</ele></trkpt>
  <trkpt lat="59.690659" lon="9.656180"><ele>305.0</ele></trkpt>
  <trkpt lat="59.690616" lon="9.656168"><ele>304.0</ele></trkpt>
  <trkpt lat="59.690589" lon="9.656185"><ele>304.0</ele></trkpt>
  <trkpt lat="59.690468" lon="9.656186"><ele>303.0</ele></trkpt>
  <trkpt lat="59.690335" lon="9.656234"><ele>304.0</ele></trkpt>
  <trkpt lat="59.690205" lon="9.656232"><ele>303.0</ele></trkpt>
  <trkpt lat="59.690094" lon="9.656187"><ele>301.0</ele></trkpt>
  <trkpt lat="59.690020" lon="9.656184"><ele>300.0</ele></trkpt>
  <trkpt lat="59.689948" lon="9.656154"><ele>299.0</ele></trkpt>
  <trkpt lat="59.689772" lon="9.656172"><ele>297.0</ele></trkpt>
  <trkpt lat="59.689678" lon="9.656166"><ele>295.0</ele></trkpt>
  <trkpt lat="59.689498" lon="9.655927"><ele>289.0</ele></trkpt>
  <trkpt lat="59.689415" lon="9.655996"><ele>289.0</ele></trkpt>
  <trkpt lat="59.689370" lon="9.655995"><ele>287.0</ele></trkpt>
  <trkpt lat="59.689324" lon="9.656020"><ele>288.0</ele></trkpt>
  <trkpt lat="59.689227" lon="9.656036"><ele>286.0</ele></trkpt>
  <trkpt lat="59.689133" lon="9.656034"><ele>284.0</ele></trkpt>
  <trkpt lat="59.689102" lon="9.655994"><ele>282.0</ele></trkpt>
  <trkpt lat="59.688989" lon="9.655981"><ele>281.0</ele></trkpt>
  <trkpt lat="59.688952" lon="9.655958"><ele>280.0</ele></trkpt>
  <trkpt lat="59.688893" lon="9.655978"><ele>279.0</ele></trkpt>
  <trkpt lat="59.688826" lon="9.655916"><ele>278.0</ele></trkpt>
  <trkpt lat="59.688797" lon="9.655932"><ele>277.0</ele></trkpt>
  <trkpt lat="59.688772" lon="9.655977"><ele>278.0</ele></trkpt>
  <trkpt lat="59.688703" lon="9.656001"><ele>278.0</ele></trkpt>
  <trkpt lat="59.688429" lon="9.655793"><ele>270.0</ele></trkpt>
  <trkpt lat="59.688395" lon="9.655805"><ele>270.0</ele></trkpt>
  <trkpt lat="59.688372" lon="9.655852"><ele>271.0</ele></trkpt>
  <trkpt lat="59.688280" lon="9.655753"><ele>268.0</ele></trkpt>
  <trkpt lat="59.688063" lon="9.655699"><ele>264.0</ele></trkpt>
  <trkpt lat="59.687889" lon="9.655479"><ele>261.0</ele></trkpt>
  <trkpt lat="59.687702" lon="9.655494"><ele>259.0</ele></trkpt>
  <trkpt lat="59.687632" lon="9.655481"><ele>258.0</ele></trkpt>
  <trkpt lat="59.687532" lon="9.655157"><ele>255.0</ele></trkpt>
  <trkpt lat="59.687402" lon="9.654590"><ele>246.0</ele></trkpt>
 </trkseg></trk></gpx>