<?xml version="1.0" encoding="UTF-8"?>
<gpx version="1.1" creator="stikart_web trailguide-snapshot" xmlns="http://www.topografix.com/GPX/1/1">
 <trk><name>Kampestad</name><desc>Fra Trailguide (trailguide.net), gradering: blue. 528 m, 64 m nedfart.</desc><trkseg>
  <trkpt lat="59.690804" lon="9.654567"><ele>289.0</ele></trkpt>
  <trkpt lat="59.690645" lon="9.654669"><ele>288.0</ele></trkpt>
  <trkpt lat="59.690603" lon="9.654709"><ele>287.0</ele></trkpt>
  <trkpt lat="59.690559" lon="9.654832"><ele>287.0</ele></trkpt>
  <trkpt lat="59.690591" lon="9.655003"><ele>286.0</ele></trkpt>
  <trkpt lat="59.690589" lon="9.655120"><ele>285.0</ele></trkpt>
  <trkpt lat="59.690559" lon="9.655129"><ele>285.0</ele></trkpt>
  <trkpt lat="59.690517" lon="9.655227"><ele>284.0</ele></trkpt>
  <trkpt lat="59.690430" lon="9.655309"><ele>284.0</ele></trkpt>
  <trkpt lat="59.690391" lon="9.655332"><ele>283.0</ele></trkpt>
  <trkpt lat="59.690236" lon="9.655359"><ele>282.0</ele></trkpt>
  <trkpt lat="59.690211" lon="9.655321"><ele>282.0</ele></trkpt>
  <trkpt lat="59.690179" lon="9.655305"><ele>281.0</ele></trkpt>
  <trkpt lat="59.690094" lon="9.655303"><ele>280.0</ele></trkpt>
  <trkpt lat="59.690023" lon="9.655214"><ele>279.0</ele></trkpt>
  <trkpt lat="59.689966" lon="9.655080"><ele>277.0</ele></trkpt>
  <trkpt lat="59.689893" lon="9.655039"><ele>276.0</ele></trkpt>
  <trkpt lat="59.689788" lon="9.655041"><ele>274.0</ele></trkpt>
  <trkpt lat="59.689677" lon="9.654962"><ele>270.0</ele></trkpt>
  <trkpt lat="59.689609" lon="9.654876"><ele>268.0</ele></trkpt>
  <trkpt lat="59.689489" lon="9.654786"><ele>265.0</ele></trkpt>
  <trkpt lat="59.689364" lon="9.654546"><ele>260.0</ele></trkpt>
  <trkpt lat="59.689321" lon="9.654390"><ele>258.0</ele></trkpt>
  <trkpt lat="59.689298" lon="9.654351"><ele>257.0</ele></trkpt>
  <trkpt lat="59.689258" lon="9.654365"><ele>256.0</ele></trkpt>
  <trkpt lat="59.689232" lon="9.654338"><ele>255.0</ele></trkpt>
  <trkpt lat="59.689177" lon="9.654217"><ele>254.0</ele></trkpt>
  <trkpt lat="59.689131" lon="9.654166"><ele>253.0</ele></trkpt>
  <trkpt lat="59.689087" lon="9.654152"><ele>253.0</ele></trkpt>
  <trkpt lat="59.688980" lon="9.654201"><ele>252.0</ele></trkpt>
  <trkpt lat="59.688894" lon="9.654199"><ele>251.0</ele></trkpt>
  <trkpt lat="59.688854" lon="9.654189"><ele>251.0</ele></trkpt>
  <trkpt lat="59.688830" lon="9.654148"><ele>251.0</ele></trkpt>
  <trkpt lat="59.688792" lon="9.654147"><ele>250.0</ele></trkpt>
  <trkpt lat="59.688676" lon="9.654382"><ele>249.0</ele></trkpt>
  <trkpt lat="59.688642" lon="9.654400"><ele>249.0</ele></trkpt>
  <trkpt lat="59.688564" lon="9.654379"><ele>248.0</ele></trkpt>
  <trkpt lat="59.688500" lon="9.654251"><ele>247.0</ele></trkpt>
  <trkpt lat="59.688446" lon="9.654227"><ele>246.0</ele></trkpt>
  <trkpt lat="59.688305" lon="9.654248"><ele>244.0</ele></trkpt>
  <trkpt lat="59.688216" lon="9.654315"><ele>243.0</ele></trkpt>
  <trkpt lat="59.688240" lon="9.654190"><ele>241.0</ele></trkpt>
  <trkpt lat="59.688048" lon="9.653956"><ele>237.0</ele></trkpt>
  <trkpt lat="59.687930" lon="9.653878"><ele>235.0</ele></trkpt>
  <trkpt lat="59.687777" lon="9.653612"><ele>234.0</ele></trkpt>
  <trkpt lat="59.687706" lon="9.653325"><ele>233.0</ele></trkpt>
  <trkpt lat="59.687576" lon="9.653049"><ele>232.0</ele></trkpt>
  <trkpt lat="59.687527" lon="9.652772"><ele>230.0</ele></trkpt>
  <trkpt lat="59.687407" lon="9.652584"><ele>228.0</ele></trkpt>
  <trkpt lat="59.687313" lon="9.652308"><ele>226.0</ele></trkpt>
  <trkpt lat="59.687324" lon="9.652071"><ele>224.0</ele></trkpt>
  <trkpt lat="59.687342" lon="9.652069"><ele>224.0</ele></trkpt>
 </trkseg></trk></gpx>