<?xml version="1.0" encoding="UTF-8"?>
<gpx version="1.1" creator="stikart_web trailguide-snapshot" xmlns="http://www.topografix.com/GPX/1/1">
 <trk><name>Knoffemyr Flyt</name><desc>Fra Trailguide (trailguide.net), gradering: blue. 855 m, 95 m nedfart.</desc><trkseg>
  <trkpt lat="59.655907" lon="9.627597"><ele>285.0</ele></trkpt>
  <trkpt lat="59.655883" lon="9.627910"><ele>284.0</ele></trkpt>
  <trkpt lat="59.655858" lon="9.628017"><ele>283.0</ele></trkpt>
  <trkpt lat="59.655758" lon="9.628098"><ele>283.0</ele></trkpt>
  <trkpt lat="59.655622" lon="9.628138"><ele>283.0</ele></trkpt>
  <trkpt lat="59.655492" lon="9.628325"><ele>284.0</ele></trkpt>
  <trkpt lat="59.655365" lon="9.628437"><ele>284.0</ele></trkpt>
  <trkpt lat="59.655297" lon="9.628537"><ele>284.0</ele></trkpt>
  <trkpt lat="59.655225" lon="9.628603"><ele>284.0</ele></trkpt>
  <trkpt lat="59.655168" lon="9.628715"><ele>285.0</ele></trkpt>
  <trkpt lat="59.655152" lon="9.628837"><ele>286.0</ele></trkpt>
  <trkpt lat="59.655125" lon="9.628858"><ele>288.0</ele></trkpt>
  <trkpt lat="59.655120" lon="9.628883"><ele>288.0</ele></trkpt>
  <trkpt lat="59.654882" lon="9.628965"><ele>288.0</ele></trkpt>
  <trkpt lat="59.654645" lon="9.629258"><ele>287.0</ele></trkpt>
  <trkpt lat="59.654548" lon="9.629335"><ele>287.0</ele></trkpt>
  <trkpt lat="59.654482" lon="9.629418"><ele>287.0</ele></trkpt>
  <trkpt lat="59.654307" lon="9.629438"><ele>287.0</ele></trkpt>
  <trkpt lat="59.654112" lon="9.629333"><ele>286.0</ele></trkpt>
  <trkpt lat="59.654023" lon="9.629340"><ele>286.0</ele></trkpt>
  <trkpt lat="59.654022" lon="9.629328"><ele>286.0</ele></trkpt>
  <trkpt lat="59.653998" lon="9.629443"><ele>286.0</ele></trkpt>
  <trkpt lat="59.653633" lon="9.629942"><ele>276.0</ele></trkpt>
  <trkpt lat="59.653583" lon="9.629980"><ele>276.0</ele></trkpt>
  <trkpt lat="59.653523" lon="9.629988"><ele>271.0</ele></trkpt>
  <trkpt lat="59.653437" lon="9.630083"><ele>268.0</ele></trkpt>
  <trkpt lat="59.653380" lon="9.630237"><ele>264.0</ele></trkpt>
  <trkpt lat="59.653387" lon="9.630287"><ele>264.0</ele></trkpt>
  <trkpt lat="59.653227" lon="9.630585"><ele>256.0</ele></trkpt>
  <trkpt lat="59.653197" lon="9.630738"><ele>252.0</ele></trkpt>
  <trkpt lat="59.653218" lon="9.630778"><ele>251.0</ele></trkpt>
  <trkpt lat="59.653195" lon="9.630743"><ele>251.0</ele></trkpt>
  <trkpt lat="59.653197" lon="9.630632"><ele>252.0</ele></trkpt>
  <trkpt lat="59.653202" lon="9.630713"><ele>251.0</ele></trkpt>
  <trkpt lat="59.653187" lon="9.630693"><ele>251.0</ele></trkpt>
  <trkpt lat="59.653213" lon="9.630532"><ele>253.0</ele></trkpt>
  <trkpt lat="59.653173" lon="9.630578"><ele>253.0</ele></trkpt>
  <trkpt lat="59.653170" lon="9.630607"><ele>253.0</ele></trkpt>
  <trkpt lat="59.653175" lon="9.630652"><ele>253.0</ele></trkpt>
  <trkpt lat="59.653230" lon="9.630668"><ele>252.0</ele></trkpt>
  <trkpt lat="59.653237" lon="9.630683"><ele>251.0</ele></trkpt>
  <trkpt lat="59.653227" lon="9.630768"><ele>250.0</ele></trkpt>
  <trkpt lat="59.653232" lon="9.630788"><ele>250.0</ele></trkpt>
  <trkpt lat="59.653242" lon="9.630758"><ele>251.0</ele></trkpt>
  <trkpt lat="59.653313" lon="9.631113"><ele>245.0</ele></trkpt>
  <trkpt lat="59.653358" lon="9.631180"><ele>245.0</ele></trkpt>
  <trkpt lat="59.653415" lon="9.631225"><ele>245.0</ele></trkpt>
  <trkpt lat="59.653423" lon="9.631267"><ele>241.0</ele></trkpt>
  <trkpt lat="59.653412" lon="9.631417"><ele>239.0</ele></trkpt>
  <trkpt lat="59.653407" lon="9.631387"><ele>239.0</ele></trkpt>
  <trkpt lat="59.653383" lon="9.631370"><ele>239.0</ele></trkpt>
  <trkpt lat="59.653355" lon="9.631463"><ele>236.0</ele></trkpt>
  <trkpt lat="59.653283" lon="9.631547"><ele>235.0</ele></trkpt>
  <trkpt lat="59.653248" lon="9.631650"><ele>233.0</ele></trkpt>
  <trkpt lat="59.653258" lon="9.631748"><ele>231.0</ele></trkpt>
  <trkpt lat="59.653345" lon="9.631843"><ele>228.0</ele></trkpt>
  <trkpt lat="59.653383" lon="9.631970"><ele>225.0</ele></trkpt>
  <trkpt lat="59.653372" lon="9.631942"><ele>225.0</ele></trkpt>
  <trkpt lat="59.653383" lon="9.631865"><ele>226.0</ele></trkpt>
  <trkpt lat="59.653363" lon="9.631763"><ele>228.0</ele></trkpt>
  <trkpt lat="59.653258" lon="9.631705"><ele>230.0</ele></trkpt>
  <trkpt lat="59.653298" lon="9.631703"><ele>230.0</ele></trkpt>
  <trkpt lat="59.653370" lon="9.631733"><ele>230.0</ele></trkpt>
  <trkpt lat="59.653290" lon="9.631710"><ele>229.0</ele></trkpt>
  <trkpt lat="59.653268" lon="9.631745"><ele>229.0</ele></trkpt>
  <trkpt lat="59.653270" lon="9.631720"><ele>230.0</ele></trkpt>
  <trkpt lat="59.653253" lon="9.631705"><ele>230.0</ele></trkpt>
  <trkpt lat="59.653317" lon="9.631773"><ele>228.0</ele></trkpt>
  <trkpt lat="59.653348" lon="9.631857"><ele>227.0</ele></trkpt>
  <trkpt lat="59.653327" lon="9.631977"><ele>227.0</ele></trkpt>
  <trkpt lat="59.653180" lon="9.632217"><ele>222.0</ele></trkpt>
  <trkpt lat="59.652942" lon="9.632453"><ele>217.0</ele></trkpt>
  <trkpt lat="59.652843" lon="9.632673"><ele>214.0</ele></trkpt>
  <trkpt lat="59.652787" lon="9.632717"><ele>214.0</ele></trkpt>
  <trkpt lat="59.652738" lon="9.632712"><ele>213.0</ele></trkpt>
  <trkpt lat="59.652723" lon="9.632725"><ele>212.0</ele></trkpt>
  <trkpt lat="59.652685" lon="9.632838"><ele>212.0</ele></trkpt>
  <trkpt lat="59.652728" lon="9.632710"><ele>212.0</ele></trkpt>
  <trkpt lat="59.652778" lon="9.632707"><ele>213.0</ele></trkpt>
  <trkpt lat="59.652828" lon="9.632680"><ele>213.0</ele></trkpt>
  <trkpt lat="59.652812" lon="9.632693"><ele>213.0</ele></trkpt>
  <trkpt lat="59.652790" lon="9.632680"><ele>213.0</ele></trkpt>
  <trkpt lat="59.652788" lon="9.632702"><ele>213.0</ele></trkpt>
  <trkpt lat="59.652563" lon="9.632935"><ele>212.0</ele></trkpt>
  <trkpt lat="59.652342" lon="9.633208"><ele>205.0</ele></trkpt>
  <trkpt lat="59.652143" lon="9.633220"><ele>204.0</ele></trkpt>
  <trkpt lat="59.652013" lon="9.633255"><ele>203.0</ele></trkpt>
  <trkpt lat="59.651810" lon="9.633382"><ele>203.0</ele></trkpt>
  <trkpt lat="59.651803" lon="9.633458"><ele>203.0</ele></trkpt>
  <trkpt lat="59.651828" lon="9.633545"><ele>198.0</ele></trkpt>
  <trkpt lat="59.651872" lon="9.633573"><ele>198.0</ele></trkpt>
 </trkseg></trk></gpx>