<?xml version="1.0" encoding="UTF-8"?>
<gpx version="1.1" creator="stikart_web trailguide-snapshot" xmlns="http://www.topografix.com/GPX/1/1">
 <trk><name>Knoffemyr Enduro</name><desc>Fra Trailguide (trailguide.net), gradering: red. 654 m, 122 m nedfart.</desc><trkseg>
  <trkpt lat="59.654262" lon="9.627018"><ele>296.0</ele></trkpt>
  <trkpt lat="59.654202" lon="9.626988"><ele>296.0</ele></trkpt>
  <trkpt lat="59.654115" lon="9.627042"><ele>298.0</ele></trkpt>
  <trkpt lat="59.654023" lon="9.627003"><ele>300.0</ele></trkpt>
  <trkpt lat="59.653895" lon="9.627008"><ele>302.0</ele></trkpt>
  <trkpt lat="59.653842" lon="9.627030"><ele>302.0</ele></trkpt>
  <trkpt lat="59.653783" lon="9.627072"><ele>302.0</ele></trkpt>
  <trkpt lat="59.653675" lon="9.627212"><ele>305.0</ele></trkpt>
  <trkpt lat="59.653582" lon="9.627278"><ele>305.0</ele></trkpt>
  <trkpt lat="59.653495" lon="9.627413"><ele>305.0</ele></trkpt>
  <trkpt lat="59.653425" lon="9.627443"><ele>307.0</ele></trkpt>
  <trkpt lat="59.653357" lon="9.627533"><ele>307.0</ele></trkpt>
  <trkpt lat="59.653313" lon="9.627538"><ele>307.0</ele></trkpt>
  <trkpt lat="59.653250" lon="9.627587"><ele>307.0</ele></trkpt>
  <trkpt lat="59.653147" lon="9.627808"><ele>305.0</ele></trkpt>
  <trkpt lat="59.653053" lon="9.627838"><ele>303.0</ele></trkpt>
  <trkpt lat="59.652962" lon="9.627787"><ele>303.0</ele></trkpt>
  <trkpt lat="59.652907" lon="9.627822"><ele>303.0</ele></trkpt>
  <trkpt lat="59.652850" lon="9.627915"><ele>303.0</ele></trkpt>
  <trkpt lat="59.652813" lon="9.628040"><ele>303.0</ele></trkpt>
  <trkpt lat="59.652805" lon="9.628187"><ele>298.0</ele></trkpt>
  <trkpt lat="59.652832" lon="9.628322"><ele>296.0</ele></trkpt>
  <trkpt lat="59.652782" lon="9.628580"><ele>294.0</ele></trkpt>
  <trkpt lat="59.652612" lon="9.628837"><ele>289.0</ele></trkpt>
  <trkpt lat="59.652517" lon="9.628793"><ele>284.0</ele></trkpt>
  <trkpt lat="59.652437" lon="9.628867"><ele>284.0</ele></trkpt>
  <trkpt lat="59.652322" lon="9.629047"><ele>280.0</ele></trkpt>
  <trkpt lat="59.652270" lon="9.629263"><ele>278.0</ele></trkpt>
  <trkpt lat="59.652283" lon="9.629408"><ele>278.0</ele></trkpt>
  <trkpt lat="59.652373" lon="9.629572"><ele>271.0</ele></trkpt>
  <trkpt lat="59.652377" lon="9.629702"><ele>271.0</ele></trkpt>
  <trkpt lat="59.652360" lon="9.629778"><ele>268.0</ele></trkpt>
  <trkpt lat="59.652260" lon="9.629995"><ele>261.0</ele></trkpt>
  <trkpt lat="59.652275" lon="9.630078"><ele>259.0</ele></trkpt>
  <trkpt lat="59.652370" lon="9.630123"><ele>259.0</ele></trkpt>
  <trkpt lat="59.652438" lon="9.630177"><ele>252.0</ele></trkpt>
  <trkpt lat="59.652547" lon="9.630215"><ele>250.0</ele></trkpt>
  <trkpt lat="59.652573" lon="9.630255"><ele>248.0</ele></trkpt>
  <trkpt lat="59.652630" lon="9.630277"><ele>248.0</ele></trkpt>
  <trkpt lat="59.652680" lon="9.630348"><ele>248.0</ele></trkpt>
  <trkpt lat="59.652748" lon="9.630497"><ele>241.0</ele></trkpt>
  <trkpt lat="59.652878" lon="9.630620"><ele>237.0</ele></trkpt>
  <trkpt lat="59.653028" lon="9.630570"><ele>236.0</ele></trkpt>
  <trkpt lat="59.653113" lon="9.630568"><ele>234.0</ele></trkpt>
  <trkpt lat="59.653158" lon="9.630623"><ele>234.0</ele></trkpt>
  <trkpt lat="59.653197" lon="9.630713"><ele>232.0</ele></trkpt>
  <trkpt lat="59.653268" lon="9.631030"><ele>225.0</ele></trkpt>
  <trkpt lat="59.653345" lon="9.631110"><ele>223.0</ele></trkpt>
  <trkpt lat="59.653365" lon="9.631152"><ele>221.0</ele></trkpt>
  <trkpt lat="59.653370" lon="9.631243"><ele>220.0</ele></trkpt>
  <trkpt lat="59.653343" lon="9.631342"><ele>218.0</ele></trkpt>
  <trkpt lat="59.653237" lon="9.631483"><ele>214.0</ele></trkpt>
  <trkpt lat="59.653207" lon="9.631575"><ele>212.0</ele></trkpt>
  <trkpt lat="59.653237" lon="9.631645"><ele>211.0</ele></trkpt>
  <trkpt lat="59.653320" lon="9.631705"><ele>209.0</ele></trkpt>
  <trkpt lat="59.653360" lon="9.631808"><ele>209.0</ele></trkpt>
  <trkpt lat="59.653350" lon="9.632092"><ele>209.0</ele></trkpt>
  <trkpt lat="59.653378" lon="9.632192"><ele>204.0</ele></trkpt>
  <trkpt lat="59.653373" lon="9.632350"><ele>200.0</ele></trkpt>
  <trkpt lat="59.653418" lon="9.632595"><ele>195.0</ele></trkpt>
  <trkpt lat="59.653370" lon="9.632777"><ele>193.0</ele></trkpt>
  <trkpt lat="59.653442" lon="9.632902"><ele>193.0</ele></trkpt>
  <trkpt lat="59.653545" lon="9.632915"><ele>189.0</ele></trkpt>
  <trkpt lat="59.653703" lon="9.633007"><ele>186.0</ele></trkpt>
  <trkpt lat="59.653755" lon="9.633022"><ele>184.0</ele></trkpt>
  <trkpt lat="59.653803" lon="9.633015"><ele>184.0</ele></trkpt>
 </trkseg></trk></gpx>