<?xml version="1.0" encoding="UTF-8"?>
<gpx version="1.1" creator="stikart_web trailguide-snapshot" xmlns="http://www.topografix.com/GPX/1/1">
 <trk><name>Knoffemyrstien</name><desc>Fra Trailguide (trailguide.net), gradering: blue. 1018 m, 107 m nedfart.</desc><trkseg>
  <trkpt lat="59.653950" lon="9.625720"><ele>307.0</ele></trkpt>
  <trkpt lat="59.653970" lon="9.625780"><ele>307.0</ele></trkpt>
  <trkpt lat="59.654050" lon="9.625880"><ele>307.0</ele></trkpt>
  <trkpt lat="59.654120" lon="9.626210"><ele>305.0</ele></trkpt>
  <trkpt lat="59.654140" lon="9.626240"><ele>305.0</ele></trkpt>
  <trkpt lat="59.654200" lon="9.626270"><ele>305.0</ele></trkpt>
  <trkpt lat="59.654290" lon="9.626410"><ele>302.0</ele></trkpt>
  <trkpt lat="59.654350" lon="9.626470"><ele>302.0</ele></trkpt>
  <trkpt lat="59.654490" lon="9.626470"><ele>300.0</ele></trkpt>
  <trkpt lat="59.654690" lon="9.626390"><ele>298.0</ele></trkpt>
  <trkpt lat="59.654840" lon="9.626390"><ele>297.0</ele></trkpt>
  <trkpt lat="59.654950" lon="9.626440"><ele>296.0</ele></trkpt>
  <trkpt lat="59.655090" lon="9.626600"><ele>295.0</ele></trkpt>
  <trkpt lat="59.655150" lon="9.626630"><ele>294.0</ele></trkpt>
  <trkpt lat="59.655240" lon="9.626630"><ele>293.0</ele></trkpt>
  <trkpt lat="59.655430" lon="9.626680"><ele>291.0</ele></trkpt>
  <trkpt lat="59.655720" lon="9.626690"><ele>288.0</ele></trkpt>
  <trkpt lat="59.655800" lon="9.626740"><ele>286.0</ele></trkpt>
  <trkpt lat="59.655840" lon="9.626740"><ele>286.0</ele></trkpt>
  <trkpt lat="59.655870" lon="9.626780"><ele>286.0</ele></trkpt>
  <trkpt lat="59.655880" lon="9.626840"><ele>284.0</ele></trkpt>
  <trkpt lat="59.655870" lon="9.627200"><ele>282.0</ele></trkpt>
  <trkpt lat="59.655910" lon="9.627330"><ele>281.0</ele></trkpt>
  <trkpt lat="59.655970" lon="9.627380"><ele>279.0</ele></trkpt>
  <trkpt lat="59.656150" lon="9.627440"><ele>276.0</ele></trkpt>
  <trkpt lat="59.656450" lon="9.627660"><ele>266.0</ele></trkpt>
  <trkpt lat="59.656570" lon="9.627720"><ele>265.0</ele></trkpt>
  <trkpt lat="59.656730" lon="9.627760"><ele>260.0</ele></trkpt>
  <trkpt lat="59.656850" lon="9.627820"><ele>259.0</ele></trkpt>
  <trkpt lat="59.656960" lon="9.627800"><ele>258.0</ele></trkpt>
  <trkpt lat="59.657070" lon="9.627830"><ele>257.0</ele></trkpt>
  <trkpt lat="59.657120" lon="9.627890"><ele>257.0</ele></trkpt>
  <trkpt lat="59.657170" lon="9.627990"><ele>256.0</ele></trkpt>
  <trkpt lat="59.657230" lon="9.628180"><ele>255.0</ele></trkpt>
  <trkpt lat="59.657310" lon="9.628200"><ele>253.0</ele></trkpt>
  <trkpt lat="59.657380" lon="9.628240"><ele>253.0</ele></trkpt>
  <trkpt lat="59.657460" lon="9.628330"><ele>252.0</ele></trkpt>
  <trkpt lat="59.657520" lon="9.628440"><ele>252.0</ele></trkpt>
  <trkpt lat="59.657540" lon="9.628530"><ele>252.0</ele></trkpt>
  <trkpt lat="59.657530" lon="9.628700"><ele>252.0</ele></trkpt>
  <trkpt lat="59.657560" lon="9.628900"><ele>244.0</ele></trkpt>
  <trkpt lat="59.657600" lon="9.629010"><ele>244.0</ele></trkpt>
  <trkpt lat="59.657600" lon="9.629160"><ele>244.0</ele></trkpt>
  <trkpt lat="59.657550" lon="9.629200"><ele>235.0</ele></trkpt>
  <trkpt lat="59.657490" lon="9.629590"><ele>235.0</ele></trkpt>
  <trkpt lat="59.657450" lon="9.629640"><ele>233.0</ele></trkpt>
  <trkpt lat="59.657300" lon="9.629720"><ele>232.0</ele></trkpt>
  <trkpt lat="59.657180" lon="9.629750"><ele>231.0</ele></trkpt>
  <trkpt lat="59.657110" lon="9.629820"><ele>230.0</ele></trkpt>
  <trkpt lat="59.657110" lon="9.629930"><ele>230.0</ele></trkpt>
  <trkpt lat="59.656930" lon="9.630080"><ele>227.0</ele></trkpt>
  <trkpt lat="59.656830" lon="9.630080"><ele>225.0</ele></trkpt>
  <trkpt lat="59.656680" lon="9.630220"><ele>223.0</ele></trkpt>
  <trkpt lat="59.656510" lon="9.630480"><ele>221.0</ele></trkpt>
  <trkpt lat="59.656370" lon="9.630620"><ele>220.0</ele></trkpt>
  <trkpt lat="59.656070" lon="9.631180"><ele>216.0</ele></trkpt>
  <trkpt lat="59.655950" lon="9.631230"><ele>216.0</ele></trkpt>
  <trkpt lat="59.655790" lon="9.631390"><ele>214.0</ele></trkpt>
  <trkpt lat="59.655730" lon="9.631400"><ele>213.0</ele></trkpt>
  <trkpt lat="59.655610" lon="9.631590"><ele>212.0</ele></trkpt>
  <trkpt lat="59.655180" lon="9.632070"><ele>211.0</ele></trkpt>
  <trkpt lat="59.655130" lon="9.632060"><ele>210.0</ele></trkpt>
  <trkpt lat="59.655030" lon="9.631950"><ele>210.0</ele></trkpt>
  <trkpt lat="59.654950" lon="9.631910"><ele>210.0</ele></trkpt>
  <trkpt lat="59.654800" lon="9.631950"><ele>210.0</ele></trkpt>
  <trkpt lat="59.654740" lon="9.632000"><ele>210.0</ele></trkpt>
  <trkpt lat="59.654560" lon="9.631980"><ele>209.0</ele></trkpt>
  <trkpt lat="59.654490" lon="9.632050"><ele>209.0</ele></trkpt>
  <trkpt lat="59.654350" lon="9.632390"><ele>205.0</ele></trkpt>
  <trkpt lat="59.654250" lon="9.632460"><ele>204.0</ele></trkpt>
  <trkpt lat="59.654230" lon="9.632530"><ele>204.0</ele></trkpt>
  <trkpt lat="59.654140" lon="9.632640"><ele>202.0</ele></trkpt>
  <trkpt lat="59.654090" lon="9.632650"><ele>202.0</ele></trkpt>
  <trkpt lat="59.653830" lon="9.633100"><ele>198.0</ele></trkpt>
 </trkseg></trk></gpx>