<?xml version="1.0" encoding="UTF-8"?>
<gpx version="1.1" creator="stikart_web trailguide-snapshot" xmlns="http://www.topografix.com/GPX/1/1">
 <trk><name>Knuteveien</name><desc>Fra Trailguide (trailguide.net), gradering: green. 8949 m, 20 m nedfart.</desc><trkseg>
  <trkpt lat="59.628820" lon="9.597430"><ele>198.0</ele></trkpt>
  <trkpt lat="59.629190" lon="9.597360"><ele>202.0</ele></trkpt>
  <trkpt lat="59.629580" lon="9.597210"><ele>208.0</ele></trkpt>
  <trkpt lat="59.629690" lon="9.597140"><ele>209.0</ele></trkpt>
  <trkpt lat="59.629850" lon="9.596860"><ele>211.0</ele></trkpt>
  <trkpt lat="59.630420" lon="9.596200"><ele>215.0</ele></trkpt>
  <trkpt lat="59.630600" lon="9.596070"><ele>216.0</ele></trkpt>
  <trkpt lat="59.630880" lon="9.596150"><ele>220.0</ele></trkpt>
  <trkpt lat="59.631130" lon="9.596080"><ele>220.0</ele></trkpt>
  <trkpt lat="59.631270" lon="9.595900"><ele>220.0</ele></trkpt>
  <trkpt lat="59.631390" lon="9.595710"><ele>220.0</ele></trkpt>
  <trkpt lat="59.631530" lon="9.595320"><ele>219.0</ele></trkpt>
  <trkpt lat="59.631620" lon="9.594900"><ele>218.0</ele></trkpt>
  <trkpt lat="59.631740" lon="9.594510"><ele>219.0</ele></trkpt>
  <trkpt lat="59.631920" lon="9.594320"><ele>221.0</ele></trkpt>
  <trkpt lat="59.632040" lon="9.594330"><ele>222.0</ele></trkpt>
  <trkpt lat="59.632240" lon="9.594460"><ele>224.0</ele></trkpt>
  <trkpt lat="59.632530" lon="9.594570"><ele>228.0</ele></trkpt>
  <trkpt lat="59.632700" lon="9.594560"><ele>230.0</ele></trkpt>
  <trkpt lat="59.632840" lon="9.594430"><ele>232.0</ele></trkpt>
  <trkpt lat="59.632930" lon="9.594160"><ele>233.0</ele></trkpt>
  <trkpt lat="59.632960" lon="9.593790"><ele>232.0</ele></trkpt>
  <trkpt lat="59.633020" lon="9.593590"><ele>233.0</ele></trkpt>
  <trkpt lat="59.633150" lon="9.593450"><ele>234.0</ele></trkpt>
  <trkpt lat="59.634220" lon="9.592900"><ele>248.0</ele></trkpt>
  <trkpt lat="59.634610" lon="9.592590"><ele>252.0</ele></trkpt>
  <trkpt lat="59.635120" lon="9.592060"><ele>255.0</ele></trkpt>
  <trkpt lat="59.635910" lon="9.591290"><ele>264.0</ele></trkpt>
  <trkpt lat="59.636090" lon="9.591040"><ele>265.0</ele></trkpt>
  <trkpt lat="59.636540" lon="9.589640"><ele>265.0</ele></trkpt>
  <trkpt lat="59.636680" lon="9.589480"><ele>266.0</ele></trkpt>
  <trkpt lat="59.636780" lon="9.589470"><ele>267.0</ele></trkpt>
  <trkpt lat="59.637030" lon="9.589610"><ele>271.0</ele></trkpt>
  <trkpt lat="59.637270" lon="9.589910"><ele>276.0</ele></trkpt>
  <trkpt lat="59.637300" lon="9.590090"><ele>277.0</ele></trkpt>
  <trkpt lat="59.637270" lon="9.590390"><ele>278.0</ele></trkpt>
  <trkpt lat="59.637060" lon="9.590890"><ele>278.0</ele></trkpt>
  <trkpt lat="59.637030" lon="9.591210"><ele>280.0</ele></trkpt>
  <trkpt lat="59.637050" lon="9.591440"><ele>281.0</ele></trkpt>
  <trkpt lat="59.637110" lon="9.591590"><ele>283.0</ele></trkpt>
  <trkpt lat="59.637200" lon="9.591650"><ele>284.0</ele></trkpt>
  <trkpt lat="59.637290" lon="9.591630"><ele>285.0</ele></trkpt>
  <trkpt lat="59.637370" lon="9.591500"><ele>286.0</ele></trkpt>
  <trkpt lat="59.637690" lon="9.590530"><ele>287.0</ele></trkpt>
  <trkpt lat="59.638520" lon="9.588630"><ele>296.0</ele></trkpt>
  <trkpt lat="59.638890" lon="9.588310"><ele>301.0</ele></trkpt>
  <trkpt lat="59.639260" lon="9.588200"><ele>308.0</ele></trkpt>
  <trkpt lat="59.639440" lon="9.588000"><ele>310.0</ele></trkpt>
  <trkpt lat="59.639730" lon="9.587540"><ele>314.0</ele></trkpt>
  <trkpt lat="59.640000" lon="9.587200"><ele>318.0</ele></trkpt>
  <trkpt lat="59.640200" lon="9.587060"><ele>321.0</ele></trkpt>
  <trkpt lat="59.640510" lon="9.586960"><ele>325.0</ele></trkpt>
  <trkpt lat="59.641000" lon="9.586830"><ele>332.0</ele></trkpt>
  <trkpt lat="59.641270" lon="9.586520"><ele>333.0</ele></trkpt>
  <trkpt lat="59.641400" lon="9.586460"><ele>334.0</ele></trkpt>
  <trkpt lat="59.641810" lon="9.586510"><ele>340.0</ele></trkpt>
  <trkpt lat="59.642030" lon="9.586500"><ele>342.0</ele></trkpt>
  <trkpt lat="59.642200" lon="9.586420"><ele>345.0</ele></trkpt>
  <trkpt lat="59.642370" lon="9.586260"><ele>346.0</ele></trkpt>
  <trkpt lat="59.642660" lon="9.586070"><ele>351.0</ele></trkpt>
  <trkpt lat="59.642870" lon="9.585990"><ele>354.0</ele></trkpt>
  <trkpt lat="59.643100" lon="9.585950"><ele>358.0</ele></trkpt>
  <trkpt lat="59.643250" lon="9.585820"><ele>360.0</ele></trkpt>
  <trkpt lat="59.643390" lon="9.585560"><ele>360.0</ele></trkpt>
  <trkpt lat="59.643820" lon="9.584480"><ele>364.0</ele></trkpt>
  <trkpt lat="59.644070" lon="9.583560"><ele>366.0</ele></trkpt>
  <trkpt lat="59.644230" lon="9.583260"><ele>368.0</ele></trkpt>
  <trkpt lat="59.644390" lon="9.583110"><ele>370.0</ele></trkpt>
  <trkpt lat="59.644510" lon="9.582950"><ele>372.0</ele></trkpt>
  <trkpt lat="59.644580" lon="9.582790"><ele>373.0</ele></trkpt>
  <trkpt lat="59.644680" lon="9.582210"><ele>374.0</ele></trkpt>
  <trkpt lat="59.644760" lon="9.581990"><ele>374.0</ele></trkpt>
  <trkpt lat="59.644940" lon="9.581700"><ele>376.0</ele></trkpt>
  <trkpt lat="59.645130" lon="9.581160"><ele>378.0</ele></trkpt>
  <trkpt lat="59.645350" lon="9.580260"><ele>380.0</ele></trkpt>
  <trkpt lat="59.645630" lon="9.579760"><ele>383.0</ele></trkpt>
  <trkpt lat="59.645870" lon="9.579470"><ele>385.0</ele></trkpt>
  <trkpt lat="59.646150" lon="9.579240"><ele>389.0</ele></trkpt>
  <trkpt lat="59.647470" lon="9.578510"><ele>403.0</ele></trkpt>
  <trkpt lat="59.648220" lon="9.577950"><ele>411.0</ele></trkpt>
  <trkpt lat="59.648460" lon="9.577830"><ele>414.0</ele></trkpt>
  <trkpt lat="59.648870" lon="9.577840"><ele>420.0</ele></trkpt>
  <trkpt lat="59.649260" lon="9.577740"><ele>424.0</ele></trkpt>
  <trkpt lat="59.649440" lon="9.577730"><ele>425.0</ele></trkpt>
  <trkpt lat="59.649680" lon="9.577770"><ele>427.0</ele></trkpt>
  <trkpt lat="59.649860" lon="9.577750"><ele>429.0</ele></trkpt>
  <trkpt lat="59.650030" lon="9.577650"><ele>429.0</ele></trkpt>
  <trkpt lat="59.650460" lon="9.577240"><ele>430.0</ele></trkpt>
  <trkpt lat="59.650710" lon="9.577100"><ele>431.0</ele></trkpt>
  <trkpt lat="59.650760" lon="9.577190"><ele>433.0</ele></trkpt>
  <trkpt lat="59.650760" lon="9.577340"><ele>434.0</ele></trkpt>
  <trkpt lat="59.650720" lon="9.577500"><ele>436.0</ele></trkpt>
  <trkpt lat="59.650490" lon="9.577880"><ele>437.0</ele></trkpt>
  <trkpt lat="59.650400" lon="9.578080"><ele>438.0</ele></trkpt>
  <trkpt lat="59.650280" lon="9.578540"><ele>442.0</ele></trkpt>
  <trkpt lat="59.650230" lon="9.578810"><ele>444.0</ele></trkpt>
  <trkpt lat="59.650040" lon="9.579290"><ele>446.0</ele></trkpt>
  <trkpt lat="59.649660" lon="9.580050"><ele>449.0</ele></trkpt>
  <trkpt lat="59.649560" lon="9.580340"><ele>450.0</ele></trkpt>
  <trkpt lat="59.649600" lon="9.580600"><ele>452.0</ele></trkpt>
  <trkpt lat="59.649770" lon="9.580760"><ele>455.0</ele></trkpt>
  <trkpt lat="59.650000" lon="9.580870"><ele>459.0</ele></trkpt>
  <trkpt lat="59.650220" lon="9.580810"><ele>462.0</ele></trkpt>
  <trkpt lat="59.650370" lon="9.580660"><ele>463.0</ele></trkpt>
  <trkpt lat="59.650500" lon="9.580590"><ele>464.0</ele></trkpt>
  <trkpt lat="59.650880" lon="9.580610"><ele>470.0</ele></trkpt>
  <trkpt lat="59.651830" lon="9.579920"><ele>476.0</ele></trkpt>
  <trkpt lat="59.652680" lon="9.579500"><ele>483.0</ele></trkpt>
  <trkpt lat="59.652850" lon="9.579490"><ele>484.0</ele></trkpt>
  <trkpt lat="59.652980" lon="9.579560"><ele>485.0</ele></trkpt>
  <trkpt lat="59.653200" lon="9.579790"><ele>488.0</ele></trkpt>
  <trkpt lat="59.653620" lon="9.580090"><ele>494.0</ele></trkpt>
  <trkpt lat="59.653830" lon="9.580090"><ele>496.0</ele></trkpt>
  <trkpt lat="59.654130" lon="9.580040"><ele>499.0</ele></trkpt>
  <trkpt lat="59.654350" lon="9.579960"><ele>501.0</ele></trkpt>
  <trkpt lat="59.654700" lon="9.579950"><ele>506.0</ele></trkpt>
  <trkpt lat="59.654870" lon="9.579880"><ele>508.0</ele></trkpt>
  <trkpt lat="59.655020" lon="9.579720"><ele>508.0</ele></trkpt>
  <trkpt lat="59.655290" lon="9.579510"><ele>509.0</ele></trkpt>
  <trkpt lat="59.655630" lon="9.579520"><ele>513.0</ele></trkpt>
  <trkpt lat="59.655850" lon="9.579440"><ele>515.0</ele></trkpt>
  <trkpt lat="59.657590" lon="9.579310"><ele>526.0</ele></trkpt>
  <trkpt lat="59.658680" lon="9.579300"><ele>528.0</ele></trkpt>
  <trkpt lat="59.658890" lon="9.579480"><ele>529.0</ele></trkpt>
  <trkpt lat="59.659150" lon="9.579770"><ele>531.0</ele></trkpt>
  <trkpt lat="59.659290" lon="9.579900"><ele>532.0</ele></trkpt>
  <trkpt lat="59.659510" lon="9.580030"><ele>534.0</ele></trkpt>
  <trkpt lat="59.659760" lon="9.580270"><ele>538.0</ele></trkpt>
  <trkpt lat="59.659810" lon="9.580350"><ele>538.0</ele></trkpt>
  <trkpt lat="59.659860" lon="9.580490"><ele>540.0</ele></trkpt>
  <trkpt lat="59.659890" lon="9.580710"><ele>541.0</ele></trkpt>
  <trkpt lat="59.659890" lon="9.581050"><ele>544.0</ele></trkpt>
  <trkpt lat="59.659920" lon="9.581220"><ele>545.0</ele></trkpt>
  <trkpt lat="59.659990" lon="9.581320"><ele>546.0</ele></trkpt>
  <trkpt lat="59.660050" lon="9.581310"><ele>547.0</ele></trkpt>
  <trkpt lat="59.660100" lon="9.581210"><ele>547.0</ele></trkpt>
  <trkpt lat="59.660150" lon="9.581030"><ele>547.0</ele></trkpt>
  <trkpt lat="59.660230" lon="9.580580"><ele>545.0</ele></trkpt>
  <trkpt lat="59.660410" lon="9.580050"><ele>545.0</ele></trkpt>
  <trkpt lat="59.660640" lon="9.579710"><ele>548.0</ele></trkpt>
  <trkpt lat="59.660920" lon="9.579450"><ele>552.0</ele></trkpt>
  <trkpt lat="59.661330" lon="9.579340"><ele>556.0</ele></trkpt>
  <trkpt lat="59.661440" lon="9.579380"><ele>558.0</ele></trkpt>
  <trkpt lat="59.661560" lon="9.579470"><ele>560.0</ele></trkpt>
  <trkpt lat="59.661780" lon="9.579750"><ele>566.0</ele></trkpt>
  <trkpt lat="59.661850" lon="9.579780"><ele>567.0</ele></trkpt>
  <trkpt lat="59.661920" lon="9.579760"><ele>569.0</ele></trkpt>
  <trkpt lat="59.661980" lon="9.579700"><ele>569.0</ele></trkpt>
  <trkpt lat="59.662130" lon="9.579470"><ele>570.0</ele></trkpt>
  <trkpt lat="59.662390" lon="9.579210"><ele>571.0</ele></trkpt>
  <trkpt lat="59.662560" lon="9.579070"><ele>572.0</ele></trkpt>
  <trkpt lat="59.662720" lon="9.578980"><ele>573.0</ele></trkpt>
  <trkpt lat="59.662960" lon="9.578930"><ele>576.0</ele></trkpt>
  <trkpt lat="59.663340" lon="9.578890"><ele>582.0</ele></trkpt>
  <trkpt lat="59.664330" lon="9.578660"><ele>585.0</ele></trkpt>
  <trkpt lat="59.665130" lon="9.578670"><ele>593.0</ele></trkpt>
  <trkpt lat="59.665420" lon="9.578890"><ele>596.0</ele></trkpt>
  <trkpt lat="59.665490" lon="9.578890"><ele>597.0</ele></trkpt>
  <trkpt lat="59.665550" lon="9.578840"><ele>597.0</ele></trkpt>
  <trkpt lat="59.665550" lon="9.578070"><ele>596.0</ele></trkpt>
  <trkpt lat="59.665500" lon="9.576200"><ele>595.0</ele></trkpt>
  <trkpt lat="59.665530" lon="9.576060"><ele>596.0</ele></trkpt>
  <trkpt lat="59.665630" lon="9.575850"><ele>599.0</ele></trkpt>
  <trkpt lat="59.665640" lon="9.575710"><ele>600.0</ele></trkpt>
  <trkpt lat="59.665540" lon="9.575270"><ele>603.0</ele></trkpt>
  <trkpt lat="59.665510" lon="9.575060"><ele>604.0</ele></trkpt>
  <trkpt lat="59.665550" lon="9.574930"><ele>605.0</ele></trkpt>
  <trkpt lat="59.665670" lon="9.574650"><ele>607.0</ele></trkpt>
  <trkpt lat="59.665770" lon="9.574550"><ele>609.0</ele></trkpt>
  <trkpt lat="59.665850" lon="9.574530"><ele>609.0</ele></trkpt>
  <trkpt lat="59.665920" lon="9.574590"><ele>610.0</ele></trkpt>
  <trkpt lat="59.666140" lon="9.574860"><ele>610.0</ele></trkpt>
  <trkpt lat="59.666190" lon="9.574850"><ele>611.0</ele></trkpt>
  <trkpt lat="59.666270" lon="9.574790"><ele>612.0</ele></trkpt>
  <trkpt lat="59.666550" lon="9.574430"><ele>617.0</ele></trkpt>
  <trkpt lat="59.666830" lon="9.574280"><ele>620.0</ele></trkpt>
  <trkpt lat="59.667110" lon="9.574250"><ele>622.0</ele></trkpt>
  <trkpt lat="59.667150" lon="9.574180"><ele>623.0</ele></trkpt>
  <trkpt lat="59.667190" lon="9.574020"><ele>624.0</ele></trkpt>
  <trkpt lat="59.667200" lon="9.573880"><ele>626.0</ele></trkpt>
  <trkpt lat="59.667170" lon="9.573530"><ele>628.0</ele></trkpt>
  <trkpt lat="59.667040" lon="9.572870"><ele>628.0</ele></trkpt>
  <trkpt lat="59.666870" lon="9.572470"><ele>627.0</ele></trkpt>
  <trkpt lat="59.666790" lon="9.571770"><ele>626.0</ele></trkpt>
  <trkpt lat="59.666590" lon="9.570890"><ele>624.0</ele></trkpt>
  <trkpt lat="59.666460" lon="9.570510"><ele>622.0</ele></trkpt>
  <trkpt lat="59.666390" lon="9.570220"><ele>621.0</ele></trkpt>
  <trkpt lat="59.666370" lon="9.570030"><ele>621.0</ele></trkpt>
  <trkpt lat="59.666400" lon="9.569880"><ele>620.0</ele></trkpt>
  <trkpt lat="59.666570" lon="9.569620"><ele>620.0</ele></trkpt>
  <trkpt lat="59.666850" lon="9.569550"><ele>621.0</ele></trkpt>
  <trkpt lat="59.666950" lon="9.569490"><ele>622.0</ele></trkpt>
  <trkpt lat="59.667190" lon="9.569430"><ele>624.0</ele></trkpt>
  <trkpt lat="59.667380" lon="9.569280"><ele>625.0</ele></trkpt>
  <trkpt lat="59.667660" lon="9.569240"><ele>629.0</ele></trkpt>
  <trkpt lat="59.667840" lon="9.569040"><ele>632.0</ele></trkpt>
  <trkpt lat="59.667930" lon="9.568970"><ele>633.0</ele></trkpt>
  <trkpt lat="59.668070" lon="9.568920"><ele>636.0</ele></trkpt>
  <trkpt lat="59.668170" lon="9.568720"><ele>638.0</ele></trkpt>
  <trkpt lat="59.668240" lon="9.568260"><ele>641.0</ele></trkpt>
  <trkpt lat="59.668280" lon="9.567490"><ele>640.0</ele></trkpt>
  <trkpt lat="59.668230" lon="9.566850"><ele>637.0</ele></trkpt>
  <trkpt lat="59.668200" lon="9.565950"><ele>635.0</ele></trkpt>
  <trkpt lat="59.668210" lon="9.565240"><ele>634.0</ele></trkpt>
  <trkpt lat="59.668250" lon="9.564880"><ele>635.0</ele></trkpt>
  <trkpt lat="59.668450" lon="9.564120"><ele>639.0</ele></trkpt>
  <trkpt lat="59.668500" lon="9.563080"><ele>640.0</ele></trkpt>
  <trkpt lat="59.668430" lon="9.562490"><ele>639.0</ele></trkpt>
  <trkpt lat="59.668310" lon="9.562140"><ele>638.0</ele></trkpt>
  <trkpt lat="59.668260" lon="9.561920"><ele>637.0</ele></trkpt>
  <trkpt lat="59.668220" lon="9.561440"><ele>637.0</ele></trkpt>
  <trkpt lat="59.668230" lon="9.561070"><ele>638.0</ele></trkpt>
  <trkpt lat="59.668400" lon="9.560410"><ele>641.0</ele></trkpt>
  <trkpt lat="59.668510" lon="9.560240"><ele>642.0</ele></trkpt>
  <trkpt lat="59.668750" lon="9.560190"><ele>643.0</ele></trkpt>
  <trkpt lat="59.668880" lon="9.560110"><ele>644.0</ele></trkpt>
  <trkpt lat="59.668990" lon="9.559950"><ele>644.0</ele></trkpt>
  <trkpt lat="59.669090" lon="9.559720"><ele>645.0</ele></trkpt>
  <trkpt lat="59.669140" lon="9.559540"><ele>646.0</ele></trkpt>
  <trkpt lat="59.669140" lon="9.558260"><ele>648.0</ele></trkpt>
  <trkpt lat="59.669080" lon="9.557810"><ele>645.0</ele></trkpt>
  <trkpt lat="59.669080" lon="9.557510"><ele>643.0</ele></trkpt>
  <trkpt lat="59.669120" lon="9.557190"><ele>641.0</ele></trkpt>
  <trkpt lat="59.669470" lon="9.556700"><ele>646.0</ele></trkpt>
  <trkpt lat="59.669530" lon="9.556530"><ele>648.0</ele></trkpt>
  <trkpt lat="59.669550" lon="9.556400"><ele>649.0</ele></trkpt>
  <trkpt lat="59.669530" lon="9.555910"><ele>649.0</ele></trkpt>
  <trkpt lat="59.669540" lon="9.555480"><ele>650.0</ele></trkpt>
  <trkpt lat="59.669580" lon="9.555290"><ele>652.0</ele></trkpt>
  <trkpt lat="59.669740" lon="9.554900"><ele>659.0</ele></trkpt>
  <trkpt lat="59.669760" lon="9.554720"><ele>660.0</ele></trkpt>
  <trkpt lat="59.669670" lon="9.554320"><ele>659.0</ele></trkpt>
  <trkpt lat="59.669600" lon="9.554140"><ele>657.0</ele></trkpt>
  <trkpt lat="59.669440" lon="9.553320"><ele>655.0</ele></trkpt>
  <trkpt lat="59.669300" lon="9.552840"><ele>652.0</ele></trkpt>
  <trkpt lat="59.669190" lon="9.552380"><ele>650.0</ele></trkpt>
  <trkpt lat="59.669120" lon="9.552220"><ele>649.0</ele></trkpt>
  <trkpt lat="59.669100" lon="9.551590"><ele>651.0</ele></trkpt>
  <trkpt lat="59.669060" lon="9.551330"><ele>651.0</ele></trkpt>
  <trkpt lat="59.668990" lon="9.551040"><ele>652.0</ele></trkpt>
  <trkpt lat="59.668740" lon="9.550390"><ele>652.0</ele></trkpt>
  <trkpt lat="59.668630" lon="9.549920"><ele>655.0</ele></trkpt>
  <trkpt lat="59.668500" lon="9.549580"><ele>657.0</ele></trkpt>
  <trkpt lat="59.668500" lon="9.549400"><ele>658.0</ele></trkpt>
  <trkpt lat="59.668560" lon="9.549210"><ele>660.0</ele></trkpt>
  <trkpt lat="59.668830" lon="9.548570"><ele>667.0</ele></trkpt>
  <trkpt lat="59.668860" lon="9.548360"><ele>669.0</ele></trkpt>
  <trkpt lat="59.668860" lon="9.548090"><ele>670.0</ele></trkpt>
  <trkpt lat="59.668740" lon="9.547010"><ele>672.0</ele></trkpt>
  <trkpt lat="59.668770" lon="9.546730"><ele>673.0</ele></trkpt>
  <trkpt lat="59.668930" lon="9.546010"><ele>676.0</ele></trkpt>
  <trkpt lat="59.669010" lon="9.545760"><ele>677.0</ele></trkpt>
  <trkpt lat="59.669110" lon="9.545540"><ele>678.0</ele></trkpt>
  <trkpt lat="59.669320" lon="9.545240"><ele>681.0</ele></trkpt>
  <trkpt lat="59.669570" lon="9.545060"><ele>685.0</ele></trkpt>
  <trkpt lat="59.669820" lon="9.544790"><ele>690.0</ele></trkpt>
  <trkpt lat="59.670640" lon="9.544330"><ele>701.0</ele></trkpt>
  <trkpt lat="59.670850" lon="9.544110"><ele>703.0</ele></trkpt>
  <trkpt lat="59.670930" lon="9.543960"><ele>704.0</ele></trkpt>
  <trkpt lat="59.670960" lon="9.543760"><ele>704.0</ele></trkpt>
  <trkpt lat="59.670950" lon="9.543540"><ele>704.0</ele></trkpt>
  <trkpt lat="59.670980" lon="9.543340"><ele>704.0</ele></trkpt>
  <trkpt lat="59.671270" lon="9.542650"><ele>705.0</ele></trkpt>
  <trkpt lat="59.671310" lon="9.542410"><ele>705.0</ele></trkpt>
  <trkpt lat="59.671380" lon="9.542220"><ele>706.0</ele></trkpt>
  <trkpt lat="59.671540" lon="9.541870"><ele>706.0</ele></trkpt>
  <trkpt lat="59.671640" lon="9.541740"><ele>707.0</ele></trkpt>
  <trkpt lat="59.671930" lon="9.541460"><ele>710.0</ele></trkpt>
  <trkpt lat="59.672010" lon="9.541340"><ele>710.0</ele></trkpt>
  <trkpt lat="59.672100" lon="9.541100"><ele>712.0</ele></trkpt>
  <trkpt lat="59.672100" lon="9.540930"><ele>712.0</ele></trkpt>
  <trkpt lat="59.672050" lon="9.540520"><ele>711.0</ele></trkpt>
  <trkpt lat="59.672100" lon="9.539850"><ele>713.0</ele></trkpt>
  <trkpt lat="59.672090" lon="9.539450"><ele>713.0</ele></trkpt>
  <trkpt lat="59.672130" lon="9.539070"><ele>714.0</ele></trkpt>
  <trkpt lat="59.672250" lon="9.538800"><ele>716.0</ele></trkpt>
  <trkpt lat="59.672380" lon="9.538590"><ele>718.0</ele></trkpt>
  <trkpt lat="59.672690" lon="9.538210"><ele>723.0</ele></trkpt>
  <trkpt lat="59.672840" lon="9.537570"><ele>726.0</ele></trkpt>
  <trkpt lat="59.672980" lon="9.537170"><ele>727.0</ele></trkpt>
  <trkpt lat="59.673110" lon="9.536880"><ele>728.0</ele></trkpt>
  <trkpt lat="59.673250" lon="9.536440"><ele>729.0</ele></trkpt>
  <trkpt lat="59.673360" lon="9.536200"><ele>731.0</ele></trkpt>
  <trkpt lat="59.673480" lon="9.535630"><ele>733.0</ele></trkpt>
  <trkpt lat="59.673910" lon="9.534170"><ele>735.0</ele></trkpt>
  <trkpt lat="59.673890" lon="9.534020"><ele>735.0</ele></trkpt>
  <trkpt lat="59.673740" lon="9.533640"><ele>735.0</ele></trkpt>
  <trkpt lat="59.673620" lon="9.533280"><ele>736.0</ele></trkpt>
  <trkpt lat="59.673620" lon="9.533140"><ele>737.0</ele></trkpt>
  <trkpt lat="59.673810" lon="9.532700"><ele>739.0</ele></trkpt>
  <trkpt lat="59.673830" lon="9.532570"><ele>739.0</ele></trkpt>
  <trkpt lat="59.673800" lon="9.532320"><ele>741.0</ele></trkpt>
  <trkpt lat="59.673850" lon="9.532030"><ele>743.0</ele></trkpt>
  <trkpt lat="59.674070" lon="9.531500"><ele>742.0</ele></trkpt>
  <trkpt lat="59.674110" lon="9.531320"><ele>742.0</ele></trkpt>
  <trkpt lat="59.674120" lon="9.530970"><ele>743.0</ele></trkpt>
  <trkpt lat="59.674210" lon="9.530670"><ele>743.0</ele></trkpt>
  <trkpt lat="59.674180" lon="9.530120"><ele>745.0</ele></trkpt>
  <trkpt lat="59.674100" lon="9.529510"><ele>745.0</ele></trkpt>
  <trkpt lat="59.674040" lon="9.529370"><ele>746.0</ele></trkpt>
  <trkpt lat="59.673770" lon="9.529100"><ele>751.0</ele></trkpt>
  <trkpt lat="59.673720" lon="9.528930"><ele>751.0</ele></trkpt>
  <trkpt lat="59.673670" lon="9.528640"><ele>752.0</ele></trkpt>
  <trkpt lat="59.673660" lon="9.528370"><ele>752.0</ele></trkpt>
  <trkpt lat="59.673690" lon="9.528110"><ele>755.0</ele></trkpt>
  <trkpt lat="59.673760" lon="9.527900"><ele>756.0</ele></trkpt>
  <trkpt lat="59.673880" lon="9.527700"><ele>756.0</ele></trkpt>
 </trkseg></trk></gpx>