<?xml version="1.0" encoding="UTF-8"?>
<gpx version="1.1" creator="stikart_web" xmlns="http://www.topografix.com/GPX/1/1">
  <trk>
    <name>Sykkelrute på vei 3 (kommunedata)</name>
    <trkseg>
      <trkpt lat="59.665413" lon="9.645854"><ele>170.1</ele></trkpt>
      <trkpt lat="59.665478" lon="9.645554"><ele>170.2</ele></trkpt>
      <trkpt lat="59.665577" lon="9.645449"><ele>170.1</ele></trkpt>
      <trkpt lat="59.666331" lon="9.645499"><ele>170.3</ele></trkpt>
      <trkpt lat="59.666363" lon="9.645455"><ele>170.2</ele></trkpt>
      <trkpt lat="59.666444" lon="9.645448"><ele>170.1</ele></trkpt>
      <trkpt lat="59.666497" lon="9.645449"><ele>170.1</ele></trkpt>
      <trkpt lat="59.666569" lon="9.645450"><ele>170.4</ele></trkpt>
      <trkpt lat="59.666650" lon="9.645452"><ele>170.4</ele></trkpt>
      <trkpt lat="59.666695" lon="9.645453"><ele>170.4</ele></trkpt>
      <trkpt lat="59.666744" lon="9.645463"><ele>170.4</ele></trkpt>
      <trkpt lat="59.666744" lon="9.645463"><ele>170.4</ele></trkpt>
      <trkpt lat="59.666830" lon="9.645446"><ele>170.4</ele></trkpt>
      <trkpt lat="59.666906" lon="9.645421"><ele>170.3</ele></trkpt>
      <trkpt lat="59.666978" lon="9.645387"><ele>169.7</ele></trkpt>
      <trkpt lat="59.667046" lon="9.645344"><ele>169.5</ele></trkpt>
      <trkpt lat="59.667113" lon="9.645283"><ele>169.3</ele></trkpt>
      <trkpt lat="59.667181" lon="9.645222"><ele>168.8</ele></trkpt>
      <trkpt lat="59.667253" lon="9.645144"><ele>168.4</ele></trkpt>
      <trkpt lat="59.667334" lon="9.645075"><ele>167.1</ele></trkpt>
      <trkpt lat="59.667334" lon="9.645075"><ele>167.1</ele></trkpt>
      <trkpt lat="59.667411" lon="9.644978"><ele>166.2</ele></trkpt>
      <trkpt lat="59.667470" lon="9.644882"><ele>165.8</ele></trkpt>
      <trkpt lat="59.667520" lon="9.644767"><ele>165.3</ele></trkpt>
      <trkpt lat="59.667566" lon="9.644644"><ele>160.8</ele></trkpt>
      <trkpt lat="59.667602" lon="9.644521"><ele>160.2</ele></trkpt>
      <trkpt lat="59.667643" lon="9.644379"><ele>160.3</ele></trkpt>
      <trkpt lat="59.667689" lon="9.644238"><ele>164.7</ele></trkpt>
      <trkpt lat="59.667743" lon="9.644097"><ele>164.7</ele></trkpt>
      <trkpt lat="59.667743" lon="9.644097"><ele>164.7</ele></trkpt>
      <trkpt lat="59.667802" lon="9.643939"><ele>166.4</ele></trkpt>
      <trkpt lat="59.667862" lon="9.643798"><ele>166.6</ele></trkpt>
      <trkpt lat="59.667921" lon="9.643666"><ele>166.7</ele></trkpt>
      <trkpt lat="59.667980" lon="9.643543"><ele>166.8</ele></trkpt>
      <trkpt lat="59.668038" lon="9.643428"><ele>167.1</ele></trkpt>
      <trkpt lat="59.668097" lon="9.643323"><ele>168.0</ele></trkpt>
      <trkpt lat="59.668152" lon="9.643226"><ele>169.0</ele></trkpt>
      <trkpt lat="59.668215" lon="9.643121"><ele>169.2</ele></trkpt>
      <trkpt lat="59.668274" lon="9.643025"><ele>169.4</ele></trkpt>
      <trkpt lat="59.668333" lon="9.642928"><ele>169.8</ele></trkpt>
      <trkpt lat="59.668396" lon="9.642832"><ele>169.8</ele></trkpt>
      <trkpt lat="59.668464" lon="9.642735"><ele>167.8</ele></trkpt>
      <trkpt lat="59.668532" lon="9.642630"><ele>167.7</ele></trkpt>
      <trkpt lat="59.668600" lon="9.642516"><ele>167.7</ele></trkpt>
      <trkpt lat="59.668672" lon="9.642402"><ele>167.7</ele></trkpt>
      <trkpt lat="59.668754" lon="9.642279"><ele>167.8</ele></trkpt>
      <trkpt lat="59.668754" lon="9.642279"><ele>167.8</ele></trkpt>
      <trkpt lat="59.668835" lon="9.642148"><ele>167.7</ele></trkpt>
      <trkpt lat="59.668921" lon="9.642061"><ele>167.7</ele></trkpt>
      <trkpt lat="59.669006" lon="9.642000"><ele>167.5</ele></trkpt>
      <trkpt lat="59.669092" lon="9.641940"><ele>167.5</ele></trkpt>
      <trkpt lat="59.669173" lon="9.641879"><ele>167.4</ele></trkpt>
      <trkpt lat="59.669254" lon="9.641801"><ele>167.7</ele></trkpt>
      <trkpt lat="59.669327" lon="9.641696"><ele>168.0</ele></trkpt>
      <trkpt lat="59.669399" lon="9.641546"><ele>168.3</ele></trkpt>
      <trkpt lat="59.669399" lon="9.641546"><ele>168.3</ele></trkpt>
      <trkpt lat="59.669431" lon="9.641440"><ele>168.5</ele></trkpt>
      <trkpt lat="59.669463" lon="9.641352"><ele>168.7</ele></trkpt>
      <trkpt lat="59.669527" lon="9.641176"><ele>169.0</ele></trkpt>
      <trkpt lat="59.669581" lon="9.641017"><ele>169.3</ele></trkpt>
      <trkpt lat="59.669632" lon="9.640858"><ele>169.4</ele></trkpt>
      <trkpt lat="59.669686" lon="9.640708"><ele>169.5</ele></trkpt>
      <trkpt lat="59.669750" lon="9.640559"><ele>169.5</ele></trkpt>
      <trkpt lat="59.669818" lon="9.640400"><ele>169.4</ele></trkpt>
      <trkpt lat="59.669904" lon="9.640242"><ele>169.3</ele></trkpt>
      <trkpt lat="59.669904" lon="9.640242"><ele>169.3</ele></trkpt>
      <trkpt lat="59.669967" lon="9.640119"><ele>169.4</ele></trkpt>
      <trkpt lat="59.670026" lon="9.640014"><ele>169.5</ele></trkpt>
      <trkpt lat="59.670085" lon="9.639917"><ele>169.5</ele></trkpt>
      <trkpt lat="59.670144" lon="9.639838"><ele>169.6</ele></trkpt>
      <trkpt lat="59.670203" lon="9.639760"><ele>169.7</ele></trkpt>
      <trkpt lat="59.670270" lon="9.639690"><ele>169.7</ele></trkpt>
      <trkpt lat="59.670342" lon="9.639629"><ele>169.8</ele></trkpt>
      <trkpt lat="59.670424" lon="9.639560"><ele>169.9</ele></trkpt>
      <trkpt lat="59.670424" lon="9.639560"><ele>169.9</ele></trkpt>
      <trkpt lat="59.670473" lon="9.639516"><ele>170.0</ele></trkpt>
      <trkpt lat="59.670523" lon="9.639473"><ele>170.1</ele></trkpt>
      <trkpt lat="59.670568" lon="9.639429"><ele>170.1</ele></trkpt>
      <trkpt lat="59.670617" lon="9.639395"><ele>170.1</ele></trkpt>
      <trkpt lat="59.670663" lon="9.639360"><ele>170.2</ele></trkpt>
      <trkpt lat="59.670708" lon="9.639325"><ele>170.3</ele></trkpt>
      <trkpt lat="59.670798" lon="9.639265"><ele>170.5</ele></trkpt>
      <trkpt lat="59.670888" lon="9.639213"><ele>170.8</ele></trkpt>
      <trkpt lat="59.670973" lon="9.639162"><ele>171.0</ele></trkpt>
      <trkpt lat="59.671063" lon="9.639119"><ele>171.3</ele></trkpt>
      <trkpt lat="59.671108" lon="9.639093"><ele>171.4</ele></trkpt>
      <trkpt lat="59.671158" lon="9.639068"><ele>171.6</ele></trkpt>
      <trkpt lat="59.671203" lon="9.639042"><ele>171.7</ele></trkpt>
      <trkpt lat="59.671252" lon="9.639025"><ele>171.8</ele></trkpt>
      <trkpt lat="59.671297" lon="9.638999"><ele>172.0</ele></trkpt>
      <trkpt lat="59.671347" lon="9.638974"><ele>172.2</ele></trkpt>
      <trkpt lat="59.671401" lon="9.638948"><ele>172.3</ele></trkpt>
      <trkpt lat="59.671450" lon="9.638922"><ele>172.5</ele></trkpt>
      <trkpt lat="59.671504" lon="9.638897"><ele>172.6</ele></trkpt>
      <trkpt lat="59.671563" lon="9.638871"><ele>172.8</ele></trkpt>
      <trkpt lat="59.671621" lon="9.638846"><ele>172.9</ele></trkpt>
      <trkpt lat="59.671680" lon="9.638811"><ele>172.9</ele></trkpt>
      <trkpt lat="59.671739" lon="9.638777"><ele>172.8</ele></trkpt>
      <trkpt lat="59.671806" lon="9.638751"><ele>171.8</ele></trkpt>
      <trkpt lat="59.671869" lon="9.638708"><ele>173.0</ele></trkpt>
      <trkpt lat="59.671937" lon="9.638674"><ele>173.0</ele></trkpt>
      <trkpt lat="59.672009" lon="9.638631"><ele>172.8</ele></trkpt>
      <trkpt lat="59.672085" lon="9.638597"><ele>172.6</ele></trkpt>
      <trkpt lat="59.672085" lon="9.638597"><ele>172.6</ele></trkpt>
      <trkpt lat="59.672981" lon="9.638117"><ele>170.5</ele></trkpt>
      <trkpt lat="59.673670" lon="9.637739"><ele>170.7</ele></trkpt>
      <trkpt lat="59.673895" lon="9.637619"><ele>170.7</ele></trkpt>
      <trkpt lat="59.674003" lon="9.637542"><ele>170.6</ele></trkpt>
      <trkpt lat="59.674616" lon="9.637065"><ele>169.3</ele></trkpt>
      <trkpt lat="59.674679" lon="9.636977"><ele>169.2</ele></trkpt>
      <trkpt lat="59.674806" lon="9.636811"><ele>168.8</ele></trkpt>
      <trkpt lat="59.674860" lon="9.636732"><ele>168.7</ele></trkpt>
      <trkpt lat="59.675461" lon="9.635927"><ele>167.4</ele></trkpt>
      <trkpt lat="59.675511" lon="9.635857"><ele>167.3</ele></trkpt>
      <trkpt lat="59.675962" lon="9.635315"><ele>166.6</ele></trkpt>
      <trkpt lat="59.676251" lon="9.635125"><ele>166.9</ele></trkpt>
      <trkpt lat="59.676323" lon="9.635073"><ele>167.1</ele></trkpt>
      <trkpt lat="59.676377" lon="9.635039"><ele>167.2</ele></trkpt>
      <trkpt lat="59.676845" lon="9.634781"><ele>168.6</ele></trkpt>
      <trkpt lat="59.677269" lon="9.634381"><ele>169.6</ele></trkpt>
      <trkpt lat="59.677613" lon="9.633855"><ele>169.9</ele></trkpt>
      <trkpt lat="59.678373" lon="9.632679"><ele>169.9</ele></trkpt>
      <trkpt lat="59.678630" lon="9.632409"><ele>170.0</ele></trkpt>
      <trkpt lat="59.679519" lon="9.631476"><ele>170.9</ele></trkpt>
      <trkpt lat="59.679988" lon="9.630987"><ele>171.4</ele></trkpt>
      <trkpt lat="59.680331" lon="9.630745"><ele>171.4</ele></trkpt>
      <trkpt lat="59.680654" lon="9.630662"><ele>171.5</ele></trkpt>
      <trkpt lat="59.680924" lon="9.630703"><ele>171.6</ele></trkpt>
      <trkpt lat="59.681192" lon="9.630832"><ele>172.1</ele></trkpt>
      <trkpt lat="59.681532" lon="9.631229"><ele>172.1</ele></trkpt>
      <trkpt lat="59.681790" lon="9.631589"><ele>172.2</ele></trkpt>
      <trkpt lat="59.681924" lon="9.631761"><ele>172.1</ele></trkpt>
      <trkpt lat="59.682290" lon="9.632238"><ele>171.8</ele></trkpt>
      <trkpt lat="59.682719" lon="9.632672"><ele>171.6</ele></trkpt>
      <trkpt lat="59.682961" lon="9.632890"><ele>171.5</ele></trkpt>
      <trkpt lat="59.683095" lon="9.632981"><ele>171.4</ele></trkpt>
      <trkpt lat="59.683144" lon="9.633018"><ele>171.4</ele></trkpt>
      <trkpt lat="59.683506" lon="9.633309"><ele>171.4</ele></trkpt>
      <trkpt lat="59.683820" lon="9.633475"><ele>171.3</ele></trkpt>
      <trkpt lat="59.684030" lon="9.633576"><ele>171.4</ele></trkpt>
      <trkpt lat="59.684796" lon="9.633973"><ele>171.8</ele></trkpt>
      <trkpt lat="59.685576" lon="9.634200"><ele>171.8</ele></trkpt>
      <trkpt lat="59.685998" lon="9.634279"><ele>171.9</ele></trkpt>
      <trkpt lat="59.686420" lon="9.634234"><ele>171.9</ele></trkpt>
      <trkpt lat="59.687563" lon="9.633758"><ele>172.9</ele></trkpt>
      <trkpt lat="59.688103" lon="9.633449"><ele>172.5</ele></trkpt>
      <trkpt lat="59.688465" lon="9.632941"><ele>171.5</ele></trkpt>
      <trkpt lat="59.688579" lon="9.632570"><ele>170.8</ele></trkpt>
      <trkpt lat="59.688620" lon="9.632455"><ele>170.7</ele></trkpt>
      <trkpt lat="59.688693" lon="9.632217"><ele>170.2</ele></trkpt>
      <trkpt lat="59.688994" lon="9.631183"><ele>168.2</ele></trkpt>
      <trkpt lat="59.689013" lon="9.631121"><ele>168.1</ele></trkpt>
      <trkpt lat="59.689044" lon="9.631060"><ele>168.0</ele></trkpt>
      <trkpt lat="59.689149" lon="9.630840"><ele>167.7</ele></trkpt>
      <trkpt lat="59.689185" lon="9.630769"><ele>167.7</ele></trkpt>
      <trkpt lat="59.690088" lon="9.629703"><ele>166.8</ele></trkpt>
      <trkpt lat="59.690124" lon="9.629641"><ele>166.7</ele></trkpt>
      <trkpt lat="59.690342" lon="9.629246"><ele>166.2</ele></trkpt>
      <trkpt lat="59.690765" lon="9.628001"><ele>164.1</ele></trkpt>
      <trkpt lat="59.690797" lon="9.627913"><ele>163.9</ele></trkpt>
      <trkpt lat="59.690824" lon="9.627834"><ele>163.8</ele></trkpt>
      <trkpt lat="59.690879" lon="9.627728"><ele>163.5</ele></trkpt>
      <trkpt lat="59.691001" lon="9.627500"><ele>162.8</ele></trkpt>
      <trkpt lat="59.691160" lon="9.627201"><ele>162.6</ele></trkpt>
      <trkpt lat="59.691553" lon="9.626693"><ele>161.8</ele></trkpt>
      <trkpt lat="59.691982" lon="9.626132"><ele>161.3</ele></trkpt>
      <trkpt lat="59.692099" lon="9.626010"><ele>161.3</ele></trkpt>
      <trkpt lat="59.692641" lon="9.625434"><ele>161.3</ele></trkpt>
      <trkpt lat="59.693236" lon="9.624983"><ele>161.2</ele></trkpt>
      <trkpt lat="59.693344" lon="9.624896"><ele>161.4</ele></trkpt>
      <trkpt lat="59.693573" lon="9.624794"><ele>161.4</ele></trkpt>
      <trkpt lat="59.694487" lon="9.624403"><ele>162.8</ele></trkpt>
      <trkpt lat="59.694936" lon="9.624287"><ele>163.9</ele></trkpt>
      <trkpt lat="59.695017" lon="9.624297"><ele>164.1</ele></trkpt>
      <trkpt lat="59.695519" lon="9.624369"><ele>165.1</ele></trkpt>
      <trkpt lat="59.695985" lon="9.624564"><ele>164.9</ele></trkpt>
      <trkpt lat="59.696057" lon="9.624592"><ele>164.8</ele></trkpt>
      <trkpt lat="59.696219" lon="9.624541"><ele>164.5</ele></trkpt>
      <trkpt lat="59.696364" lon="9.624366"><ele>164.3</ele></trkpt>
      <trkpt lat="59.696577" lon="9.623864"><ele>164.1</ele></trkpt>
      <trkpt lat="59.696759" lon="9.623432"><ele>163.9</ele></trkpt>
      <trkpt lat="59.696926" lon="9.623240"><ele>163.6</ele></trkpt>
      <trkpt lat="59.697016" lon="9.623188"><ele>163.4</ele></trkpt>
      <trkpt lat="59.697479" lon="9.622921"><ele>162.7</ele></trkpt>
      <trkpt lat="59.697871" lon="9.622689"><ele>162.4</ele></trkpt>
      <trkpt lat="59.698450" lon="9.621811"><ele>161.7</ele></trkpt>
      <trkpt lat="59.698572" lon="9.621618"><ele>161.7</ele></trkpt>
      <trkpt lat="59.698881" lon="9.620878"><ele>161.4</ele></trkpt>
      <trkpt lat="59.698967" lon="9.620666"><ele>161.5</ele></trkpt>
      <trkpt lat="59.699108" lon="9.620322"><ele>161.6</ele></trkpt>
      <trkpt lat="59.699358" lon="9.619723"><ele>162.0</ele></trkpt>
      <trkpt lat="59.699403" lon="9.619608"><ele>162.0</ele></trkpt>
      <trkpt lat="59.699499" lon="9.619361"><ele>162.1</ele></trkpt>
      <trkpt lat="59.699722" lon="9.618770"><ele>162.6</ele></trkpt>
      <trkpt lat="59.699868" lon="9.618213"><ele>163.1</ele></trkpt>
      <trkpt lat="59.699919" lon="9.617912"><ele>163.4</ele></trkpt>
      <trkpt lat="59.700007" lon="9.617354"><ele>164.0</ele></trkpt>
      <trkpt lat="59.700095" lon="9.616778"><ele>164.4</ele></trkpt>
      <trkpt lat="59.700191" lon="9.616398"><ele>164.2</ele></trkpt>
      <trkpt lat="59.700516" lon="9.615080"><ele>163.9</ele></trkpt>
      <trkpt lat="59.700699" lon="9.614248"><ele>163.3</ele></trkpt>
      <trkpt lat="59.700997" lon="9.612885"><ele>162.2</ele></trkpt>
      <trkpt lat="59.701048" lon="9.612655"><ele>162.0</ele></trkpt>
      <trkpt lat="59.701108" lon="9.612381"><ele>161.8</ele></trkpt>
      <trkpt lat="59.701126" lon="9.612283"><ele>161.8</ele></trkpt>
      <trkpt lat="59.701176" lon="9.612116"><ele>161.6</ele></trkpt>
      <trkpt lat="59.701299" lon="9.611674"><ele>161.6</ele></trkpt>
      <trkpt lat="59.701336" lon="9.611603"><ele>161.5</ele></trkpt>
      <trkpt lat="59.701358" lon="9.611559"><ele>161.5</ele></trkpt>
      <trkpt lat="59.702251" lon="9.609861"><ele>162.6</ele></trkpt>
      <trkpt lat="59.703138" lon="9.608198"><ele>164.2</ele></trkpt>
      <trkpt lat="59.703283" lon="9.607934"><ele>164.5</ele></trkpt>
      <trkpt lat="59.703638" lon="9.607034"><ele>165.4</ele></trkpt>
      <trkpt lat="59.703873" lon="9.606576"><ele>165.9</ele></trkpt>
      <trkpt lat="59.704181" lon="9.606155"><ele>166.7</ele></trkpt>
      <trkpt lat="59.704884" lon="9.605546"><ele>167.5</ele></trkpt>
      <trkpt lat="59.705100" lon="9.605301"><ele>167.2</ele></trkpt>
      <trkpt lat="59.705309" lon="9.604932"><ele>166.7</ele></trkpt>
      <trkpt lat="59.705883" lon="9.603183"><ele>164.4</ele></trkpt>
      <trkpt lat="59.706019" lon="9.602865"><ele>164.1</ele></trkpt>
    </trkseg>
  </trk>
</gpx>
