<?xml version="1.0" encoding="UTF-8"?>
<gpx version="1.1" creator="stikart_web" xmlns="http://www.topografix.com/GPX/1/1">
  <trk>
    <name>Sykkelrute på vei 1 (kommunedata)</name>
    <trkseg>
      <trkpt lat="59.673817" lon="9.527763"><ele>739.5</ele></trkpt>
      <trkpt lat="59.673758" lon="9.527887"><ele>739.0</ele></trkpt>
      <trkpt lat="59.673690" lon="9.528028"><ele>738.6</ele></trkpt>
      <trkpt lat="59.673647" lon="9.528675"><ele>738.6</ele></trkpt>
      <trkpt lat="59.673740" lon="9.529049"><ele>740.1</ele></trkpt>
      <trkpt lat="59.673995" lon="9.529337"><ele>744.3</ele></trkpt>
      <trkpt lat="59.674039" lon="9.529382"><ele>744.7</ele></trkpt>
      <trkpt lat="59.674140" lon="9.530014"><ele>743.7</ele></trkpt>
      <trkpt lat="59.674157" lon="9.530370"><ele>744.1</ele></trkpt>
      <trkpt lat="59.674169" lon="9.530636"><ele>744.1</ele></trkpt>
      <trkpt lat="59.674110" lon="9.530830"><ele>743.1</ele></trkpt>
      <trkpt lat="59.674101" lon="9.530857"><ele>742.8</ele></trkpt>
      <trkpt lat="59.674091" lon="9.530999"><ele>742.1</ele></trkpt>
      <trkpt lat="59.674067" lon="9.531389"><ele>742.5</ele></trkpt>
      <trkpt lat="59.673868" lon="9.531750"><ele>737.6</ele></trkpt>
      <trkpt lat="59.673786" lon="9.532015"><ele>735.3</ele></trkpt>
      <trkpt lat="59.673776" lon="9.532246"><ele>733.6</ele></trkpt>
      <trkpt lat="59.673816" lon="9.532415"><ele>732.7</ele></trkpt>
      <trkpt lat="59.673788" lon="9.532778"><ele>732.1</ele></trkpt>
      <trkpt lat="59.673624" lon="9.533184"><ele>731.3</ele></trkpt>
      <trkpt lat="59.673650" lon="9.533406"><ele>730.2</ele></trkpt>
      <trkpt lat="59.673650" lon="9.533424"><ele>730.1</ele></trkpt>
      <trkpt lat="59.673931" lon="9.534032"><ele>728.1</ele></trkpt>
      <trkpt lat="59.673785" lon="9.534518"><ele>725.4</ele></trkpt>
      <trkpt lat="59.673780" lon="9.534554"><ele>725.4</ele></trkpt>
      <trkpt lat="59.673356" lon="9.536145"><ele>721.7</ele></trkpt>
      <trkpt lat="59.672739" lon="9.537857"><ele>719.9</ele></trkpt>
      <trkpt lat="59.672666" lon="9.538104"><ele>718.4</ele></trkpt>
      <trkpt lat="59.672318" lon="9.538614"><ele>712.6</ele></trkpt>
      <trkpt lat="59.672128" lon="9.539037"><ele>708.7</ele></trkpt>
      <trkpt lat="59.672073" lon="9.539284"><ele>707.4</ele></trkpt>
      <trkpt lat="59.672058" lon="9.539719"><ele>705.9</ele></trkpt>
      <trkpt lat="59.672053" lon="9.539790"><ele>706.2</ele></trkpt>
      <trkpt lat="59.672023" lon="9.540597"><ele>703.0</ele></trkpt>
      <trkpt lat="59.672075" lon="9.540953"><ele>702.6</ele></trkpt>
      <trkpt lat="59.672043" lon="9.541086"><ele>702.4</ele></trkpt>
      <trkpt lat="59.671993" lon="9.541307"><ele>704.4</ele></trkpt>
      <trkpt lat="59.671632" lon="9.541692"><ele>704.5</ele></trkpt>
      <trkpt lat="59.671333" lon="9.542255"><ele>706.4</ele></trkpt>
      <trkpt lat="59.671142" lon="9.542944"><ele>703.3</ele></trkpt>
      <trkpt lat="59.670952" lon="9.543349"><ele>703.3</ele></trkpt>
      <trkpt lat="59.670940" lon="9.543882"><ele>701.8</ele></trkpt>
      <trkpt lat="59.670886" lon="9.544112"><ele>700.8</ele></trkpt>
      <trkpt lat="59.670696" lon="9.544268"><ele>699.0</ele></trkpt>
      <trkpt lat="59.669990" lon="9.544701"><ele>688.3</ele></trkpt>
      <trkpt lat="59.669823" lon="9.544805"><ele>686.0</ele></trkpt>
      <trkpt lat="59.669237" lon="9.545328"><ele>677.8</ele></trkpt>
      <trkpt lat="59.669047" lon="9.545591"><ele>674.3</ele></trkpt>
      <trkpt lat="59.668783" lon="9.546652"><ele>668.1</ele></trkpt>
      <trkpt lat="59.668773" lon="9.546918"><ele>667.0</ele></trkpt>
      <trkpt lat="59.668762" lon="9.547308"><ele>665.9</ele></trkpt>
      <trkpt lat="59.668792" lon="9.547548"><ele>665.5</ele></trkpt>
      <trkpt lat="59.668866" lon="9.548144"><ele>663.6</ele></trkpt>
      <trkpt lat="59.668783" lon="9.548675"><ele>660.6</ele></trkpt>
      <trkpt lat="59.668779" lon="9.548684"><ele>660.6</ele></trkpt>
      <trkpt lat="59.668557" lon="9.549169"><ele>656.9</ele></trkpt>
      <trkpt lat="59.668501" lon="9.549505"><ele>654.2</ele></trkpt>
      <trkpt lat="59.668589" lon="9.550004"><ele>648.4</ele></trkpt>
      <trkpt lat="59.668659" lon="9.550395"><ele>644.9</ele></trkpt>
      <trkpt lat="59.668823" lon="9.550904"><ele>643.9</ele></trkpt>
      <trkpt lat="59.668876" lon="9.551064"><ele>644.8</ele></trkpt>
      <trkpt lat="59.669058" lon="9.551627"><ele>649.5</ele></trkpt>
      <trkpt lat="59.669154" lon="9.552356"><ele>651.3</ele></trkpt>
      <trkpt lat="59.669437" lon="9.553355"><ele>651.2</ele></trkpt>
      <trkpt lat="59.669745" lon="9.554745"><ele>647.8</ele></trkpt>
      <trkpt lat="59.669754" lon="9.554940"><ele>645.8</ele></trkpt>
      <trkpt lat="59.669681" lon="9.555090"><ele>643.7</ele></trkpt>
      <trkpt lat="59.669590" lon="9.555292"><ele>641.2</ele></trkpt>
      <trkpt lat="59.669550" lon="9.556463"><ele>635.6</ele></trkpt>
      <trkpt lat="59.669414" lon="9.556781"><ele>637.4</ele></trkpt>
      <trkpt lat="59.669152" lon="9.557113"><ele>641.1</ele></trkpt>
      <trkpt lat="59.669078" lon="9.557450"><ele>643.2</ele></trkpt>
      <trkpt lat="59.669077" lon="9.557716"><ele>644.2</ele></trkpt>
      <trkpt lat="59.669155" lon="9.558409"><ele>641.5</ele></trkpt>
      <trkpt lat="59.669132" lon="9.559545"><ele>640.6</ele></trkpt>
      <trkpt lat="59.669078" lon="9.559740"><ele>640.0</ele></trkpt>
      <trkpt lat="59.668762" lon="9.560178"><ele>640.4</ele></trkpt>
      <trkpt lat="59.668483" lon="9.560244"><ele>635.9</ele></trkpt>
      <trkpt lat="59.668392" lon="9.560403"><ele>635.9</ele></trkpt>
      <trkpt lat="59.668319" lon="9.560748"><ele>636.1</ele></trkpt>
      <trkpt lat="59.668218" lon="9.561199"><ele>633.9</ele></trkpt>
      <trkpt lat="59.668260" lon="9.561909"><ele>634.9</ele></trkpt>
      <trkpt lat="59.668446" lon="9.562551"><ele>637.0</ele></trkpt>
      <trkpt lat="59.668507" lon="9.563014"><ele>637.6</ele></trkpt>
      <trkpt lat="59.668449" lon="9.564043"><ele>634.5</ele></trkpt>
      <trkpt lat="59.668247" lon="9.564874"><ele>630.0</ele></trkpt>
      <trkpt lat="59.668173" lon="9.565582"><ele>632.5</ele></trkpt>
      <trkpt lat="59.668263" lon="9.567537"><ele>636.5</ele></trkpt>
      <trkpt lat="59.668141" lon="9.568706"><ele>633.2</ele></trkpt>
      <trkpt lat="59.668087" lon="9.568829"><ele>632.5</ele></trkpt>
      <trkpt lat="59.667600" lon="9.569265"><ele>624.5</ele></trkpt>
      <trkpt lat="59.666575" lon="9.569620"><ele>623.0</ele></trkpt>
      <trkpt lat="59.666394" lon="9.569848"><ele>622.8</ele></trkpt>
      <trkpt lat="59.666367" lon="9.569990"><ele>623.5</ele></trkpt>
      <trkpt lat="59.666410" lon="9.570310"><ele>622.4</ele></trkpt>
      <trkpt lat="59.666592" lon="9.570872"><ele>620.8</ele></trkpt>
      <trkpt lat="59.666623" lon="9.570970"><ele>621.2</ele></trkpt>
      <trkpt lat="59.666790" lon="9.571701"><ele>623.3</ele></trkpt>
      <trkpt lat="59.666894" lon="9.572572"><ele>625.5</ele></trkpt>
      <trkpt lat="59.667098" lon="9.573126"><ele>624.4</ele></trkpt>
      <trkpt lat="59.667203" lon="9.573714"><ele>622.1</ele></trkpt>
      <trkpt lat="59.667179" lon="9.574059"><ele>620.6</ele></trkpt>
      <trkpt lat="59.667165" lon="9.574228"><ele>620.4</ele></trkpt>
      <trkpt lat="59.667066" lon="9.574350"><ele>618.7</ele></trkpt>
      <trkpt lat="59.666698" lon="9.574326"><ele>616.6</ele></trkpt>
      <trkpt lat="59.666242" lon="9.574753"><ele>610.4</ele></trkpt>
      <trkpt lat="59.666157" lon="9.574832"><ele>608.5</ele></trkpt>
      <trkpt lat="59.665925" lon="9.574562"><ele>603.3</ele></trkpt>
      <trkpt lat="59.665745" lon="9.574558"><ele>600.6</ele></trkpt>
      <trkpt lat="59.665740" lon="9.574567"><ele>600.6</ele></trkpt>
      <trkpt lat="59.665537" lon="9.574963"><ele>599.2</ele></trkpt>
      <trkpt lat="59.665518" lon="9.575105"><ele>598.6</ele></trkpt>
      <trkpt lat="59.665615" lon="9.575621"><ele>595.1</ele></trkpt>
      <trkpt lat="59.665650" lon="9.575817"><ele>594.1</ele></trkpt>
      <trkpt lat="59.665577" lon="9.575976"><ele>592.1</ele></trkpt>
      <trkpt lat="59.665514" lon="9.576117"><ele>590.7</ele></trkpt>
      <trkpt lat="59.665523" lon="9.577022"><ele>588.2</ele></trkpt>
      <trkpt lat="59.665532" lon="9.578105"><ele>589.9</ele></trkpt>
      <trkpt lat="59.665537" lon="9.578939"><ele>588.2</ele></trkpt>
      <trkpt lat="59.664991" lon="9.578663"><ele>584.2</ele></trkpt>
      <trkpt lat="59.664721" lon="9.578677"><ele>581.3</ele></trkpt>
      <trkpt lat="59.664254" lon="9.578704"><ele>574.5</ele></trkpt>
      <trkpt lat="59.662654" lon="9.579014"><ele>564.9</ele></trkpt>
      <trkpt lat="59.662330" lon="9.579292"><ele>563.3</ele></trkpt>
      <trkpt lat="59.662231" lon="9.579379"><ele>562.8</ele></trkpt>
      <trkpt lat="59.661941" lon="9.579782"><ele>558.5</ele></trkpt>
      <trkpt lat="59.661825" lon="9.579798"><ele>557.0</ele></trkpt>
      <trkpt lat="59.661637" lon="9.579511"><ele>555.9</ele></trkpt>
      <trkpt lat="59.661360" lon="9.579329"><ele>552.9</ele></trkpt>
      <trkpt lat="59.661072" lon="9.579412"><ele>550.0</ele></trkpt>
      <trkpt lat="59.660631" lon="9.579742"><ele>544.7</ele></trkpt>
      <trkpt lat="59.660422" lon="9.580076"><ele>541.5</ele></trkpt>
      <trkpt lat="59.660395" lon="9.580164"><ele>541.2</ele></trkpt>
      <trkpt lat="59.660250" lon="9.580605"><ele>540.1</ele></trkpt>
      <trkpt lat="59.660139" lon="9.581153"><ele>537.9</ele></trkpt>
      <trkpt lat="59.660049" lon="9.581329"><ele>537.0</ele></trkpt>
      <trkpt lat="59.659915" lon="9.581203"><ele>535.1</ele></trkpt>
      <trkpt lat="59.659881" lon="9.580581"><ele>530.6</ele></trkpt>
      <trkpt lat="59.659721" lon="9.580223"><ele>527.7</ele></trkpt>
      <trkpt lat="59.659162" lon="9.579796"><ele>520.9</ele></trkpt>
      <trkpt lat="59.659104" lon="9.579742"><ele>520.5</ele></trkpt>
      <trkpt lat="59.658711" lon="9.579354"><ele>518.6</ele></trkpt>
      <trkpt lat="59.658486" lon="9.579315"><ele>518.0</ele></trkpt>
      <trkpt lat="59.655989" lon="9.579431"><ele>505.7</ele></trkpt>
      <trkpt lat="59.655279" lon="9.579561"><ele>496.9</ele></trkpt>
      <trkpt lat="59.654784" lon="9.579907"><ele>492.9</ele></trkpt>
      <trkpt lat="59.654770" lon="9.579907"><ele>493.0</ele></trkpt>
      <trkpt lat="59.653598" lon="9.580100"><ele>483.8</ele></trkpt>
      <trkpt lat="59.652864" lon="9.579484"><ele>482.8</ele></trkpt>
      <trkpt lat="59.652644" lon="9.579586"><ele>481.5</ele></trkpt>
      <trkpt lat="59.651730" lon="9.579996"><ele>469.5</ele></trkpt>
      <trkpt lat="59.651018" lon="9.580552"><ele>463.1</ele></trkpt>
      <trkpt lat="59.650825" lon="9.580566"><ele>459.7</ele></trkpt>
      <trkpt lat="59.650479" lon="9.580596"><ele>455.6</ele></trkpt>
      <trkpt lat="59.650011" lon="9.580872"><ele>451.8</ele></trkpt>
      <trkpt lat="59.650002" lon="9.580871"><ele>451.8</ele></trkpt>
      <trkpt lat="59.649769" lon="9.580796"><ele>449.9</ele></trkpt>
      <trkpt lat="59.649644" lon="9.580670"><ele>448.1</ele></trkpt>
      <trkpt lat="59.649582" lon="9.580403"><ele>446.2</ele></trkpt>
      <trkpt lat="59.649620" lon="9.580084"><ele>444.0</ele></trkpt>
      <trkpt lat="59.650000" lon="9.579355"><ele>440.6</ele></trkpt>
      <trkpt lat="59.650163" lon="9.579047"><ele>438.2</ele></trkpt>
      <trkpt lat="59.650235" lon="9.578906"><ele>436.9</ele></trkpt>
      <trkpt lat="59.650228" lon="9.578622"><ele>434.6</ele></trkpt>
      <trkpt lat="59.650437" lon="9.578040"><ele>432.3</ele></trkpt>
      <trkpt lat="59.650781" lon="9.577354"><ele>426.8</ele></trkpt>
      <trkpt lat="59.650692" lon="9.577140"><ele>425.6</ele></trkpt>
      <trkpt lat="59.649999" lon="9.577642"><ele>421.2</ele></trkpt>
      <trkpt lat="59.649791" lon="9.577799"><ele>419.5</ele></trkpt>
      <trkpt lat="59.649360" lon="9.577756"><ele>417.1</ele></trkpt>
      <trkpt lat="59.649347" lon="9.577755"><ele>417.0</ele></trkpt>
      <trkpt lat="59.648785" lon="9.577852"><ele>411.2</ele></trkpt>
      <trkpt lat="59.648507" lon="9.577794"><ele>407.1</ele></trkpt>
      <trkpt lat="59.648363" lon="9.577863"><ele>404.6</ele></trkpt>
      <trkpt lat="59.647534" lon="9.578505"><ele>392.5</ele></trkpt>
      <trkpt lat="59.647282" lon="9.578696"><ele>389.7</ele></trkpt>
      <trkpt lat="59.647061" lon="9.578816"><ele>386.8</ele></trkpt>
      <trkpt lat="59.646094" lon="9.579332"><ele>379.5</ele></trkpt>
      <trkpt lat="59.646026" lon="9.579384"><ele>378.8</ele></trkpt>
      <trkpt lat="59.645787" lon="9.579575"><ele>376.1</ele></trkpt>
      <trkpt lat="59.645616" lon="9.579820"><ele>374.0</ele></trkpt>
      <trkpt lat="59.645344" lon="9.580418"><ele>371.9</ele></trkpt>
      <trkpt lat="59.645079" lon="9.581460"><ele>369.8</ele></trkpt>
      <trkpt lat="59.644798" lon="9.581952"><ele>366.9</ele></trkpt>
      <trkpt lat="59.644560" lon="9.582888"><ele>361.8</ele></trkpt>
      <trkpt lat="59.644253" lon="9.583318"><ele>356.4</ele></trkpt>
      <trkpt lat="59.644145" lon="9.583466"><ele>354.8</ele></trkpt>
      <trkpt lat="59.644122" lon="9.583528"><ele>354.2</ele></trkpt>
      <trkpt lat="59.643517" lon="9.585300"><ele>347.3</ele></trkpt>
      <trkpt lat="59.643273" lon="9.585740"><ele>345.0</ele></trkpt>
      <trkpt lat="59.642715" lon="9.585978"><ele>339.8</ele></trkpt>
      <trkpt lat="59.642368" lon="9.586247"><ele>334.4</ele></trkpt>
      <trkpt lat="59.642111" lon="9.586447"><ele>330.3</ele></trkpt>
      <trkpt lat="59.641339" lon="9.586451"><ele>320.6</ele></trkpt>
      <trkpt lat="59.641023" lon="9.586800"><ele>316.4</ele></trkpt>
      <trkpt lat="59.640847" lon="9.586895"><ele>314.8</ele></trkpt>
      <trkpt lat="59.640600" lon="9.587023"><ele>314.2</ele></trkpt>
      <trkpt lat="59.640348" lon="9.587037"><ele>311.3</ele></trkpt>
      <trkpt lat="59.640339" lon="9.587036"><ele>311.1</ele></trkpt>
      <trkpt lat="59.639844" lon="9.587400"><ele>304.0</ele></trkpt>
      <trkpt lat="59.639175" lon="9.588293"><ele>295.1</ele></trkpt>
      <trkpt lat="59.639050" lon="9.588202"><ele>293.4</ele></trkpt>
      <trkpt lat="59.639005" lon="9.588166"><ele>292.8</ele></trkpt>
      <trkpt lat="59.638491" lon="9.588778"><ele>285.1</ele></trkpt>
      <trkpt lat="59.637538" lon="9.591005"><ele>278.0</ele></trkpt>
      <trkpt lat="59.637510" lon="9.591066"><ele>277.6</ele></trkpt>
      <trkpt lat="59.637365" lon="9.591542"><ele>274.1</ele></trkpt>
      <trkpt lat="59.637274" lon="9.591630"><ele>273.3</ele></trkpt>
      <trkpt lat="59.637131" lon="9.591627"><ele>272.5</ele></trkpt>
      <trkpt lat="59.637060" lon="9.591448"><ele>271.3</ele></trkpt>
      <trkpt lat="59.637097" lon="9.591165"><ele>269.1</ele></trkpt>
      <trkpt lat="59.637343" lon="9.590283"><ele>264.3</ele></trkpt>
      <trkpt lat="59.637291" lon="9.589945"><ele>263.2</ele></trkpt>
      <trkpt lat="59.637256" lon="9.589838"><ele>262.2</ele></trkpt>
      <trkpt lat="59.637028" lon="9.589621"><ele>259.2</ele></trkpt>
      <trkpt lat="59.636987" lon="9.589585"><ele>259.2</ele></trkpt>
      <trkpt lat="59.636754" lon="9.589510"><ele>260.3</ele></trkpt>
      <trkpt lat="59.636565" lon="9.589702"><ele>260.5</ele></trkpt>
      <trkpt lat="59.636101" lon="9.591059"><ele>258.6</ele></trkpt>
      <trkpt lat="59.635938" lon="9.591242"><ele>257.2</ele></trkpt>
      <trkpt lat="59.635731" lon="9.591478"><ele>254.8</ele></trkpt>
      <trkpt lat="59.634260" lon="9.592889"><ele>243.2</ele></trkpt>
      <trkpt lat="59.633837" lon="9.593085"><ele>240.6</ele></trkpt>
      <trkpt lat="59.633478" lon="9.593247"><ele>237.1</ele></trkpt>
      <trkpt lat="59.633441" lon="9.593273"><ele>236.3</ele></trkpt>
      <trkpt lat="59.633072" lon="9.593524"><ele>230.0</ele></trkpt>
      <trkpt lat="59.632991" lon="9.593700"><ele>228.3</ele></trkpt>
      <trkpt lat="59.632971" lon="9.594072"><ele>225.4</ele></trkpt>
      <trkpt lat="59.632871" lon="9.594318"><ele>223.6</ele></trkpt>
      <trkpt lat="59.632709" lon="9.594475"><ele>222.1</ele></trkpt>
      <trkpt lat="59.632260" lon="9.594449"><ele>219.2</ele></trkpt>
      <trkpt lat="59.632081" lon="9.594322"><ele>218.3</ele></trkpt>
      <trkpt lat="59.632067" lon="9.594322"><ele>218.1</ele></trkpt>
      <trkpt lat="59.631928" lon="9.594355"><ele>216.4</ele></trkpt>
      <trkpt lat="59.631765" lon="9.594565"><ele>214.0</ele></trkpt>
      <trkpt lat="59.631656" lon="9.594873"><ele>212.2</ele></trkpt>
      <trkpt lat="59.631556" lon="9.595235"><ele>210.8</ele></trkpt>
      <trkpt lat="59.631378" lon="9.595737"><ele>210.4</ele></trkpt>
      <trkpt lat="59.631374" lon="9.595746"><ele>210.5</ele></trkpt>
      <trkpt lat="59.631194" lon="9.595902"><ele>210.5</ele></trkpt>
      <trkpt lat="59.631135" lon="9.595928"><ele>210.0</ele></trkpt>
      <trkpt lat="59.631113" lon="9.595936"><ele>210.1</ele></trkpt>
      <trkpt lat="59.630978" lon="9.595987"><ele>211.5</ele></trkpt>
      <trkpt lat="59.630969" lon="9.595996"><ele>211.6</ele></trkpt>
      <trkpt lat="59.630780" lon="9.596072"><ele>211.3</ele></trkpt>
      <trkpt lat="59.630546" lon="9.596086"><ele>209.6</ele></trkpt>
      <trkpt lat="59.629652" lon="9.597169"><ele>201.0</ele></trkpt>
      <trkpt lat="59.628942" lon="9.597423"><ele>194.7</ele></trkpt>
      <trkpt lat="59.628713" lon="9.597419"><ele>192.6</ele></trkpt>
      <trkpt lat="59.628672" lon="9.597418"><ele>192.3</ele></trkpt>
      <trkpt lat="59.628483" lon="9.597485"><ele>191.3</ele></trkpt>
      <trkpt lat="59.628383" lon="9.597838"><ele>190.9</ele></trkpt>
      <trkpt lat="59.628336" lon="9.598228"><ele>190.5</ele></trkpt>
      <trkpt lat="59.628178" lon="9.599448"><ele>189.8</ele></trkpt>
      <trkpt lat="59.628063" lon="9.599996"><ele>189.8</ele></trkpt>
      <trkpt lat="59.627976" lon="9.600420"><ele>189.5</ele></trkpt>
      <trkpt lat="59.627776" lon="9.600904"><ele>187.5</ele></trkpt>
      <trkpt lat="59.627643" lon="9.601469"><ele>186.7</ele></trkpt>
      <trkpt lat="59.627539" lon="9.601830"><ele>186.7</ele></trkpt>
      <trkpt lat="59.627507" lon="9.601892"><ele>186.7</ele></trkpt>
      <trkpt lat="59.627434" lon="9.602041"><ele>186.4</ele></trkpt>
      <trkpt lat="59.627403" lon="9.602111"><ele>186.2</ele></trkpt>
      <trkpt lat="59.627330" lon="9.602163"><ele>185.8</ele></trkpt>
      <trkpt lat="59.627263" lon="9.602215"><ele>185.4</ele></trkpt>
      <trkpt lat="59.627200" lon="9.602259"><ele>185.3</ele></trkpt>
      <trkpt lat="59.627141" lon="9.602302"><ele>185.1</ele></trkpt>
      <trkpt lat="59.627083" lon="9.602336"><ele>185.0</ele></trkpt>
      <trkpt lat="59.627029" lon="9.602371"><ele>184.9</ele></trkpt>
      <trkpt lat="59.626975" lon="9.602405"><ele>184.8</ele></trkpt>
      <trkpt lat="59.626921" lon="9.602440"><ele>184.7</ele></trkpt>
      <trkpt lat="59.626867" lon="9.602465"><ele>184.6</ele></trkpt>
      <trkpt lat="59.626813" lon="9.602500"><ele>184.5</ele></trkpt>
      <trkpt lat="59.626759" lon="9.602525"><ele>184.3</ele></trkpt>
      <trkpt lat="59.626705" lon="9.602560"><ele>184.2</ele></trkpt>
      <trkpt lat="59.626646" lon="9.602594"><ele>184.1</ele></trkpt>
      <trkpt lat="59.626583" lon="9.602629"><ele>184.0</ele></trkpt>
      <trkpt lat="59.626520" lon="9.602663"><ele>183.9</ele></trkpt>
      <trkpt lat="59.626457" lon="9.602706"><ele>183.9</ele></trkpt>
      <trkpt lat="59.626380" lon="9.602749"><ele>179.7</ele></trkpt>
      <trkpt lat="59.626313" lon="9.602783"><ele>179.1</ele></trkpt>
      <trkpt lat="59.626254" lon="9.602818"><ele>179.1</ele></trkpt>
      <trkpt lat="59.626205" lon="9.602844"><ele>179.2</ele></trkpt>
      <trkpt lat="59.626119" lon="9.602895"><ele>183.2</ele></trkpt>
      <trkpt lat="59.626043" lon="9.602956"><ele>183.1</ele></trkpt>
      <trkpt lat="59.625971" lon="9.603025"><ele>182.9</ele></trkpt>
      <trkpt lat="59.625898" lon="9.603122"><ele>182.8</ele></trkpt>
      <trkpt lat="59.625808" lon="9.603262"><ele>182.7</ele></trkpt>
      <trkpt lat="59.625758" lon="9.603341"><ele>182.7</ele></trkpt>
      <trkpt lat="59.625699" lon="9.603446"><ele>182.7</ele></trkpt>
      <trkpt lat="59.625627" lon="9.603569"><ele>182.8</ele></trkpt>
      <trkpt lat="59.625554" lon="9.603718"><ele>182.9</ele></trkpt>
      <trkpt lat="59.625482" lon="9.603885"><ele>182.9</ele></trkpt>
      <trkpt lat="59.625445" lon="9.603973"><ele>183.0</ele></trkpt>
      <trkpt lat="59.625409" lon="9.604070"><ele>183.0</ele></trkpt>
      <trkpt lat="59.625373" lon="9.604158"><ele>183.1</ele></trkpt>
      <trkpt lat="59.625336" lon="9.604246"><ele>183.0</ele></trkpt>
      <trkpt lat="59.625264" lon="9.604422"><ele>183.2</ele></trkpt>
      <trkpt lat="59.625196" lon="9.604581"><ele>183.3</ele></trkpt>
      <trkpt lat="59.625132" lon="9.604712"><ele>183.5</ele></trkpt>
      <trkpt lat="59.625073" lon="9.604791"><ele>183.7</ele></trkpt>
      <trkpt lat="59.625015" lon="9.604843"><ele>183.8</ele></trkpt>
      <trkpt lat="59.624961" lon="9.604904"><ele>184.1</ele></trkpt>
      <trkpt lat="59.624902" lon="9.604983"><ele>184.4</ele></trkpt>
      <trkpt lat="59.624897" lon="9.605143"><ele>185.0</ele></trkpt>
      <trkpt lat="59.624928" lon="9.605258"><ele>185.2</ele></trkpt>
      <trkpt lat="59.624945" lon="9.605365"><ele>185.1</ele></trkpt>
      <trkpt lat="59.624944" lon="9.605525"><ele>184.8</ele></trkpt>
      <trkpt lat="59.624948" lon="9.605675"><ele>184.5</ele></trkpt>
      <trkpt lat="59.624956" lon="9.605826"><ele>184.3</ele></trkpt>
      <trkpt lat="59.624960" lon="9.605959"><ele>184.2</ele></trkpt>
      <trkpt lat="59.624969" lon="9.606092"><ele>184.0</ele></trkpt>
      <trkpt lat="59.624977" lon="9.606217"><ele>183.9</ele></trkpt>
      <trkpt lat="59.624981" lon="9.606341"><ele>183.7</ele></trkpt>
      <trkpt lat="59.624989" lon="9.606456"><ele>183.6</ele></trkpt>
      <trkpt lat="59.624993" lon="9.606580"><ele>183.5</ele></trkpt>
      <trkpt lat="59.624997" lon="9.606704"><ele>183.3</ele></trkpt>
      <trkpt lat="59.624997" lon="9.606829"><ele>183.2</ele></trkpt>
      <trkpt lat="59.624996" lon="9.606953"><ele>183.0</ele></trkpt>
      <trkpt lat="59.624991" lon="9.607085"><ele>182.8</ele></trkpt>
      <trkpt lat="59.624981" lon="9.607227"><ele>182.5</ele></trkpt>
      <trkpt lat="59.624967" lon="9.607378"><ele>182.2</ele></trkpt>
      <trkpt lat="59.624953" lon="9.607546"><ele>181.9</ele></trkpt>
      <trkpt lat="59.624934" lon="9.607687"><ele>181.5</ele></trkpt>
      <trkpt lat="59.624916" lon="9.607820"><ele>181.1</ele></trkpt>
      <trkpt lat="59.624902" lon="9.607944"><ele>180.8</ele></trkpt>
      <trkpt lat="59.624892" lon="9.608068"><ele>180.5</ele></trkpt>
      <trkpt lat="59.624878" lon="9.608183"><ele>180.2</ele></trkpt>
      <trkpt lat="59.624869" lon="9.608298"><ele>179.9</ele></trkpt>
      <trkpt lat="59.624859" lon="9.608413"><ele>179.5</ele></trkpt>
      <trkpt lat="59.624850" lon="9.608528"><ele>179.3</ele></trkpt>
      <trkpt lat="59.624840" lon="9.608634"><ele>179.0</ele></trkpt>
      <trkpt lat="59.624831" lon="9.608749"><ele>178.7</ele></trkpt>
      <trkpt lat="59.624821" lon="9.608864"><ele>178.3</ele></trkpt>
      <trkpt lat="59.624807" lon="9.608979"><ele>178.0</ele></trkpt>
      <trkpt lat="59.624797" lon="9.609103"><ele>177.6</ele></trkpt>
      <trkpt lat="59.624783" lon="9.609236"><ele>177.1</ele></trkpt>
      <trkpt lat="59.624765" lon="9.609368"><ele>176.6</ele></trkpt>
      <trkpt lat="59.624751" lon="9.609519"><ele>176.1</ele></trkpt>
      <trkpt lat="59.624732" lon="9.609643"><ele>175.9</ele></trkpt>
      <trkpt lat="59.624714" lon="9.609766"><ele>175.7</ele></trkpt>
      <trkpt lat="59.624700" lon="9.609890"><ele>169.2</ele></trkpt>
      <trkpt lat="59.624686" lon="9.609996"><ele>168.3</ele></trkpt>
      <trkpt lat="59.624676" lon="9.610094"><ele>167.9</ele></trkpt>
      <trkpt lat="59.624662" lon="9.610191"><ele>167.8</ele></trkpt>
      <trkpt lat="59.624644" lon="9.610350"><ele>167.9</ele></trkpt>
      <trkpt lat="59.624625" lon="9.610483"><ele>171.9</ele></trkpt>
      <trkpt lat="59.624611" lon="9.610589"><ele>175.7</ele></trkpt>
      <trkpt lat="59.624592" lon="9.610721"><ele>175.8</ele></trkpt>
      <trkpt lat="59.624428" lon="9.611268"><ele>176.5</ele></trkpt>
      <trkpt lat="59.624369" lon="9.611471"><ele>176.8</ele></trkpt>
      <trkpt lat="59.623988" lon="9.612333"><ele>178.0</ele></trkpt>
      <trkpt lat="59.623951" lon="9.612483"><ele>178.1</ele></trkpt>
      <trkpt lat="59.623860" lon="9.612844"><ele>178.5</ele></trkpt>
      <trkpt lat="59.623756" lon="9.613871"><ele>179.0</ele></trkpt>
      <trkpt lat="59.623755" lon="9.614013"><ele>179.2</ele></trkpt>
      <trkpt lat="59.623750" lon="9.614137"><ele>179.3</ele></trkpt>
      <trkpt lat="59.623738" lon="9.614792"><ele>179.7</ele></trkpt>
      <trkpt lat="59.623731" lon="9.615289"><ele>180.1</ele></trkpt>
      <trkpt lat="59.623654" lon="9.616546"><ele>180.6</ele></trkpt>
      <trkpt lat="59.623458" lon="9.617978"><ele>179.6</ele></trkpt>
      <trkpt lat="59.623482" lon="9.618634"><ele>178.8</ele></trkpt>
      <trkpt lat="59.623561" lon="9.619061"><ele>178.2</ele></trkpt>
      <trkpt lat="59.623774" lon="9.619615"><ele>176.7</ele></trkpt>
      <trkpt lat="59.624506" lon="9.620479"><ele>174.6</ele></trkpt>
      <trkpt lat="59.624635" lon="9.620677"><ele>174.3</ele></trkpt>
      <trkpt lat="59.624787" lon="9.620910"><ele>174.1</ele></trkpt>
      <trkpt lat="59.624845" lon="9.621000"><ele>174.0</ele></trkpt>
      <trkpt lat="59.624907" lon="9.621143"><ele>173.9</ele></trkpt>
      <trkpt lat="59.624965" lon="9.621277"><ele>173.9</ele></trkpt>
      <trkpt lat="59.624965" lon="9.621286"><ele>173.9</ele></trkpt>
      <trkpt lat="59.625014" lon="9.621393"><ele>173.9</ele></trkpt>
      <trkpt lat="59.625023" lon="9.621420"><ele>173.9</ele></trkpt>
      <trkpt lat="59.625208" lon="9.622141"><ele>174.0</ele></trkpt>
      <trkpt lat="59.625260" lon="9.622479"><ele>174.1</ele></trkpt>
      <trkpt lat="59.625380" lon="9.623722"><ele>174.5</ele></trkpt>
      <trkpt lat="59.625403" lon="9.624503"><ele>174.4</ele></trkpt>
      <trkpt lat="59.625403" lon="9.624591"><ele>174.3</ele></trkpt>
      <trkpt lat="59.625391" lon="9.625123"><ele>174.0</ele></trkpt>
      <trkpt lat="59.625288" lon="9.626061"><ele>173.3</ele></trkpt>
      <trkpt lat="59.625075" lon="9.627333"><ele>172.6</ele></trkpt>
      <trkpt lat="59.624989" lon="9.628555"><ele>171.7</ele></trkpt>
      <trkpt lat="59.625064" lon="9.629726"><ele>170.9</ele></trkpt>
      <trkpt lat="59.625345" lon="9.631097"><ele>170.7</ele></trkpt>
      <trkpt lat="59.625375" lon="9.631195"><ele>170.8</ele></trkpt>
      <trkpt lat="59.625632" lon="9.631962"><ele>172.8</ele></trkpt>
      <trkpt lat="59.625663" lon="9.632060"><ele>173.2</ele></trkpt>
      <trkpt lat="59.625992" lon="9.632864"><ele>174.9</ele></trkpt>
      <trkpt lat="59.626572" lon="9.633549"><ele>175.4</ele></trkpt>
      <trkpt lat="59.627118" lon="9.633896"><ele>175.5</ele></trkpt>
      <trkpt lat="59.627400" lon="9.634069"><ele>175.6</ele></trkpt>
      <trkpt lat="59.627942" lon="9.634408"><ele>175.7</ele></trkpt>
      <trkpt lat="59.628237" lon="9.634599"><ele>175.8</ele></trkpt>
      <trkpt lat="59.628613" lon="9.634828"><ele>175.8</ele></trkpt>
      <trkpt lat="59.628971" lon="9.635145"><ele>175.6</ele></trkpt>
      <trkpt lat="59.629284" lon="9.635426"><ele>175.5</ele></trkpt>
      <trkpt lat="59.629391" lon="9.635508"><ele>175.4</ele></trkpt>
      <trkpt lat="59.629400" lon="9.635517"><ele>175.4</ele></trkpt>
      <trkpt lat="59.629820" lon="9.635915"><ele>175.3</ele></trkpt>
      <trkpt lat="59.630044" lon="9.636132"><ele>175.3</ele></trkpt>
      <trkpt lat="59.630507" lon="9.636814"><ele>175.6</ele></trkpt>
      <trkpt lat="59.630863" lon="9.637530"><ele>175.9</ele></trkpt>
      <trkpt lat="59.631050" lon="9.637906"><ele>176.0</ele></trkpt>
      <trkpt lat="59.631245" lon="9.638424"><ele>176.0</ele></trkpt>
      <trkpt lat="59.631626" lon="9.639531"><ele>175.4</ele></trkpt>
      <trkpt lat="59.631661" lon="9.639638"><ele>175.4</ele></trkpt>
      <trkpt lat="59.631826" lon="9.639951"><ele>176.2</ele></trkpt>
      <trkpt lat="59.631937" lon="9.640157"><ele>175.4</ele></trkpt>
      <trkpt lat="59.632307" lon="9.640608"><ele>175.3</ele></trkpt>
      <trkpt lat="59.632321" lon="9.640626"><ele>175.3</ele></trkpt>
      <trkpt lat="59.632576" lon="9.640790"><ele>174.6</ele></trkpt>
      <trkpt lat="59.632697" lon="9.640863"><ele>174.0</ele></trkpt>
      <trkpt lat="59.633127" lon="9.640925"><ele>170.7</ele></trkpt>
      <trkpt lat="59.634047" lon="9.640233"><ele>163.1</ele></trkpt>
      <trkpt lat="59.634533" lon="9.639994"><ele>159.1</ele></trkpt>
      <trkpt lat="59.634650" lon="9.640014"><ele>158.0</ele></trkpt>
      <trkpt lat="59.635107" lon="9.640094"><ele>155.5</ele></trkpt>
      <trkpt lat="59.635416" lon="9.640241"><ele>154.8</ele></trkpt>
      <trkpt lat="59.635457" lon="9.640260"><ele>154.7</ele></trkpt>
      <trkpt lat="59.636885" lon="9.640979"><ele>152.6</ele></trkpt>
      <trkpt lat="59.638027" lon="9.641550"><ele>152.7</ele></trkpt>
      <trkpt lat="59.638041" lon="9.641559"><ele>152.7</ele></trkpt>
      <trkpt lat="59.639228" lon="9.642088"><ele>158.1</ele></trkpt>
      <trkpt lat="59.639946" lon="9.642261"><ele>162.3</ele></trkpt>
      <trkpt lat="59.640336" lon="9.642242"><ele>164.2</ele></trkpt>
      <trkpt lat="59.640548" lon="9.642237"><ele>165.4</ele></trkpt>
      <trkpt lat="59.641689" lon="9.641966"><ele>172.7</ele></trkpt>
      <trkpt lat="59.642470" lon="9.642025"><ele>173.4</ele></trkpt>
      <trkpt lat="59.643027" lon="9.642089"><ele>173.8</ele></trkpt>
      <trkpt lat="59.643503" lon="9.642081"><ele>174.1</ele></trkpt>
      <trkpt lat="59.643566" lon="9.642082"><ele>174.2</ele></trkpt>
      <trkpt lat="59.644087" lon="9.641968"><ele>174.2</ele></trkpt>
      <trkpt lat="59.644600" lon="9.641747"><ele>174.2</ele></trkpt>
      <trkpt lat="59.645645" lon="9.641146"><ele>173.7</ele></trkpt>
      <trkpt lat="59.646654" lon="9.640402"><ele>173.9</ele></trkpt>
      <trkpt lat="59.646798" lon="9.640245"><ele>173.9</ele></trkpt>
      <trkpt lat="59.647441" lon="9.639264"><ele>174.2</ele></trkpt>
      <trkpt lat="59.648147" lon="9.638142"><ele>175.0</ele></trkpt>
      <trkpt lat="59.648444" lon="9.637882"><ele>175.1</ele></trkpt>
      <trkpt lat="59.648628" lon="9.637894"><ele>174.6</ele></trkpt>
      <trkpt lat="59.648727" lon="9.637993"><ele>174.7</ele></trkpt>
      <trkpt lat="59.648758" lon="9.638029"><ele>174.8</ele></trkpt>
      <trkpt lat="59.648905" lon="9.638227"><ele>175.6</ele></trkpt>
      <trkpt lat="59.648923" lon="9.638175"><ele>175.5</ele></trkpt>
      <trkpt lat="59.649019" lon="9.637884"><ele>174.8</ele></trkpt>
      <trkpt lat="59.649227" lon="9.637577"><ele>175.2</ele></trkpt>
      <trkpt lat="59.649353" lon="9.637491"><ele>175.0</ele></trkpt>
      <trkpt lat="59.649632" lon="9.637301"><ele>174.6</ele></trkpt>
      <trkpt lat="59.649772" lon="9.637135"><ele>174.3</ele></trkpt>
      <trkpt lat="59.650030" lon="9.636829"><ele>174.2</ele></trkpt>
      <trkpt lat="59.650070" lon="9.636795"><ele>174.2</ele></trkpt>
      <trkpt lat="59.650273" lon="9.636639"><ele>174.2</ele></trkpt>
      <trkpt lat="59.650552" lon="9.636609"><ele>174.1</ele></trkpt>
      <trkpt lat="59.651729" lon="9.637314"><ele>172.9</ele></trkpt>
      <trkpt lat="59.652954" lon="9.637470"><ele>174.7</ele></trkpt>
      <trkpt lat="59.653021" lon="9.637507"><ele>174.7</ele></trkpt>
      <trkpt lat="59.653178" lon="9.637581"><ele>174.0</ele></trkpt>
      <trkpt lat="59.653304" lon="9.637637"><ele>173.1</ele></trkpt>
      <trkpt lat="59.653501" lon="9.637720"><ele>172.0</ele></trkpt>
      <trkpt lat="59.653828" lon="9.637860"><ele>168.9</ele></trkpt>
      <trkpt lat="59.653922" lon="9.637906"><ele>170.7</ele></trkpt>
      <trkpt lat="59.653940" lon="9.637915"><ele>170.8</ele></trkpt>
      <trkpt lat="59.654357" lon="9.638091"><ele>171.9</ele></trkpt>
      <trkpt lat="59.654460" lon="9.638138"><ele>172.2</ele></trkpt>
      <trkpt lat="59.654773" lon="9.638339"><ele>173.0</ele></trkpt>
      <trkpt lat="59.654920" lon="9.638501"><ele>173.3</ele></trkpt>
    </trkseg>
  </trk>
</gpx>
