<?xml version="1.0" encoding="UTF-8"?>
<gpx version="1.1" creator="stikart_web" xmlns="http://www.topografix.com/GPX/1/1">
  <trk>
    <name>Sykkelrute på vei 2 (kommunedata)</name>
    <trkseg>
      <trkpt lat="59.657640" lon="9.639707"><ele>172.4</ele></trkpt>
      <trkpt lat="59.657632" lon="9.639387"><ele>173.1</ele></trkpt>
      <trkpt lat="59.657835" lon="9.638397"><ele>179.1</ele></trkpt>
      <trkpt lat="59.657902" lon="9.637493"><ele>176.7</ele></trkpt>
      <trkpt lat="59.657931" lon="9.637086"><ele>184.8</ele></trkpt>
      <trkpt lat="59.657942" lon="9.636616"><ele>188.5</ele></trkpt>
      <trkpt lat="59.657943" lon="9.636536"><ele>189.0</ele></trkpt>
      <trkpt lat="59.657881" lon="9.636286"><ele>189.7</ele></trkpt>
      <trkpt lat="59.657632" lon="9.635785"><ele>189.9</ele></trkpt>
      <trkpt lat="59.657535" lon="9.635410"><ele>190.0</ele></trkpt>
      <trkpt lat="59.657467" lon="9.634663"><ele>190.3</ele></trkpt>
      <trkpt lat="59.657469" lon="9.634273"><ele>190.6</ele></trkpt>
      <trkpt lat="59.657553" lon="9.633600"><ele>190.7</ele></trkpt>
      <trkpt lat="59.657644" lon="9.633247"><ele>190.7</ele></trkpt>
      <trkpt lat="59.657980" lon="9.632526"><ele>191.0</ele></trkpt>
      <trkpt lat="59.658567" lon="9.631809"><ele>191.2</ele></trkpt>
      <trkpt lat="59.658802" lon="9.631583"><ele>191.4</ele></trkpt>
      <trkpt lat="59.658919" lon="9.631461"><ele>191.6</ele></trkpt>
      <trkpt lat="59.659208" lon="9.631165"><ele>191.8</ele></trkpt>
      <trkpt lat="59.659298" lon="9.631033"><ele>192.0</ele></trkpt>
      <trkpt lat="59.659606" lon="9.630560"><ele>192.7</ele></trkpt>
      <trkpt lat="59.659859" lon="9.630183"><ele>194.0</ele></trkpt>
      <trkpt lat="59.660148" lon="9.629949"><ele>196.4</ele></trkpt>
      <trkpt lat="59.660197" lon="9.629906"><ele>196.9</ele></trkpt>
      <trkpt lat="59.660576" lon="9.629593"><ele>200.8</ele></trkpt>
      <trkpt lat="59.660598" lon="9.629576"><ele>201.1</ele></trkpt>
      <trkpt lat="59.660630" lon="9.629532"><ele>201.5</ele></trkpt>
      <trkpt lat="59.660869" lon="9.629244"><ele>204.8</ele></trkpt>
      <trkpt lat="59.661042" lon="9.628839"><ele>208.0</ele></trkpt>
      <trkpt lat="59.661098" lon="9.628485"><ele>210.3</ele></trkpt>
      <trkpt lat="59.661098" lon="9.628467"><ele>210.5</ele></trkpt>
      <trkpt lat="59.661082" lon="9.628076"><ele>212.8</ele></trkpt>
      <trkpt lat="59.660933" lon="9.627310"><ele>218.2</ele></trkpt>
      <trkpt lat="59.660890" lon="9.626866"><ele>223.9</ele></trkpt>
      <trkpt lat="59.661072" lon="9.626390"><ele>224.3</ele></trkpt>
      <trkpt lat="59.661320" lon="9.626004"><ele>227.0</ele></trkpt>
      <trkpt lat="59.661506" lon="9.625724"><ele>229.5</ele></trkpt>
      <trkpt lat="59.661869" lon="9.624790"><ele>235.9</ele></trkpt>
      <trkpt lat="59.662233" lon="9.623856"><ele>237.9</ele></trkpt>
      <trkpt lat="59.662297" lon="9.623689"><ele>238.1</ele></trkpt>
      <trkpt lat="59.662492" lon="9.623195"><ele>238.7</ele></trkpt>
      <trkpt lat="59.662551" lon="9.623046"><ele>238.8</ele></trkpt>
      <trkpt lat="59.662683" lon="9.622782"><ele>239.2</ele></trkpt>
      <trkpt lat="59.662832" lon="9.622483"><ele>239.6</ele></trkpt>
      <trkpt lat="59.663142" lon="9.621583"><ele>240.4</ele></trkpt>
      <trkpt lat="59.663514" lon="9.620738"><ele>241.4</ele></trkpt>
      <trkpt lat="59.664015" lon="9.620144"><ele>242.2</ele></trkpt>
      <trkpt lat="59.664047" lon="9.620109"><ele>242.2</ele></trkpt>
      <trkpt lat="59.664402" lon="9.620000"><ele>242.6</ele></trkpt>
      <trkpt lat="59.664820" lon="9.619866"><ele>243.0</ele></trkpt>
      <trkpt lat="59.665909" lon="9.619522"><ele>244.8</ele></trkpt>
      <trkpt lat="59.666007" lon="9.619489"><ele>245.1</ele></trkpt>
      <trkpt lat="59.666147" lon="9.619411"><ele>245.3</ele></trkpt>
      <trkpt lat="59.666655" lon="9.619181"><ele>245.5</ele></trkpt>
      <trkpt lat="59.666876" lon="9.619079"><ele>245.3</ele></trkpt>
      <trkpt lat="59.667065" lon="9.618993"><ele>245.3</ele></trkpt>
      <trkpt lat="59.667483" lon="9.618797"><ele>244.7</ele></trkpt>
      <trkpt lat="59.667836" lon="9.618395"><ele>245.6</ele></trkpt>
      <trkpt lat="59.668241" lon="9.618030"><ele>247.3</ele></trkpt>
      <trkpt lat="59.668264" lon="9.618004"><ele>247.4</ele></trkpt>
      <trkpt lat="59.668332" lon="9.617916"><ele>247.8</ele></trkpt>
      <trkpt lat="59.668797" lon="9.617339"><ele>253.6</ele></trkpt>
      <trkpt lat="59.668869" lon="9.617269"><ele>254.8</ele></trkpt>
      <trkpt lat="59.669257" lon="9.616877"><ele>260.2</ele></trkpt>
      <trkpt lat="59.669397" lon="9.616738"><ele>261.4</ele></trkpt>
      <trkpt lat="59.669533" lon="9.616385"><ele>263.5</ele></trkpt>
      <trkpt lat="59.669629" lon="9.616147"><ele>265.6</ele></trkpt>
      <trkpt lat="59.669671" lon="9.615686"><ele>267.8</ele></trkpt>
      <trkpt lat="59.669708" lon="9.615421"><ele>268.5</ele></trkpt>
      <trkpt lat="59.669800" lon="9.615085"><ele>269.6</ele></trkpt>
      <trkpt lat="59.669989" lon="9.614858"><ele>271.9</ele></trkpt>
      <trkpt lat="59.670377" lon="9.614652"><ele>275.2</ele></trkpt>
      <trkpt lat="59.670651" lon="9.613627"><ele>276.2</ele></trkpt>
      <trkpt lat="59.670787" lon="9.613328"><ele>276.2</ele></trkpt>
      <trkpt lat="59.671456" lon="9.612602"><ele>277.4</ele></trkpt>
      <trkpt lat="59.671574" lon="9.612505"><ele>277.1</ele></trkpt>
      <trkpt lat="59.672414" lon="9.612098"><ele>277.6</ele></trkpt>
      <trkpt lat="59.672713" lon="9.612012"><ele>277.9</ele></trkpt>
      <trkpt lat="59.673039" lon="9.611736"><ele>278.7</ele></trkpt>
      <trkpt lat="59.673419" lon="9.611103"><ele>280.2</ele></trkpt>
      <trkpt lat="59.673719" lon="9.610416"><ele>281.4</ele></trkpt>
      <trkpt lat="59.674858" lon="9.608662"><ele>296.7</ele></trkpt>
      <trkpt lat="59.675286" lon="9.608439"><ele>301.8</ele></trkpt>
      <trkpt lat="59.675885" lon="9.608130"><ele>305.0</ele></trkpt>
      <trkpt lat="59.676319" lon="9.607481"><ele>303.7</ele></trkpt>
      <trkpt lat="59.676878" lon="9.606923"><ele>304.5</ele></trkpt>
      <trkpt lat="59.677213" lon="9.606441"><ele>304.5</ele></trkpt>
      <trkpt lat="59.677330" lon="9.606274"><ele>304.4</ele></trkpt>
      <trkpt lat="59.677366" lon="9.606221"><ele>304.4</ele></trkpt>
      <trkpt lat="59.678047" lon="9.604671"><ele>307.6</ele></trkpt>
      <trkpt lat="59.678131" lon="9.603936"><ele>308.3</ele></trkpt>
      <trkpt lat="59.678271" lon="9.602704"><ele>309.6</ele></trkpt>
      <trkpt lat="59.678382" lon="9.602138"><ele>313.5</ele></trkpt>
      <trkpt lat="59.678482" lon="9.601856"><ele>316.0</ele></trkpt>
      <trkpt lat="59.678584" lon="9.601165"><ele>317.4</ele></trkpt>
      <trkpt lat="59.678577" lon="9.600792"><ele>316.8</ele></trkpt>
      <trkpt lat="59.678505" lon="9.600666"><ele>316.5</ele></trkpt>
      <trkpt lat="59.678256" lon="9.600236"><ele>316.8</ele></trkpt>
      <trkpt lat="59.677996" lon="9.600071"><ele>319.0</ele></trkpt>
      <trkpt lat="59.677938" lon="9.600079"><ele>319.5</ele></trkpt>
      <trkpt lat="59.677924" lon="9.600079"><ele>319.7</ele></trkpt>
      <trkpt lat="59.677610" lon="9.600118"><ele>323.8</ele></trkpt>
      <trkpt lat="59.677605" lon="9.600126"><ele>323.8</ele></trkpt>
      <trkpt lat="59.677285" lon="9.600440"><ele>328.7</ele></trkpt>
      <trkpt lat="59.676897" lon="9.600833"><ele>330.7</ele></trkpt>
      <trkpt lat="59.676465" lon="9.600985"><ele>328.1</ele></trkpt>
      <trkpt lat="59.676159" lon="9.601192"><ele>328.3</ele></trkpt>
      <trkpt lat="59.675827" lon="9.601187"><ele>329.2</ele></trkpt>
      <trkpt lat="59.675487" lon="9.600843"><ele>333.4</ele></trkpt>
      <trkpt lat="59.675388" lon="9.600841"><ele>334.2</ele></trkpt>
      <trkpt lat="59.674734" lon="9.601637"><ele>342.7</ele></trkpt>
      <trkpt lat="59.674621" lon="9.601777"><ele>343.5</ele></trkpt>
      <trkpt lat="59.674044" lon="9.602167"><ele>342.2</ele></trkpt>
      <trkpt lat="59.674035" lon="9.602175"><ele>342.2</ele></trkpt>
      <trkpt lat="59.673995" lon="9.602201"><ele>342.1</ele></trkpt>
      <trkpt lat="59.673864" lon="9.602288"><ele>341.9</ele></trkpt>
      <trkpt lat="59.673585" lon="9.602478"><ele>342.1</ele></trkpt>
      <trkpt lat="59.673136" lon="9.602559"><ele>345.2</ele></trkpt>
      <trkpt lat="59.672937" lon="9.602733"><ele>344.5</ele></trkpt>
      <trkpt lat="59.672810" lon="9.603032"><ele>342.4</ele></trkpt>
      <trkpt lat="59.672657" lon="9.603216"><ele>340.5</ele></trkpt>
      <trkpt lat="59.671997" lon="9.603994"><ele>336.8</ele></trkpt>
      <trkpt lat="59.671640" lon="9.604556"><ele>339.1</ele></trkpt>
      <trkpt lat="59.671627" lon="9.604573"><ele>338.9</ele></trkpt>
      <trkpt lat="59.670642" lon="9.605780"><ele>336.6</ele></trkpt>
      <trkpt lat="59.670233" lon="9.606013"><ele>338.2</ele></trkpt>
      <trkpt lat="59.670129" lon="9.606073"><ele>338.7</ele></trkpt>
      <trkpt lat="59.669849" lon="9.606334"><ele>340.1</ele></trkpt>
      <trkpt lat="59.669818" lon="9.606405"><ele>340.2</ele></trkpt>
      <trkpt lat="59.669668" lon="9.606704"><ele>339.6</ele></trkpt>
      <trkpt lat="59.669334" lon="9.607115"><ele>336.9</ele></trkpt>
      <trkpt lat="59.669244" lon="9.607229"><ele>335.9</ele></trkpt>
      <trkpt lat="59.668854" lon="9.608056"><ele>335.1</ele></trkpt>
      <trkpt lat="59.668582" lon="9.608637"><ele>333.4</ele></trkpt>
      <trkpt lat="59.668309" lon="9.609413"><ele>329.7</ele></trkpt>
      <trkpt lat="59.668010" lon="9.609887"><ele>329.2</ele></trkpt>
      <trkpt lat="59.667866" lon="9.609991"><ele>330.0</ele></trkpt>
      <trkpt lat="59.667326" lon="9.610123"><ele>332.3</ele></trkpt>
      <trkpt lat="59.666924" lon="9.609689"><ele>336.6</ele></trkpt>
      <trkpt lat="59.666907" lon="9.609671"><ele>336.7</ele></trkpt>
      <trkpt lat="59.666692" lon="9.609561"><ele>338.0</ele></trkpt>
      <trkpt lat="59.666368" lon="9.609520"><ele>339.1</ele></trkpt>
      <trkpt lat="59.666000" lon="9.609477"><ele>339.7</ele></trkpt>
      <trkpt lat="59.665363" lon="9.609537"><ele>341.7</ele></trkpt>
      <trkpt lat="59.665264" lon="9.609588"><ele>341.6</ele></trkpt>
      <trkpt lat="59.665066" lon="9.609691"><ele>342.6</ele></trkpt>
      <trkpt lat="59.664922" lon="9.609760"><ele>343.9</ele></trkpt>
      <trkpt lat="59.664290" lon="9.610387"><ele>347.9</ele></trkpt>
      <trkpt lat="59.664002" lon="9.610568"><ele>350.1</ele></trkpt>
      <trkpt lat="59.663745" lon="9.610741"><ele>350.6</ele></trkpt>
      <trkpt lat="59.663542" lon="9.610870"><ele>351.1</ele></trkpt>
      <trkpt lat="59.662929" lon="9.611516"><ele>355.8</ele></trkpt>
      <trkpt lat="59.662501" lon="9.611739"><ele>358.5</ele></trkpt>
      <trkpt lat="59.662362" lon="9.611816"><ele>358.8</ele></trkpt>
      <trkpt lat="59.662200" lon="9.611902"><ele>359.7</ele></trkpt>
      <trkpt lat="59.661786" lon="9.612116"><ele>365.0</ele></trkpt>
      <trkpt lat="59.661727" lon="9.612124"><ele>365.3</ele></trkpt>
      <trkpt lat="59.661588" lon="9.612131"><ele>365.3</ele></trkpt>
      <trkpt lat="59.661435" lon="9.612146"><ele>365.2</ele></trkpt>
      <trkpt lat="59.661301" lon="9.612108"><ele>365.0</ele></trkpt>
      <trkpt lat="59.661135" lon="9.612060"><ele>364.9</ele></trkpt>
      <trkpt lat="59.661059" lon="9.612041"><ele>364.2</ele></trkpt>
      <trkpt lat="59.661032" lon="9.612032"><ele>364.1</ele></trkpt>
      <trkpt lat="59.660746" lon="9.611698"><ele>364.0</ele></trkpt>
      <trkpt lat="59.660728" lon="9.611671"><ele>364.1</ele></trkpt>
      <trkpt lat="59.660522" lon="9.611579"><ele>365.0</ele></trkpt>
      <trkpt lat="59.660481" lon="9.611605"><ele>365.2</ele></trkpt>
      <trkpt lat="59.660369" lon="9.611691"><ele>364.6</ele></trkpt>
      <trkpt lat="59.660252" lon="9.611769"><ele>363.7</ele></trkpt>
      <trkpt lat="59.660151" lon="9.612104"><ele>361.1</ele></trkpt>
      <trkpt lat="59.660100" lon="9.612476"><ele>359.5</ele></trkpt>
      <trkpt lat="59.660086" lon="9.612565"><ele>359.0</ele></trkpt>
      <trkpt lat="59.660000" lon="9.612758"><ele>358.3</ele></trkpt>
      <trkpt lat="59.659964" lon="9.612837"><ele>358.7</ele></trkpt>
      <trkpt lat="59.659878" lon="9.613022"><ele>359.2</ele></trkpt>
      <trkpt lat="59.659670" lon="9.613267"><ele>359.7</ele></trkpt>
      <trkpt lat="59.659589" lon="9.613354"><ele>359.8</ele></trkpt>
      <trkpt lat="59.658697" lon="9.613870"><ele>366.8</ele></trkpt>
      <trkpt lat="59.658296" lon="9.614253"><ele>369.5</ele></trkpt>
      <trkpt lat="59.658255" lon="9.614288"><ele>369.9</ele></trkpt>
      <trkpt lat="59.657627" lon="9.614206"><ele>376.7</ele></trkpt>
      <trkpt lat="59.657466" lon="9.614087"><ele>378.7</ele></trkpt>
      <trkpt lat="59.657153" lon="9.613842"><ele>381.8</ele></trkpt>
      <trkpt lat="59.656906" lon="9.613864"><ele>382.6</ele></trkpt>
      <trkpt lat="59.656537" lon="9.613902"><ele>383.4</ele></trkpt>
      <trkpt lat="59.656389" lon="9.613917"><ele>384.7</ele></trkpt>
      <trkpt lat="59.654980" lon="9.614654"><ele>403.9</ele></trkpt>
      <trkpt lat="59.654652" lon="9.614825"><ele>407.5</ele></trkpt>
      <trkpt lat="59.653951" lon="9.614875"><ele>408.1</ele></trkpt>
      <trkpt lat="59.653314" lon="9.614872"><ele>417.4</ele></trkpt>
      <trkpt lat="59.653269" lon="9.614782"><ele>418.1</ele></trkpt>
      <trkpt lat="59.653225" lon="9.614693"><ele>418.9</ele></trkpt>
      <trkpt lat="59.653110" lon="9.614229"><ele>423.4</ele></trkpt>
      <trkpt lat="59.652835" lon="9.613462"><ele>427.5</ele></trkpt>
      <trkpt lat="59.652142" lon="9.611905"><ele>437.4</ele></trkpt>
      <trkpt lat="59.652124" lon="9.611852"><ele>437.9</ele></trkpt>
      <trkpt lat="59.651912" lon="9.611218"><ele>440.6</ele></trkpt>
      <trkpt lat="59.651814" lon="9.610923"><ele>442.3</ele></trkpt>
      <trkpt lat="59.651744" lon="9.610550"><ele>444.9</ele></trkpt>
      <trkpt lat="59.651754" lon="9.610355"><ele>446.6</ele></trkpt>
      <trkpt lat="59.651800" lon="9.610231"><ele>447.9</ele></trkpt>
      <trkpt lat="59.652421" lon="9.609888"><ele>456.9</ele></trkpt>
      <trkpt lat="59.652579" lon="9.609633"><ele>458.9</ele></trkpt>
      <trkpt lat="59.652719" lon="9.609396"><ele>461.4</ele></trkpt>
      <trkpt lat="59.652900" lon="9.609275"><ele>464.8</ele></trkpt>
      <trkpt lat="59.653044" lon="9.609047"><ele>467.9</ele></trkpt>
      <trkpt lat="59.653154" lon="9.608659"><ele>471.1</ele></trkpt>
      <trkpt lat="59.653183" lon="9.608287"><ele>474.3</ele></trkpt>
      <trkpt lat="59.653319" lon="9.607872"><ele>478.6</ele></trkpt>
      <trkpt lat="59.653556" lon="9.607158"><ele>485.7</ele></trkpt>
      <trkpt lat="59.653586" lon="9.606466"><ele>491.6</ele></trkpt>
      <trkpt lat="59.653795" lon="9.605867"><ele>498.5</ele></trkpt>
      <trkpt lat="59.653890" lon="9.605762"><ele>500.8</ele></trkpt>
      <trkpt lat="59.653958" lon="9.605692"><ele>502.3</ele></trkpt>
      <trkpt lat="59.654121" lon="9.605287"><ele>506.0</ele></trkpt>
      <trkpt lat="59.654159" lon="9.604844"><ele>506.3</ele></trkpt>
      <trkpt lat="59.654081" lon="9.604346"><ele>505.6</ele></trkpt>
      <trkpt lat="59.654090" lon="9.604249"><ele>505.8</ele></trkpt>
      <trkpt lat="59.654165" lon="9.603567"><ele>509.0</ele></trkpt>
      <trkpt lat="59.654131" lon="9.603282"><ele>510.8</ele></trkpt>
      <trkpt lat="59.653689" lon="9.602627"><ele>517.9</ele></trkpt>
      <trkpt lat="59.653595" lon="9.602492"><ele>519.7</ele></trkpt>
      <trkpt lat="59.653345" lon="9.601405"><ele>522.9</ele></trkpt>
      <trkpt lat="59.653331" lon="9.601352"><ele>523.3</ele></trkpt>
      <trkpt lat="59.653324" lon="9.601077"><ele>525.7</ele></trkpt>
      <trkpt lat="59.653319" lon="9.600997"><ele>526.6</ele></trkpt>
      <trkpt lat="59.653315" lon="9.600890"><ele>527.2</ele></trkpt>
      <trkpt lat="59.653435" lon="9.600183"><ele>528.0</ele></trkpt>
      <trkpt lat="59.653513" lon="9.599998"><ele>529.0</ele></trkpt>
      <trkpt lat="59.654007" lon="9.598826"><ele>531.0</ele></trkpt>
    </trkseg>
  </trk>
</gpx>
