<?xml version="1.0" encoding="UTF-8"?>
<gpx version="1.1" creator="stikart_web" xmlns="http://www.topografix.com/GPX/1/1">
  <trk>
    <name>Sykkelrute på sti (kommunedata)</name>
    <trkseg>
      <trkpt lat="59.680494" lon="9.601625"><ele>322.9</ele></trkpt>
      <trkpt lat="59.680495" lon="9.601554"><ele>323.1</ele></trkpt>
      <trkpt lat="59.680472" lon="9.600577"><ele>326.7</ele></trkpt>
      <trkpt lat="59.680488" lon="9.600089"><ele>328.1</ele></trkpt>
      <trkpt lat="59.680488" lon="9.600000"><ele>328.8</ele></trkpt>
      <trkpt lat="59.680493" lon="9.599867"><ele>329.4</ele></trkpt>
      <trkpt lat="59.680474" lon="9.599254"><ele>329.5</ele></trkpt>
      <trkpt lat="59.680476" lon="9.597789"><ele>330.4</ele></trkpt>
      <trkpt lat="59.680506" lon="9.597097"><ele>331.6</ele></trkpt>
      <trkpt lat="59.680662" lon="9.596461"><ele>330.0</ele></trkpt>
      <trkpt lat="59.680889" lon="9.595932"><ele>329.7</ele></trkpt>
      <trkpt lat="59.681160" lon="9.595475"><ele>330.5</ele></trkpt>
      <trkpt lat="59.681485" lon="9.595197"><ele>332.4</ele></trkpt>
      <trkpt lat="59.681774" lon="9.594829"><ele>332.8</ele></trkpt>
      <trkpt lat="59.682045" lon="9.594408"><ele>332.9</ele></trkpt>
      <trkpt lat="59.682209" lon="9.593789"><ele>336.5</ele></trkpt>
      <trkpt lat="59.682409" lon="9.593251"><ele>340.4</ele></trkpt>
      <trkpt lat="59.682473" lon="9.593083"><ele>342.0</ele></trkpt>
      <trkpt lat="59.682532" lon="9.592907"><ele>343.7</ele></trkpt>
      <trkpt lat="59.682619" lon="9.592642"><ele>345.1</ele></trkpt>
      <trkpt lat="59.682718" lon="9.592413"><ele>345.1</ele></trkpt>
      <trkpt lat="59.682827" lon="9.592255"><ele>344.0</ele></trkpt>
      <trkpt lat="59.682913" lon="9.592194"><ele>342.5</ele></trkpt>
      <trkpt lat="59.683331" lon="9.591891"><ele>339.8</ele></trkpt>
      <trkpt lat="59.683548" lon="9.591575"><ele>342.0</ele></trkpt>
      <trkpt lat="59.683553" lon="9.591557"><ele>342.0</ele></trkpt>
      <trkpt lat="59.683675" lon="9.591293"><ele>343.9</ele></trkpt>
      <trkpt lat="59.683865" lon="9.590959"><ele>345.7</ele></trkpt>
      <trkpt lat="59.684237" lon="9.590166"><ele>346.2</ele></trkpt>
      <trkpt lat="59.684428" lon="9.589761"><ele>344.5</ele></trkpt>
      <trkpt lat="59.684663" lon="9.589357"><ele>343.8</ele></trkpt>
      <trkpt lat="59.684880" lon="9.589112"><ele>343.7</ele></trkpt>
      <trkpt lat="59.684979" lon="9.589043"><ele>342.7</ele></trkpt>
      <trkpt lat="59.684983" lon="9.589034"><ele>342.7</ele></trkpt>
      <trkpt lat="59.685051" lon="9.588999"><ele>342.5</ele></trkpt>
      <trkpt lat="59.685136" lon="9.589001"><ele>342.5</ele></trkpt>
      <trkpt lat="59.685185" lon="9.589028"><ele>342.3</ele></trkpt>
      <trkpt lat="59.685234" lon="9.589065"><ele>342.4</ele></trkpt>
      <trkpt lat="59.685288" lon="9.589119"><ele>341.4</ele></trkpt>
      <trkpt lat="59.685342" lon="9.589209"><ele>340.0</ele></trkpt>
      <trkpt lat="59.685342" lon="9.589209"><ele>340.0</ele></trkpt>
      <trkpt lat="59.685386" lon="9.589290"><ele>339.5</ele></trkpt>
      <trkpt lat="59.685431" lon="9.589370"><ele>340.5</ele></trkpt>
      <trkpt lat="59.685506" lon="9.589505"><ele>340.2</ele></trkpt>
      <trkpt lat="59.685564" lon="9.589648"><ele>340.7</ele></trkpt>
      <trkpt lat="59.685613" lon="9.589809"><ele>340.6</ele></trkpt>
      <trkpt lat="59.685613" lon="9.589809"><ele>340.6</ele></trkpt>
      <trkpt lat="59.685782" lon="9.590069"><ele>341.4</ele></trkpt>
      <trkpt lat="59.685979" lon="9.590268"><ele>340.3</ele></trkpt>
      <trkpt lat="59.686436" lon="9.590454"><ele>339.6</ele></trkpt>
      <trkpt lat="59.686588" lon="9.590563"><ele>340.3</ele></trkpt>
      <trkpt lat="59.686767" lon="9.590726"><ele>339.9</ele></trkpt>
      <trkpt lat="59.687026" lon="9.590961"><ele>338.4</ele></trkpt>
      <trkpt lat="59.687170" lon="9.591053"><ele>336.6</ele></trkpt>
      <trkpt lat="59.687304" lon="9.591055"><ele>335.0</ele></trkpt>
      <trkpt lat="59.687754" lon="9.590823"><ele>332.3</ele></trkpt>
      <trkpt lat="59.688105" lon="9.590643"><ele>332.3</ele></trkpt>
      <trkpt lat="59.688276" lon="9.590557"><ele>334.8</ele></trkpt>
      <trkpt lat="59.688483" lon="9.590507"><ele>337.1</ele></trkpt>
      <trkpt lat="59.688807" lon="9.590495"><ele>337.5</ele></trkpt>
      <trkpt lat="59.688950" lon="9.590427"><ele>338.5</ele></trkpt>
      <trkpt lat="59.689338" lon="9.590149"><ele>337.1</ele></trkpt>
      <trkpt lat="59.689473" lon="9.590134"><ele>336.1</ele></trkpt>
      <trkpt lat="59.689840" lon="9.590212"><ele>336.5</ele></trkpt>
      <trkpt lat="59.690164" lon="9.590075"><ele>337.7</ele></trkpt>
      <trkpt lat="59.690317" lon="9.590025"><ele>338.5</ele></trkpt>
      <trkpt lat="59.690605" lon="9.590030"><ele>339.4</ele></trkpt>
      <trkpt lat="59.690919" lon="9.590035"><ele>340.8</ele></trkpt>
      <trkpt lat="59.691071" lon="9.590073"><ele>341.4</ele></trkpt>
      <trkpt lat="59.691116" lon="9.590127"><ele>341.7</ele></trkpt>
      <trkpt lat="59.691187" lon="9.590377"><ele>341.9</ele></trkpt>
      <trkpt lat="59.691238" lon="9.590964"><ele>341.3</ele></trkpt>
      <trkpt lat="59.691272" lon="9.591320"><ele>340.9</ele></trkpt>
      <trkpt lat="59.691290" lon="9.591436"><ele>341.0</ele></trkpt>
      <trkpt lat="59.691351" lon="9.591801"><ele>343.2</ele></trkpt>
      <trkpt lat="59.691368" lon="9.592068"><ele>344.9</ele></trkpt>
      <trkpt lat="59.691367" lon="9.592299"><ele>347.7</ele></trkpt>
      <trkpt lat="59.691348" lon="9.592476"><ele>348.2</ele></trkpt>
      <trkpt lat="59.691303" lon="9.592564"><ele>349.1</ele></trkpt>
      <trkpt lat="59.691185" lon="9.592704"><ele>349.9</ele></trkpt>
      <trkpt lat="59.690852" lon="9.592876"><ele>348.3</ele></trkpt>
      <trkpt lat="59.690640" lon="9.593077"><ele>345.6</ele></trkpt>
      <trkpt lat="59.690433" lon="9.593277"><ele>342.4</ele></trkpt>
      <trkpt lat="59.689995" lon="9.593678"><ele>334.9</ele></trkpt>
      <trkpt lat="59.689689" lon="9.594028"><ele>333.9</ele></trkpt>
      <trkpt lat="59.689373" lon="9.594324"><ele>333.3</ele></trkpt>
      <trkpt lat="59.688904" lon="9.594707"><ele>338.8</ele></trkpt>
      <trkpt lat="59.688733" lon="9.594846"><ele>341.3</ele></trkpt>
      <trkpt lat="59.688066" lon="9.595367"><ele>342.2</ele></trkpt>
      <trkpt lat="59.687751" lon="9.595628"><ele>344.8</ele></trkpt>
      <trkpt lat="59.687417" lon="9.595835"><ele>347.3</ele></trkpt>
      <trkpt lat="59.686887" lon="9.596074"><ele>341.1</ele></trkpt>
      <trkpt lat="59.686347" lon="9.596260"><ele>340.9</ele></trkpt>
      <trkpt lat="59.686279" lon="9.596294"><ele>340.8</ele></trkpt>
      <trkpt lat="59.686014" lon="9.596432"><ele>340.7</ele></trkpt>
      <trkpt lat="59.685680" lon="9.596674"><ele>342.8</ele></trkpt>
      <trkpt lat="59.685391" lon="9.597095"><ele>342.9</ele></trkpt>
      <trkpt lat="59.684813" lon="9.597849"><ele>342.3</ele></trkpt>
      <trkpt lat="59.684226" lon="9.598566"><ele>343.0</ele></trkpt>
      <trkpt lat="59.683937" lon="9.598970"><ele>342.9</ele></trkpt>
      <trkpt lat="59.683860" lon="9.599057"><ele>342.6</ele></trkpt>
      <trkpt lat="59.683711" lon="9.599241"><ele>342.4</ele></trkpt>
      <trkpt lat="59.683639" lon="9.599320"><ele>342.4</ele></trkpt>
      <trkpt lat="59.682999" lon="9.599876"><ele>342.6</ele></trkpt>
      <trkpt lat="59.682841" lon="9.599998"><ele>342.4</ele></trkpt>
      <trkpt lat="59.682665" lon="9.600137"><ele>342.1</ele></trkpt>
      <trkpt lat="59.682025" lon="9.600694"><ele>335.6</ele></trkpt>
      <trkpt lat="59.681377" lon="9.601162"><ele>329.9</ele></trkpt>
      <trkpt lat="59.680693" lon="9.601487"><ele>324.1</ele></trkpt>
      <trkpt lat="59.680521" lon="9.601608"><ele>323.1</ele></trkpt>
      <trkpt lat="59.680494" lon="9.601625"><ele>322.9</ele></trkpt>
      <trkpt lat="59.680044" lon="9.601972"><ele>321.1</ele></trkpt>
      <trkpt lat="59.679430" lon="9.602618"><ele>318.5</ele></trkpt>
      <trkpt lat="59.679132" lon="9.602986"><ele>318.1</ele></trkpt>
      <trkpt lat="59.678808" lon="9.603264"><ele>313.3</ele></trkpt>
      <trkpt lat="59.678501" lon="9.603614"><ele>309.5</ele></trkpt>
      <trkpt lat="59.678235" lon="9.603849"><ele>307.9</ele></trkpt>
      <trkpt lat="59.678131" lon="9.603936"><ele>308.3</ele></trkpt>
      <trkpt lat="59.677870" lon="9.604171"><ele>309.8</ele></trkpt>
      <trkpt lat="59.677389" lon="9.605174"><ele>307.9</ele></trkpt>
      <trkpt lat="59.677226" lon="9.605402"><ele>307.7</ele></trkpt>
      <trkpt lat="59.677104" lon="9.605569"><ele>307.3</ele></trkpt>
      <trkpt lat="59.677100" lon="9.605577"><ele>307.2</ele></trkpt>
      <trkpt lat="59.676775" lon="9.605873"><ele>303.9</ele></trkpt>
      <trkpt lat="59.676451" lon="9.606116"><ele>303.2</ele></trkpt>
      <trkpt lat="59.676053" lon="9.606606"><ele>303.1</ele></trkpt>
      <trkpt lat="59.675864" lon="9.606833"><ele>302.9</ele></trkpt>
      <trkpt lat="59.675823" lon="9.606984"><ele>301.8</ele></trkpt>
      <trkpt lat="59.675709" lon="9.607381"><ele>302.6</ele></trkpt>
      <trkpt lat="59.675562" lon="9.608000"><ele>300.9</ele></trkpt>
      <trkpt lat="59.675458" lon="9.608113"><ele>301.0</ele></trkpt>
      <trkpt lat="59.675282" lon="9.608297"><ele>300.3</ele></trkpt>
      <trkpt lat="59.674940" lon="9.608486"><ele>297.4</ele></trkpt>
      <trkpt lat="59.674651" lon="9.608800"><ele>292.7</ele></trkpt>
      <trkpt lat="59.674371" lon="9.609239"><ele>289.5</ele></trkpt>
      <trkpt lat="59.674055" lon="9.609553"><ele>283.4</ele></trkpt>
      <trkpt lat="59.673748" lon="9.609920"><ele>281.2</ele></trkpt>
      <trkpt lat="59.673108" lon="9.610530"><ele>280.0</ele></trkpt>
      <trkpt lat="59.672738" lon="9.610914"><ele>279.0</ele></trkpt>
      <trkpt lat="59.672485" lon="9.611175"><ele>278.5</ele></trkpt>
      <trkpt lat="59.672088" lon="9.611523"><ele>278.9</ele></trkpt>
      <trkpt lat="59.671854" lon="9.611732"><ele>279.8</ele></trkpt>
      <trkpt lat="59.671538" lon="9.612046"><ele>279.5</ele></trkpt>
      <trkpt lat="59.671249" lon="9.612413"><ele>278.3</ele></trkpt>
      <trkpt lat="59.670942" lon="9.612745"><ele>278.5</ele></trkpt>
      <trkpt lat="59.670635" lon="9.613130"><ele>279.4</ele></trkpt>
      <trkpt lat="59.670589" lon="9.613289"><ele>278.9</ele></trkpt>
    </trkseg>
  </trk>
</gpx>
