<?xml version="1.0" encoding="UTF-8"?>
<gpx version="1.1" creator="stikart_web trailguide-snapshot" xmlns="http://www.topografix.com/GPX/1/1">
 <trk><name>Gamle Korsvei til Korset klatringen</name><desc>Fra Trailguide (trailguide.net), gradering: green. 3534 m, 0 m nedfart.</desc><trkseg>
  <trkpt lat="59.663720" lon="9.620500"><ele>242.0</ele></trkpt>
  <trkpt lat="59.663530" lon="9.620760"><ele>241.0</ele></trkpt>
  <trkpt lat="59.663390" lon="9.621030"><ele>241.0</ele></trkpt>
  <trkpt lat="59.662890" lon="9.622290"><ele>240.0</ele></trkpt>
  <trkpt lat="59.662570" lon="9.622920"><ele>240.0</ele></trkpt>
  <trkpt lat="59.662280" lon="9.623030"><ele>243.0</ele></trkpt>
  <trkpt lat="59.661890" lon="9.623260"><ele>246.0</ele></trkpt>
  <trkpt lat="59.661540" lon="9.623590"><ele>251.0</ele></trkpt>
  <trkpt lat="59.661180" lon="9.623710"><ele>254.0</ele></trkpt>
  <trkpt lat="59.661020" lon="9.623440"><ele>255.0</ele></trkpt>
  <trkpt lat="59.660710" lon="9.622700"><ele>261.0</ele></trkpt>
  <trkpt lat="59.660620" lon="9.622590"><ele>261.0</ele></trkpt>
  <trkpt lat="59.660510" lon="9.622540"><ele>264.0</ele></trkpt>
  <trkpt lat="59.660290" lon="9.622500"><ele>268.0</ele></trkpt>
  <trkpt lat="59.659620" lon="9.622750"><ele>273.0</ele></trkpt>
  <trkpt lat="59.658630" lon="9.622920"><ele>283.0</ele></trkpt>
  <trkpt lat="59.658000" lon="9.622950"><ele>288.0</ele></trkpt>
  <trkpt lat="59.657830" lon="9.622640"><ele>290.0</ele></trkpt>
  <trkpt lat="59.657740" lon="9.622310"><ele>293.0</ele></trkpt>
  <trkpt lat="59.657700" lon="9.622250"><ele>294.0</ele></trkpt>
  <trkpt lat="59.657600" lon="9.622210"><ele>295.0</ele></trkpt>
  <trkpt lat="59.657500" lon="9.622230"><ele>297.0</ele></trkpt>
  <trkpt lat="59.657420" lon="9.622300"><ele>298.0</ele></trkpt>
  <trkpt lat="59.657000" lon="9.622460"><ele>300.0</ele></trkpt>
  <trkpt lat="59.656840" lon="9.622470"><ele>300.0</ele></trkpt>
  <trkpt lat="59.656560" lon="9.622410"><ele>303.0</ele></trkpt>
  <trkpt lat="59.656240" lon="9.622400"><ele>305.0</ele></trkpt>
  <trkpt lat="59.655990" lon="9.622310"><ele>310.0</ele></trkpt>
  <trkpt lat="59.655750" lon="9.622330"><ele>312.0</ele></trkpt>
  <trkpt lat="59.655550" lon="9.622370"><ele>313.0</ele></trkpt>
  <trkpt lat="59.655440" lon="9.622360"><ele>317.0</ele></trkpt>
  <trkpt lat="59.655330" lon="9.622270"><ele>317.0</ele></trkpt>
  <trkpt lat="59.655350" lon="9.622070"><ele>318.0</ele></trkpt>
  <trkpt lat="59.655380" lon="9.622020"><ele>321.0</ele></trkpt>
  <trkpt lat="59.655470" lon="9.621960"><ele>321.0</ele></trkpt>
  <trkpt lat="59.655640" lon="9.621910"><ele>323.0</ele></trkpt>
  <trkpt lat="59.655970" lon="9.621770"><ele>327.0</ele></trkpt>
  <trkpt lat="59.656110" lon="9.621670"><ele>330.0</ele></trkpt>
  <trkpt lat="59.656250" lon="9.621470"><ele>331.0</ele></trkpt>
  <trkpt lat="59.656360" lon="9.621240"><ele>334.0</ele></trkpt>
  <trkpt lat="59.656250" lon="9.620790"><ele>338.0</ele></trkpt>
  <trkpt lat="59.656180" lon="9.620700"><ele>339.0</ele></trkpt>
  <trkpt lat="59.656030" lon="9.620610"><ele>342.0</ele></trkpt>
  <trkpt lat="59.655960" lon="9.620400"><ele>343.0</ele></trkpt>
  <trkpt lat="59.655830" lon="9.620210"><ele>344.0</ele></trkpt>
  <trkpt lat="59.655650" lon="9.620090"><ele>346.0</ele></trkpt>
  <trkpt lat="59.655490" lon="9.620050"><ele>347.0</ele></trkpt>
  <trkpt lat="59.655190" lon="9.620150"><ele>349.0</ele></trkpt>
  <trkpt lat="59.654840" lon="9.620350"><ele>350.0</ele></trkpt>
  <trkpt lat="59.654700" lon="9.620380"><ele>350.0</ele></trkpt>
  <trkpt lat="59.654220" lon="9.620330"><ele>354.0</ele></trkpt>
  <trkpt lat="59.654150" lon="9.620300"><ele>354.0</ele></trkpt>
  <trkpt lat="59.654090" lon="9.620230"><ele>356.0</ele></trkpt>
  <trkpt lat="59.653800" lon="9.619230"><ele>360.0</ele></trkpt>
  <trkpt lat="59.653550" lon="9.618540"><ele>362.0</ele></trkpt>
  <trkpt lat="59.653450" lon="9.618030"><ele>365.0</ele></trkpt>
  <trkpt lat="59.653430" lon="9.617760"><ele>367.0</ele></trkpt>
  <trkpt lat="59.653460" lon="9.617580"><ele>369.0</ele></trkpt>
  <trkpt lat="59.653570" lon="9.617400"><ele>371.0</ele></trkpt>
  <trkpt lat="59.653700" lon="9.617270"><ele>374.0</ele></trkpt>
  <trkpt lat="59.653850" lon="9.617190"><ele>378.0</ele></trkpt>
  <trkpt lat="59.653900" lon="9.617180"><ele>378.0</ele></trkpt>
  <trkpt lat="59.653980" lon="9.617080"><ele>379.0</ele></trkpt>
  <trkpt lat="59.654070" lon="9.616660"><ele>383.0</ele></trkpt>
  <trkpt lat="59.654060" lon="9.616590"><ele>384.0</ele></trkpt>
  <trkpt lat="59.654020" lon="9.616520"><ele>384.0</ele></trkpt>
  <trkpt lat="59.653690" lon="9.616390"><ele>394.0</ele></trkpt>
  <trkpt lat="59.653710" lon="9.616320"><ele>394.0</ele></trkpt>
  <trkpt lat="59.653970" lon="9.616050"><ele>400.0</ele></trkpt>
  <trkpt lat="59.654120" lon="9.615830"><ele>403.0</ele></trkpt>
  <trkpt lat="59.654130" lon="9.615620"><ele>404.0</ele></trkpt>
  <trkpt lat="59.654060" lon="9.615190"><ele>409.0</ele></trkpt>
  <trkpt lat="59.654010" lon="9.615000"><ele>409.0</ele></trkpt>
  <trkpt lat="59.653930" lon="9.614840"><ele>411.0</ele></trkpt>
  <trkpt lat="59.653350" lon="9.614870"><ele>420.0</ele></trkpt>
  <trkpt lat="59.653290" lon="9.614820"><ele>421.0</ele></trkpt>
  <trkpt lat="59.653250" lon="9.614750"><ele>422.0</ele></trkpt>
  <trkpt lat="59.653110" lon="9.614250"><ele>427.0</ele></trkpt>
  <trkpt lat="59.652860" lon="9.613590"><ele>430.0</ele></trkpt>
  <trkpt lat="59.652530" lon="9.612850"><ele>435.0</ele></trkpt>
  <trkpt lat="59.652380" lon="9.612430"><ele>438.0</ele></trkpt>
  <trkpt lat="59.652140" lon="9.611890"><ele>440.0</ele></trkpt>
  <trkpt lat="59.651750" lon="9.610710"><ele>448.0</ele></trkpt>
  <trkpt lat="59.651730" lon="9.610540"><ele>452.0</ele></trkpt>
  <trkpt lat="59.651750" lon="9.610390"><ele>452.0</ele></trkpt>
  <trkpt lat="59.651800" lon="9.610250"><ele>452.0</ele></trkpt>
  <trkpt lat="59.651870" lon="9.610170"><ele>454.0</ele></trkpt>
  <trkpt lat="59.652100" lon="9.610030"><ele>457.0</ele></trkpt>
  <trkpt lat="59.652480" lon="9.609760"><ele>461.0</ele></trkpt>
  <trkpt lat="59.652660" lon="9.609450"><ele>464.0</ele></trkpt>
  <trkpt lat="59.652740" lon="9.609350"><ele>466.0</ele></trkpt>
  <trkpt lat="59.652910" lon="9.609220"><ele>468.0</ele></trkpt>
  <trkpt lat="59.652990" lon="9.609110"><ele>469.0</ele></trkpt>
  <trkpt lat="59.653050" lon="9.608980"><ele>470.0</ele></trkpt>
  <trkpt lat="59.653130" lon="9.608670"><ele>475.0</ele></trkpt>
  <trkpt lat="59.653180" lon="9.608340"><ele>477.0</ele></trkpt>
  <trkpt lat="59.653300" lon="9.607980"><ele>482.0</ele></trkpt>
  <trkpt lat="59.653390" lon="9.607610"><ele>485.0</ele></trkpt>
  <trkpt lat="59.653550" lon="9.607170"><ele>489.0</ele></trkpt>
  <trkpt lat="59.653600" lon="9.606450"><ele>496.0</ele></trkpt>
  <trkpt lat="59.653630" lon="9.606260"><ele>497.0</ele></trkpt>
  <trkpt lat="59.653810" lon="9.605820"><ele>503.0</ele></trkpt>
  <trkpt lat="59.654020" lon="9.605500"><ele>507.0</ele></trkpt>
  <trkpt lat="59.654080" lon="9.605360"><ele>508.0</ele></trkpt>
  <trkpt lat="59.654110" lon="9.605230"><ele>509.0</ele></trkpt>
  <trkpt lat="59.654140" lon="9.604880"><ele>510.0</ele></trkpt>
  <trkpt lat="59.654080" lon="9.604420"><ele>510.0</ele></trkpt>
  <trkpt lat="59.654070" lon="9.604220"><ele>510.0</ele></trkpt>
  <trkpt lat="59.654080" lon="9.604010"><ele>510.0</ele></trkpt>
  <trkpt lat="59.654160" lon="9.603560"><ele>512.0</ele></trkpt>
  <trkpt lat="59.654150" lon="9.603330"><ele>513.0</ele></trkpt>
  <trkpt lat="59.654100" lon="9.603220"><ele>514.0</ele></trkpt>
  <trkpt lat="59.653780" lon="9.602780"><ele>519.0</ele></trkpt>
  <trkpt lat="59.653630" lon="9.602540"><ele>521.0</ele></trkpt>
  <trkpt lat="59.653570" lon="9.602380"><ele>522.0</ele></trkpt>
  <trkpt lat="59.653350" lon="9.601440"><ele>526.0</ele></trkpt>
  <trkpt lat="59.653310" lon="9.601050"><ele>527.0</ele></trkpt>
  <trkpt lat="59.653330" lon="9.600660"><ele>530.0</ele></trkpt>
  <trkpt lat="59.653450" lon="9.600100"><ele>531.0</ele></trkpt>
  <trkpt lat="59.653590" lon="9.599830"><ele>531.0</ele></trkpt>
  <trkpt lat="59.653740" lon="9.599430"><ele>532.0</ele></trkpt>
  <trkpt lat="59.654000" lon="9.598840"><ele>533.0</ele></trkpt>
  <trkpt lat="59.653970" lon="9.598070"><ele>538.0</ele></trkpt>
  <trkpt lat="59.653970" lon="9.597620"><ele>539.0</ele></trkpt>
  <trkpt lat="59.653870" lon="9.597140"><ele>541.0</ele></trkpt>
  <trkpt lat="59.653780" lon="9.596830"><ele>542.0</ele></trkpt>
  <trkpt lat="59.653690" lon="9.596620"><ele>543.0</ele></trkpt>
  <trkpt lat="59.653580" lon="9.596530"><ele>544.0</ele></trkpt>
  <trkpt lat="59.653300" lon="9.596390"><ele>548.0</ele></trkpt>
  <trkpt lat="59.652840" lon="9.595820"><ele>551.0</ele></trkpt>
  <trkpt lat="59.652730" lon="9.595660"><ele>552.0</ele></trkpt>
  <trkpt lat="59.652510" lon="9.594850"><ele>552.0</ele></trkpt>
  <trkpt lat="59.652170" lon="9.593730"><ele>553.0</ele></trkpt>
  <trkpt lat="59.652040" lon="9.593170"><ele>553.0</ele></trkpt>
 </trkseg></trk></gpx>