<?xml version="1.0" encoding="UTF-8"?>
<gpx version="1.1" creator="stikart_web trailguide-snapshot" xmlns="http://www.topografix.com/GPX/1/1">
 <trk><name>Lailastien</name><desc>Fra Trailguide (trailguide.net), gradering: red. 2469 m, 298 m nedfart.</desc><trkseg>
  <trkpt lat="59.702157" lon="9.655995"><ele>475.0</ele></trkpt>
  <trkpt lat="59.702103" lon="9.655948"><ele>475.0</ele></trkpt>
  <trkpt lat="59.702067" lon="9.655959"><ele>475.0</ele></trkpt>
  <trkpt lat="59.701970" lon="9.655925"><ele>475.0</ele></trkpt>
  <trkpt lat="59.701774" lon="9.655736"><ele>471.0</ele></trkpt>
  <trkpt lat="59.701674" lon="9.655758"><ele>470.0</ele></trkpt>
  <trkpt lat="59.701582" lon="9.655734"><ele>468.0</ele></trkpt>
  <trkpt lat="59.701484" lon="9.655798"><ele>465.0</ele></trkpt>
  <trkpt lat="59.701442" lon="9.655886"><ele>466.0</ele></trkpt>
  <trkpt lat="59.701397" lon="9.655924"><ele>465.0</ele></trkpt>
  <trkpt lat="59.701302" lon="9.655851"><ele>462.0</ele></trkpt>
  <trkpt lat="59.701232" lon="9.655710"><ele>460.0</ele></trkpt>
  <trkpt lat="59.701106" lon="9.655692"><ele>459.0</ele></trkpt>
  <trkpt lat="59.701036" lon="9.655614"><ele>456.0</ele></trkpt>
  <trkpt lat="59.700957" lon="9.655604"><ele>453.0</ele></trkpt>
  <trkpt lat="59.700873" lon="9.655569"><ele>451.0</ele></trkpt>
  <trkpt lat="59.700837" lon="9.655577"><ele>450.0</ele></trkpt>
  <trkpt lat="59.700780" lon="9.655653"><ele>448.0</ele></trkpt>
  <trkpt lat="59.700660" lon="9.655748"><ele>447.0</ele></trkpt>
  <trkpt lat="59.700447" lon="9.655965"><ele>444.0</ele></trkpt>
  <trkpt lat="59.700047" lon="9.656096"><ele>436.0</ele></trkpt>
  <trkpt lat="59.699972" lon="9.656064"><ele>435.0</ele></trkpt>
  <trkpt lat="59.699906" lon="9.656081"><ele>434.0</ele></trkpt>
  <trkpt lat="59.699563" lon="9.656244"><ele>427.0</ele></trkpt>
  <trkpt lat="59.699465" lon="9.656310"><ele>425.0</ele></trkpt>
  <trkpt lat="59.699333" lon="9.656210"><ele>419.0</ele></trkpt>
  <trkpt lat="59.699211" lon="9.656232"><ele>414.0</ele></trkpt>
  <trkpt lat="59.699124" lon="9.656167"><ele>412.0</ele></trkpt>
  <trkpt lat="59.699075" lon="9.656151"><ele>410.0</ele></trkpt>
  <trkpt lat="59.698939" lon="9.656159"><ele>408.0</ele></trkpt>
  <trkpt lat="59.698907" lon="9.656143"><ele>407.0</ele></trkpt>
  <trkpt lat="59.698788" lon="9.656252"><ele>404.0</ele></trkpt>
  <trkpt lat="59.698684" lon="9.656405"><ele>402.0</ele></trkpt>
  <trkpt lat="59.698650" lon="9.656421"><ele>401.0</ele></trkpt>
  <trkpt lat="59.698574" lon="9.656353"><ele>400.0</ele></trkpt>
  <trkpt lat="59.698519" lon="9.656406"><ele>399.0</ele></trkpt>
  <trkpt lat="59.698499" lon="9.656470"><ele>398.0</ele></trkpt>
  <trkpt lat="59.698471" lon="9.656490"><ele>397.0</ele></trkpt>
  <trkpt lat="59.698313" lon="9.656524"><ele>395.0</ele></trkpt>
  <trkpt lat="59.698204" lon="9.656584"><ele>393.0</ele></trkpt>
  <trkpt lat="59.698109" lon="9.656578"><ele>391.0</ele></trkpt>
  <trkpt lat="59.698019" lon="9.656592"><ele>389.0</ele></trkpt>
  <trkpt lat="59.697927" lon="9.656566"><ele>387.0</ele></trkpt>
  <trkpt lat="59.697801" lon="9.656581"><ele>385.0</ele></trkpt>
  <trkpt lat="59.697716" lon="9.656568"><ele>385.0</ele></trkpt>
  <trkpt lat="59.697686" lon="9.656602"><ele>385.0</ele></trkpt>
  <trkpt lat="59.697491" lon="9.656696"><ele>384.0</ele></trkpt>
  <trkpt lat="59.697194" lon="9.656752"><ele>382.0</ele></trkpt>
  <trkpt lat="59.696946" lon="9.656904"><ele>379.0</ele></trkpt>
  <trkpt lat="59.696813" lon="9.657041"><ele>375.0</ele></trkpt>
  <trkpt lat="59.696753" lon="9.657036"><ele>374.0</ele></trkpt>
  <trkpt lat="59.696660" lon="9.657118"><ele>373.0</ele></trkpt>
  <trkpt lat="59.696621" lon="9.657100"><ele>373.0</ele></trkpt>
  <trkpt lat="59.696598" lon="9.657127"><ele>373.0</ele></trkpt>
  <trkpt lat="59.696487" lon="9.657066"><ele>373.0</ele></trkpt>
  <trkpt lat="59.696287" lon="9.657070"><ele>371.0</ele></trkpt>
  <trkpt lat="59.696199" lon="9.657016"><ele>371.0</ele></trkpt>
  <trkpt lat="59.696067" lon="9.656999"><ele>370.0</ele></trkpt>
  <trkpt lat="59.695998" lon="9.657006"><ele>369.0</ele></trkpt>
  <trkpt lat="59.695933" lon="9.657042"><ele>369.0</ele></trkpt>
  <trkpt lat="59.695899" lon="9.657027"><ele>369.0</ele></trkpt>
  <trkpt lat="59.695856" lon="9.657036"><ele>369.0</ele></trkpt>
  <trkpt lat="59.695672" lon="9.657111"><ele>367.0</ele></trkpt>
  <trkpt lat="59.695425" lon="9.657181"><ele>364.0</ele></trkpt>
  <trkpt lat="59.695327" lon="9.657168"><ele>363.0</ele></trkpt>
  <trkpt lat="59.695240" lon="9.657131"><ele>362.0</ele></trkpt>
  <trkpt lat="59.695050" lon="9.657180"><ele>359.0</ele></trkpt>
  <trkpt lat="59.695005" lon="9.657177"><ele>359.0</ele></trkpt>
  <trkpt lat="59.694686" lon="9.657023"><ele>356.0</ele></trkpt>
  <trkpt lat="59.694519" lon="9.657035"><ele>354.0</ele></trkpt>
  <trkpt lat="59.694489" lon="9.657002"><ele>354.0</ele></trkpt>
  <trkpt lat="59.694468" lon="9.656943"><ele>353.0</ele></trkpt>
  <trkpt lat="59.694437" lon="9.656768"><ele>354.0</ele></trkpt>
  <trkpt lat="59.694317" lon="9.656591"><ele>355.0</ele></trkpt>
  <trkpt lat="59.694176" lon="9.656555"><ele>355.0</ele></trkpt>
  <trkpt lat="59.694102" lon="9.656599"><ele>354.0</ele></trkpt>
  <trkpt lat="59.694053" lon="9.656609"><ele>354.0</ele></trkpt>
  <trkpt lat="59.693782" lon="9.656553"><ele>349.0</ele></trkpt>
  <trkpt lat="59.693650" lon="9.656593"><ele>347.0</ele></trkpt>
  <trkpt lat="59.693449" lon="9.656722"><ele>344.0</ele></trkpt>
  <trkpt lat="59.693277" lon="9.656662"><ele>342.0</ele></trkpt>
  <trkpt lat="59.693247" lon="9.656618"><ele>342.0</ele></trkpt>
  <trkpt lat="59.693236" lon="9.656565"><ele>342.0</ele></trkpt>
  <trkpt lat="59.693249" lon="9.656468"><ele>341.0</ele></trkpt>
  <trkpt lat="59.693338" lon="9.656309"><ele>340.0</ele></trkpt>
  <trkpt lat="59.693527" lon="9.656097"><ele>338.0</ele></trkpt>
  <trkpt lat="59.693640" lon="9.655754"><ele>336.0</ele></trkpt>
  <trkpt lat="59.693703" lon="9.655655"><ele>336.0</ele></trkpt>
  <trkpt lat="59.694260" lon="9.654982"><ele>332.0</ele></trkpt>
  <trkpt lat="59.694323" lon="9.654948"><ele>332.0</ele></trkpt>
  <trkpt lat="59.694449" lon="9.654941"><ele>331.0</ele></trkpt>
  <trkpt lat="59.694520" lon="9.654913"><ele>331.0</ele></trkpt>
  <trkpt lat="59.694635" lon="9.654820"><ele>330.0</ele></trkpt>
  <trkpt lat="59.694749" lon="9.654686"><ele>329.0</ele></trkpt>
  <trkpt lat="59.694928" lon="9.654247"><ele>327.0</ele></trkpt>
  <trkpt lat="59.695036" lon="9.653936"><ele>325.0</ele></trkpt>
  <trkpt lat="59.695162" lon="9.653727"><ele>325.0</ele></trkpt>
  <trkpt lat="59.695242" lon="9.653679"><ele>325.0</ele></trkpt>
  <trkpt lat="59.695386" lon="9.653744"><ele>325.0</ele></trkpt>
  <trkpt lat="59.695441" lon="9.653751"><ele>325.0</ele></trkpt>
  <trkpt lat="59.695548" lon="9.653721"><ele>325.0</ele></trkpt>
  <trkpt lat="59.695761" lon="9.653562"><ele>324.0</ele></trkpt>
  <trkpt lat="59.695922" lon="9.653367"><ele>323.0</ele></trkpt>
  <trkpt lat="59.696014" lon="9.652992"><ele>320.0</ele></trkpt>
  <trkpt lat="59.696102" lon="9.652770"><ele>317.0</ele></trkpt>
  <trkpt lat="59.696124" lon="9.652634"><ele>316.0</ele></trkpt>
  <trkpt lat="59.696107" lon="9.652509"><ele>314.0</ele></trkpt>
  <trkpt lat="59.696069" lon="9.652421"><ele>313.0</ele></trkpt>
  <trkpt lat="59.695867" lon="9.652296"><ele>311.0</ele></trkpt>
  <trkpt lat="59.695580" lon="9.652252"><ele>308.0</ele></trkpt>
  <trkpt lat="59.695513" lon="9.652228"><ele>307.0</ele></trkpt>
  <trkpt lat="59.695353" lon="9.652058"><ele>306.0</ele></trkpt>
  <trkpt lat="59.695185" lon="9.652127"><ele>304.0</ele></trkpt>
  <trkpt lat="59.695011" lon="9.652236"><ele>302.0</ele></trkpt>
  <trkpt lat="59.694912" lon="9.652185"><ele>301.0</ele></trkpt>
  <trkpt lat="59.694858" lon="9.652128"><ele>300.0</ele></trkpt>
  <trkpt lat="59.694782" lon="9.651973"><ele>299.0</ele></trkpt>
  <trkpt lat="59.694782" lon="9.651909"><ele>298.0</ele></trkpt>
  <trkpt lat="59.694919" lon="9.651720"><ele>296.0</ele></trkpt>
  <trkpt lat="59.694939" lon="9.651671"><ele>296.0</ele></trkpt>
  <trkpt lat="59.694938" lon="9.651599"><ele>295.0</ele></trkpt>
  <trkpt lat="59.694910" lon="9.651527"><ele>295.0</ele></trkpt>
  <trkpt lat="59.694830" lon="9.651428"><ele>293.0</ele></trkpt>
  <trkpt lat="59.694777" lon="9.651416"><ele>293.0</ele></trkpt>
  <trkpt lat="59.694661" lon="9.651456"><ele>291.0</ele></trkpt>
  <trkpt lat="59.694604" lon="9.651436"><ele>291.0</ele></trkpt>
  <trkpt lat="59.694537" lon="9.651373"><ele>289.0</ele></trkpt>
  <trkpt lat="59.694441" lon="9.651257"><ele>287.0</ele></trkpt>
  <trkpt lat="59.694372" lon="9.650997"><ele>284.0</ele></trkpt>
  <trkpt lat="59.694339" lon="9.650927"><ele>283.0</ele></trkpt>
  <trkpt lat="59.694279" lon="9.650865"><ele>282.0</ele></trkpt>
  <trkpt lat="59.694152" lon="9.650790"><ele>279.0</ele></trkpt>
  <trkpt lat="59.693651" lon="9.650407"><ele>272.0</ele></trkpt>
  <trkpt lat="59.693578" lon="9.650325"><ele>271.0</ele></trkpt>
  <trkpt lat="59.693425" lon="9.650216"><ele>269.0</ele></trkpt>
  <trkpt lat="59.693267" lon="9.650048"><ele>267.0</ele></trkpt>
  <trkpt lat="59.693141" lon="9.649948"><ele>264.0</ele></trkpt>
  <trkpt lat="59.692890" lon="9.650008"><ele>260.0</ele></trkpt>
  <trkpt lat="59.692840" lon="9.649999"><ele>259.0</ele></trkpt>
  <trkpt lat="59.692708" lon="9.649930"><ele>257.0</ele></trkpt>
  <trkpt lat="59.692572" lon="9.649796"><ele>253.0</ele></trkpt>
  <trkpt lat="59.692390" lon="9.649675"><ele>250.0</ele></trkpt>
  <trkpt lat="59.692351" lon="9.649618"><ele>250.0</ele></trkpt>
  <trkpt lat="59.692228" lon="9.649301"><ele>247.0</ele></trkpt>
  <trkpt lat="59.692197" lon="9.649062"><ele>245.0</ele></trkpt>
  <trkpt lat="59.692195" lon="9.648945"><ele>244.0</ele></trkpt>
  <trkpt lat="59.692225" lon="9.648748"><ele>242.0</ele></trkpt>
  <trkpt lat="59.692323" lon="9.648477"><ele>240.0</ele></trkpt>
  <trkpt lat="59.692349" lon="9.648259"><ele>235.0</ele></trkpt>
  <trkpt lat="59.692324" lon="9.648151"><ele>233.0</ele></trkpt>
  <trkpt lat="59.692239" lon="9.648030"><ele>230.0</ele></trkpt>
  <trkpt lat="59.692133" lon="9.647965"><ele>228.0</ele></trkpt>
  <trkpt lat="59.692084" lon="9.647901"><ele>227.0</ele></trkpt>
  <trkpt lat="59.691967" lon="9.647858"><ele>225.0</ele></trkpt>
  <trkpt lat="59.691861" lon="9.647882"><ele>224.0</ele></trkpt>
  <trkpt lat="59.691771" lon="9.648133"><ele>221.0</ele></trkpt>
  <trkpt lat="59.691729" lon="9.648173"><ele>220.0</ele></trkpt>
  <trkpt lat="59.691488" lon="9.648186"><ele>215.0</ele></trkpt>
  <trkpt lat="59.691364" lon="9.648151"><ele>212.0</ele></trkpt>
  <trkpt lat="59.691302" lon="9.648113"><ele>210.0</ele></trkpt>
  <trkpt lat="59.691250" lon="9.648065"><ele>208.0</ele></trkpt>
  <trkpt lat="59.691148" lon="9.647920"><ele>204.0</ele></trkpt>
  <trkpt lat="59.690950" lon="9.647511"><ele>196.0</ele></trkpt>
  <trkpt lat="59.690875" lon="9.647209"><ele>192.0</ele></trkpt>
  <trkpt lat="59.690817" lon="9.647114"><ele>191.0</ele></trkpt>
  <trkpt lat="59.690768" lon="9.646968"><ele>188.0</ele></trkpt>
  <trkpt lat="59.690572" lon="9.646705"><ele>183.0</ele></trkpt>
  <trkpt lat="59.690516" lon="9.646569"><ele>182.0</ele></trkpt>
  <trkpt lat="59.690483" lon="9.646527"><ele>182.0</ele></trkpt>
  <trkpt lat="59.690408" lon="9.646519"><ele>181.0</ele></trkpt>
  <trkpt lat="59.690213" lon="9.646352"><ele>180.0</ele></trkpt>
  <trkpt lat="59.690132" lon="9.646238"><ele>180.0</ele></trkpt>
  <trkpt lat="59.690044" lon="9.646176"><ele>179.0</ele></trkpt>
  <trkpt lat="59.689814" lon="9.646085"><ele>179.0</ele></trkpt>
  <trkpt lat="59.689746" lon="9.646133"><ele>178.0</ele></trkpt>
  <trkpt lat="59.689665" lon="9.646151"><ele>178.0</ele></trkpt>
  <trkpt lat="59.689578" lon="9.646001"><ele>178.0</ele></trkpt>
  <trkpt lat="59.689508" lon="9.645989"><ele>178.0</ele></trkpt>
  <trkpt lat="59.689435" lon="9.645925"><ele>177.0</ele></trkpt>
  <trkpt lat="59.689360" lon="9.645905"><ele>177.0</ele></trkpt>
  <trkpt lat="59.689311" lon="9.645846"><ele>177.0</ele></trkpt>
 </trkseg></trk></gpx>