<?xml version="1.0" encoding="UTF-8"?>
<gpx version="1.1" creator="stikart_web trailguide-snapshot" xmlns="http://www.topografix.com/GPX/1/1">
 <trk><name>Langevannstoppen</name><desc>Fra Trailguide (trailguide.net), gradering: red. 2722 m, 309 m nedfart.</desc><trkseg>
  <trkpt lat="59.704445" lon="9.665843"><ele>477.8</ele></trkpt>
  <trkpt lat="59.704301" lon="9.665628"><ele>479.2</ele></trkpt>
  <trkpt lat="59.703906" lon="9.665190"><ele>481.7</ele></trkpt>
  <trkpt lat="59.703866" lon="9.665042"><ele>481.7</ele></trkpt>
  <trkpt lat="59.703766" lon="9.664916"><ele>481.7</ele></trkpt>
  <trkpt lat="59.703685" lon="9.664731"><ele>481.5</ele></trkpt>
  <trkpt lat="59.703617" lon="9.664708"><ele>481.6</ele></trkpt>
  <trkpt lat="59.703555" lon="9.664622"><ele>481.5</ele></trkpt>
  <trkpt lat="59.703488" lon="9.664397"><ele>481.3</ele></trkpt>
  <trkpt lat="59.703262" lon="9.664208"><ele>481.5</ele></trkpt>
  <trkpt lat="59.703182" lon="9.664023"><ele>481.5</ele></trkpt>
  <trkpt lat="59.703049" lon="9.663890"><ele>481.7</ele></trkpt>
  <trkpt lat="59.702966" lon="9.663752"><ele>481.8</ele></trkpt>
  <trkpt lat="59.702789" lon="9.663729"><ele>481.9</ele></trkpt>
  <trkpt lat="59.702385" lon="9.663444"><ele>481.6</ele></trkpt>
  <trkpt lat="59.702208" lon="9.663374"><ele>481.5</ele></trkpt>
  <trkpt lat="59.702099" lon="9.663273"><ele>481.6</ele></trkpt>
  <trkpt lat="59.701929" lon="9.663218"><ele>482.2</ele></trkpt>
  <trkpt lat="59.701774" lon="9.663094"><ele>482.8</ele></trkpt>
  <trkpt lat="59.701615" lon="9.662937"><ele>483.1</ele></trkpt>
  <trkpt lat="59.701593" lon="9.662883"><ele>483.2</ele></trkpt>
  <trkpt lat="59.701436" lon="9.662766"><ele>483.4</ele></trkpt>
  <trkpt lat="59.701328" lon="9.662498"><ele>483.4</ele></trkpt>
  <trkpt lat="59.701276" lon="9.662428"><ele>483.4</ele></trkpt>
  <trkpt lat="59.701106" lon="9.662338"><ele>482.4</ele></trkpt>
  <trkpt lat="59.700954" lon="9.662355"><ele>481.5</ele></trkpt>
  <trkpt lat="59.700822" lon="9.662249"><ele>480.4</ele></trkpt>
  <trkpt lat="59.700670" lon="9.662282"><ele>479.6</ele></trkpt>
  <trkpt lat="59.700536" lon="9.662221"><ele>478.4</ele></trkpt>
  <trkpt lat="59.700578" lon="9.662231"><ele>478.8</ele></trkpt>
  <trkpt lat="59.700543" lon="9.662218"><ele>478.5</ele></trkpt>
  <trkpt lat="59.700491" lon="9.662422"><ele>479.1</ele></trkpt>
  <trkpt lat="59.700372" lon="9.662573"><ele>478.9</ele></trkpt>
  <trkpt lat="59.700208" lon="9.662722"><ele>478.2</ele></trkpt>
  <trkpt lat="59.700045" lon="9.662805"><ele>477.2</ele></trkpt>
  <trkpt lat="59.700010" lon="9.662865"><ele>477.3</ele></trkpt>
  <trkpt lat="59.699732" lon="9.662957"><ele>475.5</ele></trkpt>
  <trkpt lat="59.699404" lon="9.663151"><ele>472.1</ele></trkpt>
  <trkpt lat="59.699216" lon="9.663206"><ele>468.7</ele></trkpt>
  <trkpt lat="59.698846" lon="9.663649"><ele>463.6</ele></trkpt>
  <trkpt lat="59.698797" lon="9.663615"><ele>462.3</ele></trkpt>
  <trkpt lat="59.698645" lon="9.663696"><ele>459.1</ele></trkpt>
  <trkpt lat="59.698582" lon="9.663701"><ele>457.6</ele></trkpt>
  <trkpt lat="59.698388" lon="9.663679"><ele>452.6</ele></trkpt>
  <trkpt lat="59.698286" lon="9.663640"><ele>449.9</ele></trkpt>
  <trkpt lat="59.697998" lon="9.663820"><ele>442.6</ele></trkpt>
  <trkpt lat="59.697923" lon="9.663887"><ele>440.3</ele></trkpt>
  <trkpt lat="59.697700" lon="9.663988"><ele>433.2</ele></trkpt>
  <trkpt lat="59.697635" lon="9.664117"><ele>430.6</ele></trkpt>
  <trkpt lat="59.697496" lon="9.664095"><ele>426.7</ele></trkpt>
  <trkpt lat="59.697304" lon="9.664101"><ele>421.1</ele></trkpt>
  <trkpt lat="59.697261" lon="9.664064"><ele>420.0</ele></trkpt>
  <trkpt lat="59.697075" lon="9.664072"><ele>414.7</ele></trkpt>
  <trkpt lat="59.696899" lon="9.664146"><ele>410.9</ele></trkpt>
  <trkpt lat="59.696830" lon="9.664166"><ele>409.5</ele></trkpt>
  <trkpt lat="59.696721" lon="9.664159"><ele>407.3</ele></trkpt>
  <trkpt lat="59.696646" lon="9.664207"><ele>405.8</ele></trkpt>
  <trkpt lat="59.696310" lon="9.664298"><ele>399.2</ele></trkpt>
  <trkpt lat="59.695975" lon="9.664243"><ele>393.2</ele></trkpt>
  <trkpt lat="59.695790" lon="9.664315"><ele>389.9</ele></trkpt>
  <trkpt lat="59.695647" lon="9.664483"><ele>387.2</ele></trkpt>
  <trkpt lat="59.695359" lon="9.664594"><ele>382.5</ele></trkpt>
  <trkpt lat="59.695186" lon="9.664747"><ele>380.8</ele></trkpt>
  <trkpt lat="59.695061" lon="9.664636"><ele>379.9</ele></trkpt>
  <trkpt lat="59.694880" lon="9.664547"><ele>378.6</ele></trkpt>
  <trkpt lat="59.694663" lon="9.664606"><ele>376.6</ele></trkpt>
  <trkpt lat="59.694476" lon="9.664553"><ele>375.7</ele></trkpt>
  <trkpt lat="59.694314" lon="9.664582"><ele>375.0</ele></trkpt>
  <trkpt lat="59.694113" lon="9.664010"><ele>375.7</ele></trkpt>
  <trkpt lat="59.693935" lon="9.663890"><ele>375.3</ele></trkpt>
  <trkpt lat="59.693821" lon="9.663654"><ele>375.5</ele></trkpt>
  <trkpt lat="59.693656" lon="9.663523"><ele>375.3</ele></trkpt>
  <trkpt lat="59.693597" lon="9.663511"><ele>375.1</ele></trkpt>
  <trkpt lat="59.693426" lon="9.663384"><ele>374.8</ele></trkpt>
  <trkpt lat="59.693327" lon="9.663160"><ele>374.7</ele></trkpt>
  <trkpt lat="59.693135" lon="9.662557"><ele>374.2</ele></trkpt>
  <trkpt lat="59.692983" lon="9.662313"><ele>373.4</ele></trkpt>
  <trkpt lat="59.692882" lon="9.661993"><ele>372.5</ele></trkpt>
  <trkpt lat="59.692848" lon="9.661590"><ele>370.5</ele></trkpt>
  <trkpt lat="59.692782" lon="9.661277"><ele>368.8</ele></trkpt>
  <trkpt lat="59.692774" lon="9.660981"><ele>367.6</ele></trkpt>
  <trkpt lat="59.692609" lon="9.660278"><ele>363.6</ele></trkpt>
  <trkpt lat="59.692404" lon="9.659593"><ele>357.4</ele></trkpt>
  <trkpt lat="59.692394" lon="9.659521"><ele>356.8</ele></trkpt>
  <trkpt lat="59.692259" lon="9.659255"><ele>354.0</ele></trkpt>
  <trkpt lat="59.692259" lon="9.658877"><ele>351.4</ele></trkpt>
  <trkpt lat="59.692285" lon="9.658649"><ele>349.7</ele></trkpt>
  <trkpt lat="59.692290" lon="9.658416"><ele>347.5</ele></trkpt>
  <trkpt lat="59.692265" lon="9.658080"><ele>344.1</ele></trkpt>
  <trkpt lat="59.692084" lon="9.657630"><ele>338.6</ele></trkpt>
  <trkpt lat="59.691915" lon="9.657559"><ele>335.4</ele></trkpt>
  <trkpt lat="59.691644" lon="9.656969"><ele>324.4</ele></trkpt>
  <trkpt lat="59.691658" lon="9.656620"><ele>319.4</ele></trkpt>
  <trkpt lat="59.691707" lon="9.656441"><ele>317.6</ele></trkpt>
  <trkpt lat="59.691636" lon="9.656091"><ele>311.2</ele></trkpt>
  <trkpt lat="59.691672" lon="9.655747"><ele>306.8</ele></trkpt>
  <trkpt lat="59.691530" lon="9.655550"><ele>301.9</ele></trkpt>
  <trkpt lat="59.691219" lon="9.655274"><ele>293.5</ele></trkpt>
  <trkpt lat="59.691255" lon="9.654747"><ele>287.2</ele></trkpt>
  <trkpt lat="59.691104" lon="9.654480"><ele>280.6</ele></trkpt>
  <trkpt lat="59.691027" lon="9.654160"><ele>274.7</ele></trkpt>
  <trkpt lat="59.691020" lon="9.653807"><ele>269.8</ele></trkpt>
  <trkpt lat="59.690984" lon="9.653395"><ele>264.0</ele></trkpt>
  <trkpt lat="59.690983" lon="9.652981"><ele>259.0</ele></trkpt>
  <trkpt lat="59.690881" lon="9.652716"><ele>254.0</ele></trkpt>
  <trkpt lat="59.690714" lon="9.652539"><ele>249.2</ele></trkpt>
  <trkpt lat="59.690610" lon="9.652205"><ele>244.1</ele></trkpt>
  <trkpt lat="59.690600" lon="9.652035"><ele>242.1</ele></trkpt>
  <trkpt lat="59.690708" lon="9.651556"><ele>238.1</ele></trkpt>
  <trkpt lat="59.690578" lon="9.651405"><ele>234.7</ele></trkpt>
  <trkpt lat="59.690396" lon="9.651333"><ele>231.6</ele></trkpt>
  <trkpt lat="59.690197" lon="9.651408"><ele>230.0</ele></trkpt>
  <trkpt lat="59.690169" lon="9.651398"><ele>229.5</ele></trkpt>
  <trkpt lat="59.690062" lon="9.651086"><ele>225.3</ele></trkpt>
  <trkpt lat="59.689847" lon="9.650605"><ele>219.0</ele></trkpt>
  <trkpt lat="59.689711" lon="9.650381"><ele>215.9</ele></trkpt>
  <trkpt lat="59.689620" lon="9.650048"><ele>211.8</ele></trkpt>
  <trkpt lat="59.689584" lon="9.649750"><ele>208.6</ele></trkpt>
  <trkpt lat="59.689578" lon="9.648139"><ele>194.1</ele></trkpt>
  <trkpt lat="59.689518" lon="9.647766"><ele>190.6</ele></trkpt>
  <trkpt lat="59.689487" lon="9.646977"><ele>184.2</ele></trkpt>
  <trkpt lat="59.689378" lon="9.646636"><ele>181.5</ele></trkpt>
  <trkpt lat="59.689220" lon="9.646395"><ele>179.7</ele></trkpt>
  <trkpt lat="59.689058" lon="9.646105"><ele>177.4</ele></trkpt>
  <trkpt lat="59.688748" lon="9.645769"><ele>175.0</ele></trkpt>
  <trkpt lat="59.688620" lon="9.645668"><ele>174.1</ele></trkpt>
  <trkpt lat="59.688457" lon="9.645496"><ele>172.7</ele></trkpt>
  <trkpt lat="59.688390" lon="9.645502"><ele>172.7</ele></trkpt>
  <trkpt lat="59.687975" lon="9.645634"><ele>173.8</ele></trkpt>
  <trkpt lat="59.687795" lon="9.645740"><ele>175.1</ele></trkpt>
 </trkseg></trk></gpx>