<?xml version="1.0" encoding="UTF-8"?>
<gpx version="1.1" creator="stikart_web trailguide-snapshot" xmlns="http://www.topografix.com/GPX/1/1">
 <trk><name>Langevann Enduro</name><desc>Fra Trailguide (trailguide.net), gradering: red. 663 m, 117 m nedfart.</desc><trkseg>
  <trkpt lat="59.700247" lon="9.662393"><ele>494.0</ele></trkpt>
  <trkpt lat="59.700175" lon="9.662327"><ele>493.0</ele></trkpt>
  <trkpt lat="59.700018" lon="9.662343"><ele>491.0</ele></trkpt>
  <trkpt lat="59.699869" lon="9.662435"><ele>489.0</ele></trkpt>
  <trkpt lat="59.699842" lon="9.662437"><ele>488.0</ele></trkpt>
  <trkpt lat="59.699796" lon="9.662389"><ele>487.0</ele></trkpt>
  <trkpt lat="59.699660" lon="9.662354"><ele>484.0</ele></trkpt>
  <trkpt lat="59.699595" lon="9.662382"><ele>483.0</ele></trkpt>
  <trkpt lat="59.699515" lon="9.662324"><ele>482.0</ele></trkpt>
  <trkpt lat="59.699420" lon="9.662189"><ele>480.0</ele></trkpt>
  <trkpt lat="59.699373" lon="9.662149"><ele>479.0</ele></trkpt>
  <trkpt lat="59.699335" lon="9.662126"><ele>478.0</ele></trkpt>
  <trkpt lat="59.699217" lon="9.662107"><ele>477.0</ele></trkpt>
  <trkpt lat="59.699088" lon="9.662107"><ele>473.0</ele></trkpt>
  <trkpt lat="59.699012" lon="9.662146"><ele>472.0</ele></trkpt>
  <trkpt lat="59.698972" lon="9.662149"><ele>470.0</ele></trkpt>
  <trkpt lat="59.698875" lon="9.662112"><ele>467.0</ele></trkpt>
  <trkpt lat="59.698727" lon="9.662119"><ele>465.0</ele></trkpt>
  <trkpt lat="59.698629" lon="9.662101"><ele>462.0</ele></trkpt>
  <trkpt lat="59.698455" lon="9.662119"><ele>459.0</ele></trkpt>
  <trkpt lat="59.698336" lon="9.662057"><ele>457.0</ele></trkpt>
  <trkpt lat="59.698269" lon="9.662002"><ele>455.0</ele></trkpt>
  <trkpt lat="59.698153" lon="9.661849"><ele>452.0</ele></trkpt>
  <trkpt lat="59.698044" lon="9.661819"><ele>449.0</ele></trkpt>
  <trkpt lat="59.697979" lon="9.661753"><ele>448.0</ele></trkpt>
  <trkpt lat="59.697907" lon="9.661726"><ele>446.0</ele></trkpt>
  <trkpt lat="59.697860" lon="9.661665"><ele>446.0</ele></trkpt>
  <trkpt lat="59.697721" lon="9.661773"><ele>443.0</ele></trkpt>
  <trkpt lat="59.697669" lon="9.661776"><ele>442.0</ele></trkpt>
  <trkpt lat="59.697563" lon="9.661836"><ele>440.0</ele></trkpt>
  <trkpt lat="59.697481" lon="9.661861"><ele>439.0</ele></trkpt>
  <trkpt lat="59.697325" lon="9.661992"><ele>436.0</ele></trkpt>
  <trkpt lat="59.697245" lon="9.662021"><ele>434.0</ele></trkpt>
  <trkpt lat="59.697171" lon="9.662004"><ele>433.0</ele></trkpt>
  <trkpt lat="59.697050" lon="9.661932"><ele>431.0</ele></trkpt>
  <trkpt lat="59.696967" lon="9.661911"><ele>429.0</ele></trkpt>
  <trkpt lat="59.696797" lon="9.661695"><ele>424.0</ele></trkpt>
  <trkpt lat="59.696714" lon="9.661694"><ele>421.0</ele></trkpt>
  <trkpt lat="59.696571" lon="9.661746"><ele>417.0</ele></trkpt>
  <trkpt lat="59.696539" lon="9.661798"><ele>416.0</ele></trkpt>
  <trkpt lat="59.696457" lon="9.661847"><ele>413.0</ele></trkpt>
  <trkpt lat="59.696299" lon="9.662002"><ele>408.0</ele></trkpt>
  <trkpt lat="59.696183" lon="9.662079"><ele>405.0</ele></trkpt>
  <trkpt lat="59.695934" lon="9.662292"><ele>402.0</ele></trkpt>
  <trkpt lat="59.695884" lon="9.662299"><ele>401.0</ele></trkpt>
  <trkpt lat="59.695845" lon="9.662208"><ele>399.0</ele></trkpt>
  <trkpt lat="59.695712" lon="9.662227"><ele>395.0</ele></trkpt>
  <trkpt lat="59.695622" lon="9.662204"><ele>392.0</ele></trkpt>
  <trkpt lat="59.695530" lon="9.662201"><ele>389.0</ele></trkpt>
  <trkpt lat="59.695405" lon="9.662119"><ele>385.0</ele></trkpt>
  <trkpt lat="59.695383" lon="9.662128"><ele>385.0</ele></trkpt>
  <trkpt lat="59.695306" lon="9.662295"><ele>384.0</ele></trkpt>
  <trkpt lat="59.695255" lon="9.662354"><ele>383.0</ele></trkpt>
  <trkpt lat="59.695093" lon="9.662322"><ele>381.0</ele></trkpt>
  <trkpt lat="59.695056" lon="9.662273"><ele>381.0</ele></trkpt>
  <trkpt lat="59.694945" lon="9.662380"><ele>380.0</ele></trkpt>
  <trkpt lat="59.694797" lon="9.662313"><ele>378.0</ele></trkpt>
  <trkpt lat="59.694668" lon="9.662287"><ele>376.0</ele></trkpt>
  <trkpt lat="59.694627" lon="9.662293"><ele>375.0</ele></trkpt>
 </trkseg></trk></gpx>