<?xml version="1.0" encoding="UTF-8"?>
<gpx version="1.1" creator="stikart_web trailguide-snapshot" xmlns="http://www.topografix.com/GPX/1/1">
 <trk><name>Langevannstoppen klatringen</name><desc>Fra Trailguide (trailguide.net), gradering: green. 2913 m, 7 m nedfart.</desc><trkseg>
  <trkpt lat="59.689903" lon="9.681028"><ele>254.0</ele></trkpt>
  <trkpt lat="59.689908" lon="9.680911"><ele>255.0</ele></trkpt>
  <trkpt lat="59.689986" lon="9.680590"><ele>257.0</ele></trkpt>
  <trkpt lat="59.690016" lon="9.680527"><ele>258.0</ele></trkpt>
  <trkpt lat="59.690088" lon="9.680432"><ele>259.0</ele></trkpt>
  <trkpt lat="59.690261" lon="9.680309"><ele>263.0</ele></trkpt>
  <trkpt lat="59.690457" lon="9.680427"><ele>262.0</ele></trkpt>
  <trkpt lat="59.690947" lon="9.680939"><ele>261.0</ele></trkpt>
  <trkpt lat="59.691126" lon="9.681035"><ele>261.0</ele></trkpt>
  <trkpt lat="59.691317" lon="9.681028"><ele>262.0</ele></trkpt>
  <trkpt lat="59.691510" lon="9.680966"><ele>265.0</ele></trkpt>
  <trkpt lat="59.691697" lon="9.680965"><ele>266.0</ele></trkpt>
  <trkpt lat="59.691870" lon="9.680861"><ele>269.0</ele></trkpt>
  <trkpt lat="59.692019" lon="9.680622"><ele>273.0</ele></trkpt>
  <trkpt lat="59.692158" lon="9.680250"><ele>277.0</ele></trkpt>
  <trkpt lat="59.692296" lon="9.679986"><ele>280.0</ele></trkpt>
  <trkpt lat="59.692650" lon="9.679718"><ele>282.0</ele></trkpt>
  <trkpt lat="59.692980" lon="9.679417"><ele>285.0</ele></trkpt>
  <trkpt lat="59.693160" lon="9.679309"><ele>287.0</ele></trkpt>
  <trkpt lat="59.693473" lon="9.679000"><ele>292.0</ele></trkpt>
  <trkpt lat="59.693647" lon="9.678902"><ele>293.0</ele></trkpt>
  <trkpt lat="59.693832" lon="9.678958"><ele>294.0</ele></trkpt>
  <trkpt lat="59.694016" lon="9.679057"><ele>295.0</ele></trkpt>
  <trkpt lat="59.694100" lon="9.679127"><ele>295.0</ele></trkpt>
  <trkpt lat="59.694393" lon="9.679604"><ele>293.0</ele></trkpt>
  <trkpt lat="59.694545" lon="9.679806"><ele>292.0</ele></trkpt>
  <trkpt lat="59.694726" lon="9.679919"><ele>294.0</ele></trkpt>
  <trkpt lat="59.694908" lon="9.679890"><ele>298.0</ele></trkpt>
  <trkpt lat="59.695273" lon="9.679790"><ele>306.0</ele></trkpt>
  <trkpt lat="59.695467" lon="9.679753"><ele>309.0</ele></trkpt>
  <trkpt lat="59.695660" lon="9.679759"><ele>310.0</ele></trkpt>
  <trkpt lat="59.695843" lon="9.679744"><ele>311.0</ele></trkpt>
  <trkpt lat="59.696024" lon="9.679639"><ele>313.0</ele></trkpt>
  <trkpt lat="59.696182" lon="9.679434"><ele>315.0</ele></trkpt>
  <trkpt lat="59.696355" lon="9.679273"><ele>316.0</ele></trkpt>
  <trkpt lat="59.696536" lon="9.679218"><ele>317.0</ele></trkpt>
  <trkpt lat="59.696721" lon="9.679219"><ele>317.0</ele></trkpt>
  <trkpt lat="59.696852" lon="9.679293"><ele>317.0</ele></trkpt>
  <trkpt lat="59.696971" lon="9.679178"><ele>318.0</ele></trkpt>
  <trkpt lat="59.697109" lon="9.678927"><ele>319.0</ele></trkpt>
  <trkpt lat="59.697383" lon="9.678574"><ele>322.0</ele></trkpt>
  <trkpt lat="59.697558" lon="9.678471"><ele>325.0</ele></trkpt>
  <trkpt lat="59.697748" lon="9.678383"><ele>327.0</ele></trkpt>
  <trkpt lat="59.698144" lon="9.678042"><ele>332.0</ele></trkpt>
  <trkpt lat="59.698262" lon="9.677980"><ele>333.0</ele></trkpt>
  <trkpt lat="59.698459" lon="9.677841"><ele>335.0</ele></trkpt>
  <trkpt lat="59.698610" lon="9.677688"><ele>337.0</ele></trkpt>
  <trkpt lat="59.698687" lon="9.677574"><ele>339.0</ele></trkpt>
  <trkpt lat="59.698866" lon="9.677485"><ele>340.0</ele></trkpt>
  <trkpt lat="59.699211" lon="9.677536"><ele>340.0</ele></trkpt>
  <trkpt lat="59.699470" lon="9.677505"><ele>340.0</ele></trkpt>
  <trkpt lat="59.699528" lon="9.677536"><ele>340.0</ele></trkpt>
  <trkpt lat="59.699707" lon="9.677584"><ele>340.0</ele></trkpt>
  <trkpt lat="59.699894" lon="9.677588"><ele>342.0</ele></trkpt>
  <trkpt lat="59.699999" lon="9.677526"><ele>343.0</ele></trkpt>
  <trkpt lat="59.700091" lon="9.677500"><ele>344.0</ele></trkpt>
  <trkpt lat="59.700200" lon="9.677500"><ele>345.0</ele></trkpt>
  <trkpt lat="59.700389" lon="9.677443"><ele>347.0</ele></trkpt>
  <trkpt lat="59.700715" lon="9.677430"><ele>350.0</ele></trkpt>
  <trkpt lat="59.700894" lon="9.677351"><ele>351.0</ele></trkpt>
  <trkpt lat="59.700925" lon="9.677320"><ele>352.0</ele></trkpt>
  <trkpt lat="59.701024" lon="9.677085"><ele>354.0</ele></trkpt>
  <trkpt lat="59.701089" lon="9.676759"><ele>358.0</ele></trkpt>
  <trkpt lat="59.701228" lon="9.676556"><ele>361.0</ele></trkpt>
  <trkpt lat="59.701401" lon="9.676543"><ele>363.0</ele></trkpt>
  <trkpt lat="59.701505" lon="9.676572"><ele>363.0</ele></trkpt>
  <trkpt lat="59.701602" lon="9.676550"><ele>364.0</ele></trkpt>
  <trkpt lat="59.701664" lon="9.676576"><ele>365.0</ele></trkpt>
  <trkpt lat="59.701694" lon="9.676564"><ele>365.0</ele></trkpt>
  <trkpt lat="59.701864" lon="9.676581"><ele>366.0</ele></trkpt>
  <trkpt lat="59.702039" lon="9.676619"><ele>368.0</ele></trkpt>
  <trkpt lat="59.702092" lon="9.676686"><ele>367.0</ele></trkpt>
  <trkpt lat="59.702255" lon="9.676504"><ele>370.0</ele></trkpt>
  <trkpt lat="59.702424" lon="9.676360"><ele>373.0</ele></trkpt>
  <trkpt lat="59.702572" lon="9.676261"><ele>375.0</ele></trkpt>
  <trkpt lat="59.702700" lon="9.676126"><ele>377.0</ele></trkpt>
  <trkpt lat="59.702848" lon="9.676002"><ele>379.0</ele></trkpt>
  <trkpt lat="59.702873" lon="9.675951"><ele>380.0</ele></trkpt>
  <trkpt lat="59.703042" lon="9.675793"><ele>382.0</ele></trkpt>
  <trkpt lat="59.703172" lon="9.675715"><ele>383.0</ele></trkpt>
  <trkpt lat="59.703415" lon="9.675498"><ele>386.0</ele></trkpt>
  <trkpt lat="59.703450" lon="9.675435"><ele>386.0</ele></trkpt>
  <trkpt lat="59.703460" lon="9.675313"><ele>387.0</ele></trkpt>
  <trkpt lat="59.703313" lon="9.674906"><ele>390.0</ele></trkpt>
  <trkpt lat="59.703185" lon="9.674674"><ele>391.0</ele></trkpt>
  <trkpt lat="59.703084" lon="9.674353"><ele>394.0</ele></trkpt>
  <trkpt lat="59.703065" lon="9.674261"><ele>394.0</ele></trkpt>
  <trkpt lat="59.703089" lon="9.673917"><ele>397.0</ele></trkpt>
  <trkpt lat="59.703117" lon="9.673724"><ele>398.0</ele></trkpt>
  <trkpt lat="59.703275" lon="9.673501"><ele>399.0</ele></trkpt>
  <trkpt lat="59.703471" lon="9.673350"><ele>399.0</ele></trkpt>
  <trkpt lat="59.703538" lon="9.673257"><ele>399.0</ele></trkpt>
  <trkpt lat="59.703724" lon="9.672789"><ele>399.0</ele></trkpt>
  <trkpt lat="59.703755" lon="9.672450"><ele>400.0</ele></trkpt>
  <trkpt lat="59.703711" lon="9.671787"><ele>403.0</ele></trkpt>
  <trkpt lat="59.703633" lon="9.671457"><ele>406.0</ele></trkpt>
  <trkpt lat="59.703320" lon="9.670596"><ele>413.0</ele></trkpt>
  <trkpt lat="59.703272" lon="9.670418"><ele>414.0</ele></trkpt>
  <trkpt lat="59.703226" lon="9.670403"><ele>415.0</ele></trkpt>
  <trkpt lat="59.703285" lon="9.670303"><ele>416.0</ele></trkpt>
  <trkpt lat="59.703328" lon="9.670296"><ele>415.0</ele></trkpt>
  <trkpt lat="59.703497" lon="9.670178"><ele>415.0</ele></trkpt>
  <trkpt lat="59.703817" lon="9.669887"><ele>418.0</ele></trkpt>
  <trkpt lat="59.703985" lon="9.669757"><ele>422.0</ele></trkpt>
  <trkpt lat="59.704498" lon="9.669433"><ele>433.0</ele></trkpt>
  <trkpt lat="59.704605" lon="9.669393"><ele>434.0</ele></trkpt>
  <trkpt lat="59.704755" lon="9.669222"><ele>438.0</ele></trkpt>
  <trkpt lat="59.705042" lon="9.668794"><ele>446.0</ele></trkpt>
  <trkpt lat="59.705202" lon="9.668622"><ele>450.0</ele></trkpt>
  <trkpt lat="59.705375" lon="9.668555"><ele>453.0</ele></trkpt>
  <trkpt lat="59.705555" lon="9.668508"><ele>455.0</ele></trkpt>
  <trkpt lat="59.705729" lon="9.668430"><ele>457.0</ele></trkpt>
  <trkpt lat="59.705907" lon="9.668445"><ele>457.0</ele></trkpt>
  <trkpt lat="59.706255" lon="9.668394"><ele>460.0</ele></trkpt>
  <trkpt lat="59.706411" lon="9.668231"><ele>462.0</ele></trkpt>
  <trkpt lat="59.706762" lon="9.667716"><ele>467.0</ele></trkpt>
  <trkpt lat="59.706926" lon="9.667655"><ele>467.0</ele></trkpt>
  <trkpt lat="59.707060" lon="9.667561"><ele>468.0</ele></trkpt>
  <trkpt lat="59.707107" lon="9.667489"><ele>469.0</ele></trkpt>
  <trkpt lat="59.707148" lon="9.667318"><ele>470.0</ele></trkpt>
  <trkpt lat="59.707066" lon="9.667222"><ele>471.0</ele></trkpt>
  <trkpt lat="59.706894" lon="9.667271"><ele>471.0</ele></trkpt>
  <trkpt lat="59.706724" lon="9.667429"><ele>470.0</ele></trkpt>
  <trkpt lat="59.706550" lon="9.667449"><ele>470.0</ele></trkpt>
  <trkpt lat="59.706407" lon="9.667267"><ele>472.0</ele></trkpt>
  <trkpt lat="59.706221" lon="9.667163"><ele>473.0</ele></trkpt>
  <trkpt lat="59.706021" lon="9.667099"><ele>474.0</ele></trkpt>
  <trkpt lat="59.705834" lon="9.667131"><ele>474.0</ele></trkpt>
  <trkpt lat="59.705661" lon="9.667052"><ele>476.0</ele></trkpt>
  <trkpt lat="59.705606" lon="9.666998"><ele>476.0</ele></trkpt>
  <trkpt lat="59.705480" lon="9.667036"><ele>476.0</ele></trkpt>
  <trkpt lat="59.705407" lon="9.667018"><ele>476.0</ele></trkpt>
  <trkpt lat="59.705341" lon="9.667062"><ele>476.0</ele></trkpt>
  <trkpt lat="59.705147" lon="9.667063"><ele>475.0</ele></trkpt>
  <trkpt lat="59.704886" lon="9.667260"><ele>472.0</ele></trkpt>
  <trkpt lat="59.704673" lon="9.667456"><ele>467.0</ele></trkpt>
  <trkpt lat="59.704658" lon="9.667422"><ele>468.0</ele></trkpt>
  <trkpt lat="59.704703" lon="9.667441"><ele>468.0</ele></trkpt>
  <trkpt lat="59.704818" lon="9.667306"><ele>471.0</ele></trkpt>
  <trkpt lat="59.704824" lon="9.667254"><ele>472.0</ele></trkpt>
  <trkpt lat="59.704801" lon="9.666987"><ele>475.0</ele></trkpt>
  <trkpt lat="59.704749" lon="9.666765"><ele>475.0</ele></trkpt>
  <trkpt lat="59.704845" lon="9.666906"><ele>475.0</ele></trkpt>
  <trkpt lat="59.704788" lon="9.666867"><ele>475.0</ele></trkpt>
  <trkpt lat="59.704719" lon="9.666589"><ele>476.0</ele></trkpt>
  <trkpt lat="59.704675" lon="9.666226"><ele>476.0</ele></trkpt>
  <trkpt lat="59.704710" lon="9.665984"><ele>477.0</ele></trkpt>
 </trkseg></trk></gpx>