<?xml version="1.0" encoding="UTF-8"?>
<gpx version="1.1" creator="stikart_web trailguide-snapshot" xmlns="http://www.topografix.com/GPX/1/1">
 <trk><name>Langevannskleiva</name><desc>Fra Trailguide (trailguide.net), gradering: red. 693 m, 109 m nedfart.</desc><trkseg>
  <trkpt lat="59.700705" lon="9.662364"><ele>495.0</ele></trkpt>
  <trkpt lat="59.700881" lon="9.662134"><ele>490.0</ele></trkpt>
  <trkpt lat="59.700876" lon="9.661996"><ele>486.0</ele></trkpt>
  <trkpt lat="59.700904" lon="9.661790"><ele>482.0</ele></trkpt>
  <trkpt lat="59.700879" lon="9.661717"><ele>480.0</ele></trkpt>
  <trkpt lat="59.700639" lon="9.661483"><ele>474.0</ele></trkpt>
  <trkpt lat="59.700575" lon="9.661354"><ele>472.0</ele></trkpt>
  <trkpt lat="59.700464" lon="9.661190"><ele>468.0</ele></trkpt>
  <trkpt lat="59.700319" lon="9.661018"><ele>464.0</ele></trkpt>
  <trkpt lat="59.700199" lon="9.660939"><ele>461.0</ele></trkpt>
  <trkpt lat="59.700159" lon="9.660833"><ele>460.0</ele></trkpt>
  <trkpt lat="59.700085" lon="9.660784"><ele>459.0</ele></trkpt>
  <trkpt lat="59.700047" lon="9.660709"><ele>458.0</ele></trkpt>
  <trkpt lat="59.699971" lon="9.660642"><ele>456.0</ele></trkpt>
  <trkpt lat="59.699936" lon="9.660630"><ele>456.0</ele></trkpt>
  <trkpt lat="59.699906" lon="9.660656"><ele>455.0</ele></trkpt>
  <trkpt lat="59.699847" lon="9.660588"><ele>454.0</ele></trkpt>
  <trkpt lat="59.699675" lon="9.660613"><ele>450.0</ele></trkpt>
  <trkpt lat="59.699641" lon="9.660579"><ele>449.0</ele></trkpt>
  <trkpt lat="59.699576" lon="9.660568"><ele>449.0</ele></trkpt>
  <trkpt lat="59.699544" lon="9.660520"><ele>448.0</ele></trkpt>
  <trkpt lat="59.699398" lon="9.660395"><ele>445.0</ele></trkpt>
  <trkpt lat="59.699384" lon="9.660202"><ele>441.0</ele></trkpt>
  <trkpt lat="59.699338" lon="9.660171"><ele>439.0</ele></trkpt>
  <trkpt lat="59.699296" lon="9.660195"><ele>438.0</ele></trkpt>
  <trkpt lat="59.699173" lon="9.660032"><ele>434.0</ele></trkpt>
  <trkpt lat="59.699108" lon="9.659992"><ele>431.0</ele></trkpt>
  <trkpt lat="59.699045" lon="9.659990"><ele>430.0</ele></trkpt>
  <trkpt lat="59.699013" lon="9.659968"><ele>428.0</ele></trkpt>
  <trkpt lat="59.698921" lon="9.659833"><ele>422.0</ele></trkpt>
  <trkpt lat="59.698788" lon="9.659791"><ele>416.0</ele></trkpt>
  <trkpt lat="59.698752" lon="9.659761"><ele>414.0</ele></trkpt>
  <trkpt lat="59.698633" lon="9.659575"><ele>410.0</ele></trkpt>
  <trkpt lat="59.698544" lon="9.659553"><ele>409.0</ele></trkpt>
  <trkpt lat="59.698481" lon="9.659478"><ele>409.0</ele></trkpt>
  <trkpt lat="59.698448" lon="9.659463"><ele>409.0</ele></trkpt>
  <trkpt lat="59.698379" lon="9.659467"><ele>408.0</ele></trkpt>
  <trkpt lat="59.698266" lon="9.659405"><ele>407.0</ele></trkpt>
  <trkpt lat="59.698128" lon="9.659387"><ele>405.0</ele></trkpt>
  <trkpt lat="59.698026" lon="9.659347"><ele>404.0</ele></trkpt>
  <trkpt lat="59.697925" lon="9.659360"><ele>403.0</ele></trkpt>
  <trkpt lat="59.697899" lon="9.659400"><ele>403.0</ele></trkpt>
  <trkpt lat="59.697834" lon="9.659383"><ele>403.0</ele></trkpt>
  <trkpt lat="59.697745" lon="9.659325"><ele>402.0</ele></trkpt>
  <trkpt lat="59.697588" lon="9.659280"><ele>401.0</ele></trkpt>
  <trkpt lat="59.697373" lon="9.659321"><ele>397.0</ele></trkpt>
  <trkpt lat="59.697309" lon="9.659277"><ele>396.0</ele></trkpt>
  <trkpt lat="59.697170" lon="9.659264"><ele>393.0</ele></trkpt>
  <trkpt lat="59.697069" lon="9.659334"><ele>392.0</ele></trkpt>
  <trkpt lat="59.696875" lon="9.659411"><ele>390.0</ele></trkpt>
  <trkpt lat="59.696804" lon="9.659398"><ele>390.0</ele></trkpt>
  <trkpt lat="59.696669" lon="9.659324"><ele>389.0</ele></trkpt>
  <trkpt lat="59.696621" lon="9.659331"><ele>389.0</ele></trkpt>
  <trkpt lat="59.696552" lon="9.659389"><ele>388.0</ele></trkpt>
  <trkpt lat="59.696507" lon="9.659485"><ele>388.0</ele></trkpt>
  <trkpt lat="59.696412" lon="9.659524"><ele>388.0</ele></trkpt>
  <trkpt lat="59.696284" lon="9.659608"><ele>387.0</ele></trkpt>
  <trkpt lat="59.696173" lon="9.659643"><ele>386.0</ele></trkpt>
  <trkpt lat="59.696100" lon="9.659760"><ele>385.0</ele></trkpt>
  <trkpt lat="59.695876" lon="9.659879"><ele>384.0</ele></trkpt>
  <trkpt lat="59.695761" lon="9.660052"><ele>382.0</ele></trkpt>
  <trkpt lat="59.695733" lon="9.660071"><ele>382.0</ele></trkpt>
  <trkpt lat="59.695691" lon="9.660061"><ele>382.0</ele></trkpt>
  <trkpt lat="59.695661" lon="9.660100"><ele>381.0</ele></trkpt>
  <trkpt lat="59.695618" lon="9.660118"><ele>381.0</ele></trkpt>
 </trkseg></trk></gpx>