<?xml version="1.0" encoding="UTF-8"?>
<gpx version="1.1" creator="stikart_web trailguide-snapshot" xmlns="http://www.topografix.com/GPX/1/1">
 <trk><name>Malmkleiva</name><desc>Fra Trailguide (trailguide.net), gradering: blue. 2503 m, 165 m nedfart.</desc><trkseg>
  <trkpt lat="59.655850" lon="9.552368"><ele>552.0</ele></trkpt>
  <trkpt lat="59.655746" lon="9.552738"><ele>551.0</ele></trkpt>
  <trkpt lat="59.655447" lon="9.553087"><ele>549.0</ele></trkpt>
  <trkpt lat="59.655013" lon="9.553489"><ele>547.0</ele></trkpt>
  <trkpt lat="59.654616" lon="9.553945"><ele>543.0</ele></trkpt>
  <trkpt lat="59.654332" lon="9.553308"><ele>541.0</ele></trkpt>
  <trkpt lat="59.654046" lon="9.553126"><ele>538.0</ele></trkpt>
  <trkpt lat="59.653643" lon="9.552664"><ele>533.0</ele></trkpt>
  <trkpt lat="59.653435" lon="9.552546"><ele>530.0</ele></trkpt>
  <trkpt lat="59.653020" lon="9.552621"><ele>525.0</ele></trkpt>
  <trkpt lat="59.652693" lon="9.552439"><ele>522.0</ele></trkpt>
  <trkpt lat="59.652477" lon="9.552503"><ele>519.0</ele></trkpt>
  <trkpt lat="59.652248" lon="9.552423"><ele>516.0</ele></trkpt>
  <trkpt lat="59.652111" lon="9.552106"><ele>518.0</ele></trkpt>
  <trkpt lat="59.651137" lon="9.550722"><ele>520.0</ele></trkpt>
  <trkpt lat="59.650886" lon="9.550717"><ele>516.0</ele></trkpt>
  <trkpt lat="59.650402" lon="9.550610"><ele>511.0</ele></trkpt>
  <trkpt lat="59.650178" lon="9.550540"><ele>508.0</ele></trkpt>
  <trkpt lat="59.649737" lon="9.550755"><ele>500.0</ele></trkpt>
  <trkpt lat="59.649427" lon="9.550492"><ele>497.0</ele></trkpt>
  <trkpt lat="59.649138" lon="9.550057"><ele>496.0</ele></trkpt>
  <trkpt lat="59.648589" lon="9.548652"><ele>494.0</ele></trkpt>
  <trkpt lat="59.648251" lon="9.548389"><ele>489.0</ele></trkpt>
  <trkpt lat="59.648006" lon="9.548330"><ele>483.0</ele></trkpt>
  <trkpt lat="59.647886" lon="9.548099"><ele>482.0</ele></trkpt>
  <trkpt lat="59.647668" lon="9.547965"><ele>478.0</ele></trkpt>
  <trkpt lat="59.647445" lon="9.547606"><ele>476.0</ele></trkpt>
  <trkpt lat="59.647330" lon="9.547139"><ele>477.0</ele></trkpt>
  <trkpt lat="59.647182" lon="9.546447"><ele>478.0</ele></trkpt>
  <trkpt lat="59.647062" lon="9.545787"><ele>479.0</ele></trkpt>
  <trkpt lat="59.646904" lon="9.545106"><ele>477.0</ele></trkpt>
  <trkpt lat="59.646810" lon="9.544489"><ele>477.0</ele></trkpt>
  <trkpt lat="59.646674" lon="9.544205"><ele>474.0</ele></trkpt>
  <trkpt lat="59.646526" lon="9.544006"><ele>473.0</ele></trkpt>
  <trkpt lat="59.646411" lon="9.543475"><ele>474.0</ele></trkpt>
  <trkpt lat="59.646307" lon="9.543330"><ele>473.0</ele></trkpt>
  <trkpt lat="59.646219" lon="9.543142"><ele>472.0</ele></trkpt>
  <trkpt lat="59.646045" lon="9.543062"><ele>470.0</ele></trkpt>
  <trkpt lat="59.645811" lon="9.543250"><ele>466.0</ele></trkpt>
  <trkpt lat="59.645721" lon="9.543556"><ele>464.0</ele></trkpt>
  <trkpt lat="59.645740" lon="9.544103"><ele>461.0</ele></trkpt>
  <trkpt lat="59.645901" lon="9.544564"><ele>459.0</ele></trkpt>
  <trkpt lat="59.645866" lon="9.545240"><ele>454.0</ele></trkpt>
  <trkpt lat="59.645907" lon="9.545530"><ele>453.0</ele></trkpt>
  <trkpt lat="59.645775" lon="9.546227"><ele>447.0</ele></trkpt>
  <trkpt lat="59.645718" lon="9.547032"><ele>442.0</ele></trkpt>
  <trkpt lat="59.645261" lon="9.547922"><ele>431.0</ele></trkpt>
  <trkpt lat="59.645020" lon="9.547997"><ele>428.0</ele></trkpt>
  <trkpt lat="59.644725" lon="9.547514"><ele>427.0</ele></trkpt>
  <trkpt lat="59.644452" lon="9.547139"><ele>424.0</ele></trkpt>
  <trkpt lat="59.644092" lon="9.547300"><ele>418.0</ele></trkpt>
  <trkpt lat="59.643927" lon="9.547976"><ele>415.0</ele></trkpt>
  <trkpt lat="59.644066" lon="9.549489"><ele>415.0</ele></trkpt>
  <trkpt lat="59.644324" lon="9.551087"><ele>418.0</ele></trkpt>
  <trkpt lat="59.644582" lon="9.551699"><ele>415.0</ele></trkpt>
  <trkpt lat="59.645046" lon="9.552675"><ele>404.0</ele></trkpt>
  <trkpt lat="59.645272" lon="9.554638"><ele>395.0</ele></trkpt>
  <trkpt lat="59.645421" lon="9.555722"><ele>390.0</ele></trkpt>
  <trkpt lat="59.645658" lon="9.556226"><ele>385.0</ele></trkpt>
  <trkpt lat="59.646252" lon="9.556022"><ele>386.0</ele></trkpt>
 </trkseg></trk></gpx>