<?xml version="1.0" encoding="UTF-8"?>
<gpx version="1.1" creator="stikart_web trailguide-snapshot" xmlns="http://www.topografix.com/GPX/1/1">
 <trk><name>Persløkka - Rundvann</name><desc>Fra Trailguide (trailguide.net), gradering: blue. 1195 m, 18 m nedfart.</desc><trkseg>
  <trkpt lat="59.666240" lon="9.625370"><ele>274.0</ele></trkpt>
  <trkpt lat="59.666430" lon="9.625240"><ele>274.0</ele></trkpt>
  <trkpt lat="59.666730" lon="9.625110"><ele>274.0</ele></trkpt>
  <trkpt lat="59.667430" lon="9.624270"><ele>280.0</ele></trkpt>
  <trkpt lat="59.667490" lon="9.624170"><ele>280.0</ele></trkpt>
  <trkpt lat="59.667490" lon="9.624180"><ele>280.0</ele></trkpt>
  <trkpt lat="59.667770" lon="9.623620"><ele>280.0</ele></trkpt>
  <trkpt lat="59.667990" lon="9.623400"><ele>281.0</ele></trkpt>
  <trkpt lat="59.668720" lon="9.623140"><ele>286.0</ele></trkpt>
  <trkpt lat="59.668930" lon="9.622890"><ele>287.0</ele></trkpt>
  <trkpt lat="59.669340" lon="9.622890"><ele>292.0</ele></trkpt>
  <trkpt lat="59.669460" lon="9.622750"><ele>292.0</ele></trkpt>
  <trkpt lat="59.669550" lon="9.622720"><ele>292.0</ele></trkpt>
  <trkpt lat="59.669750" lon="9.622510"><ele>292.0</ele></trkpt>
  <trkpt lat="59.670200" lon="9.622280"><ele>295.0</ele></trkpt>
  <trkpt lat="59.670500" lon="9.622240"><ele>298.0</ele></trkpt>
  <trkpt lat="59.670700" lon="9.622150"><ele>298.0</ele></trkpt>
  <trkpt lat="59.670740" lon="9.621940"><ele>294.0</ele></trkpt>
  <trkpt lat="59.670880" lon="9.621890"><ele>295.0</ele></trkpt>
  <trkpt lat="59.671810" lon="9.620650"><ele>299.0</ele></trkpt>
  <trkpt lat="59.671970" lon="9.620640"><ele>302.0</ele></trkpt>
  <trkpt lat="59.672100" lon="9.620580"><ele>303.0</ele></trkpt>
  <trkpt lat="59.672290" lon="9.620420"><ele>304.0</ele></trkpt>
  <trkpt lat="59.672510" lon="9.620110"><ele>303.0</ele></trkpt>
  <trkpt lat="59.672570" lon="9.619840"><ele>302.0</ele></trkpt>
  <trkpt lat="59.672660" lon="9.619750"><ele>304.0</ele></trkpt>
  <trkpt lat="59.672710" lon="9.619570"><ele>305.0</ele></trkpt>
  <trkpt lat="59.673360" lon="9.619420"><ele>314.0</ele></trkpt>
  <trkpt lat="59.673390" lon="9.619320"><ele>315.0</ele></trkpt>
  <trkpt lat="59.673650" lon="9.618980"><ele>318.0</ele></trkpt>
  <trkpt lat="59.673780" lon="9.618670"><ele>318.0</ele></trkpt>
  <trkpt lat="59.674110" lon="9.618310"><ele>320.0</ele></trkpt>
  <trkpt lat="59.674100" lon="9.618300"><ele>320.0</ele></trkpt>
  <trkpt lat="59.674110" lon="9.618310"><ele>320.0</ele></trkpt>
  <trkpt lat="59.674160" lon="9.618250"><ele>320.0</ele></trkpt>
  <trkpt lat="59.674260" lon="9.618350"><ele>321.0</ele></trkpt>
  <trkpt lat="59.674340" lon="9.618350"><ele>321.0</ele></trkpt>
  <trkpt lat="59.674440" lon="9.618280"><ele>320.0</ele></trkpt>
  <trkpt lat="59.674690" lon="9.618240"><ele>318.0</ele></trkpt>
  <trkpt lat="59.674750" lon="9.618260"><ele>318.0</ele></trkpt>
  <trkpt lat="59.674780" lon="9.618240"><ele>318.0</ele></trkpt>
  <trkpt lat="59.674860" lon="9.618270"><ele>318.0</ele></trkpt>
  <trkpt lat="59.674930" lon="9.618180"><ele>317.0</ele></trkpt>
  <trkpt lat="59.675450" lon="9.618070"><ele>307.0</ele></trkpt>
  <trkpt lat="59.675700" lon="9.618070"><ele>303.0</ele></trkpt>
  <trkpt lat="59.675780" lon="9.618190"><ele>302.0</ele></trkpt>
 </trkseg></trk></gpx>