<?xml version="1.0" encoding="UTF-8"?>
<gpx version="1.1" creator="stikart_web trailguide-snapshot" xmlns="http://www.topografix.com/GPX/1/1">
 <trk><name>Rundtjern - Storåsen over Høgda</name><desc>Fra Trailguide (trailguide.net), gradering: blue. 397 m, 3 m nedfart.</desc><trkseg>
  <trkpt lat="59.676332" lon="9.618275"><ele>299.0</ele></trkpt>
  <trkpt lat="59.676280" lon="9.618278"><ele>299.1</ele></trkpt>
  <trkpt lat="59.676205" lon="9.618194"><ele>299.4</ele></trkpt>
  <trkpt lat="59.676123" lon="9.618208"><ele>300.8</ele></trkpt>
  <trkpt lat="59.676003" lon="9.618278"><ele>303.2</ele></trkpt>
  <trkpt lat="59.675839" lon="9.618301"><ele>306.1</ele></trkpt>
  <trkpt lat="59.675786" lon="9.618625"><ele>309.8</ele></trkpt>
  <trkpt lat="59.675662" lon="9.618863"><ele>313.9</ele></trkpt>
  <trkpt lat="59.675555" lon="9.618949"><ele>316.6</ele></trkpt>
  <trkpt lat="59.675494" lon="9.618963"><ele>318.0</ele></trkpt>
  <trkpt lat="59.675407" lon="9.619026"><ele>320.0</ele></trkpt>
  <trkpt lat="59.675350" lon="9.619037"><ele>320.3</ele></trkpt>
  <trkpt lat="59.675196" lon="9.619213"><ele>322.1</ele></trkpt>
  <trkpt lat="59.675146" lon="9.619343"><ele>323.2</ele></trkpt>
  <trkpt lat="59.675083" lon="9.619866"><ele>327.6</ele></trkpt>
  <trkpt lat="59.674983" lon="9.620110"><ele>330.0</ele></trkpt>
  <trkpt lat="59.674917" lon="9.620219"><ele>331.1</ele></trkpt>
  <trkpt lat="59.674872" lon="9.620373"><ele>332.6</ele></trkpt>
  <trkpt lat="59.674781" lon="9.620506"><ele>333.5</ele></trkpt>
  <trkpt lat="59.674690" lon="9.620584"><ele>334.1</ele></trkpt>
  <trkpt lat="59.674620" lon="9.620708"><ele>334.9</ele></trkpt>
  <trkpt lat="59.674475" lon="9.620822"><ele>333.6</ele></trkpt>
  <trkpt lat="59.674416" lon="9.620891"><ele>332.9</ele></trkpt>
  <trkpt lat="59.674288" lon="9.621056"><ele>331.8</ele></trkpt>
  <trkpt lat="59.674281" lon="9.621110"><ele>332.1</ele></trkpt>
  <trkpt lat="59.674253" lon="9.621092"><ele>331.5</ele></trkpt>
  <trkpt lat="59.674195" lon="9.621133"><ele>331.0</ele></trkpt>
  <trkpt lat="59.674128" lon="9.621299"><ele>331.4</ele></trkpt>
  <trkpt lat="59.674009" lon="9.621918"><ele>335.7</ele></trkpt>
  <trkpt lat="59.673947" lon="9.622058"><ele>336.7</ele></trkpt>
  <trkpt lat="59.673835" lon="9.622220"><ele>336.6</ele></trkpt>
  <trkpt lat="59.673798" lon="9.622268"><ele>336.6</ele></trkpt>
 </trkseg></trk></gpx>