<?xml version="1.0" encoding="UTF-8"?>
<gpx version="1.1" creator="stikart_web trailguide-snapshot" xmlns="http://www.topografix.com/GPX/1/1">
 <trk><name>Sachsen - Granatdammen</name><desc>Fra Trailguide (trailguide.net), gradering: blue. 797 m, 28 m nedfart.</desc><trkseg>
  <trkpt lat="59.665207" lon="9.580583"><ele>599.5</ele></trkpt>
  <trkpt lat="59.665080" lon="9.580760"><ele>599.8</ele></trkpt>
  <trkpt lat="59.664900" lon="9.580929"><ele>600.2</ele></trkpt>
  <trkpt lat="59.664865" lon="9.580943"><ele>600.3</ele></trkpt>
  <trkpt lat="59.664628" lon="9.580905"><ele>600.9</ele></trkpt>
  <trkpt lat="59.664499" lon="9.580964"><ele>600.9</ele></trkpt>
  <trkpt lat="59.664329" lon="9.580996"><ele>600.8</ele></trkpt>
  <trkpt lat="59.664142" lon="9.581103"><ele>600.8</ele></trkpt>
  <trkpt lat="59.663949" lon="9.581189"><ele>600.9</ele></trkpt>
  <trkpt lat="59.663836" lon="9.581280"><ele>601.1</ele></trkpt>
  <trkpt lat="59.663687" lon="9.581497"><ele>601.5</ele></trkpt>
  <trkpt lat="59.663485" lon="9.581666"><ele>601.4</ele></trkpt>
  <trkpt lat="59.663206" lon="9.582126"><ele>603.8</ele></trkpt>
  <trkpt lat="59.663075" lon="9.582309"><ele>603.0</ele></trkpt>
  <trkpt lat="59.662951" lon="9.582320"><ele>603.1</ele></trkpt>
  <trkpt lat="59.662827" lon="9.582260"><ele>602.0</ele></trkpt>
  <trkpt lat="59.662649" lon="9.582400"><ele>599.0</ele></trkpt>
  <trkpt lat="59.662603" lon="9.582452"><ele>598.2</ele></trkpt>
  <trkpt lat="59.662538" lon="9.582603"><ele>597.2</ele></trkpt>
  <trkpt lat="59.662497" lon="9.582633"><ele>596.6</ele></trkpt>
  <trkpt lat="59.662371" lon="9.582604"><ele>595.0</ele></trkpt>
  <trkpt lat="59.662203" lon="9.582671"><ele>592.9</ele></trkpt>
  <trkpt lat="59.662086" lon="9.582822"><ele>591.8</ele></trkpt>
  <trkpt lat="59.661941" lon="9.582917"><ele>589.4</ele></trkpt>
  <trkpt lat="59.661882" lon="9.582981"><ele>588.8</ele></trkpt>
  <trkpt lat="59.661853" lon="9.583174"><ele>589.5</ele></trkpt>
  <trkpt lat="59.661827" lon="9.583233"><ele>589.5</ele></trkpt>
  <trkpt lat="59.661482" lon="9.583583"><ele>588.2</ele></trkpt>
  <trkpt lat="59.661436" lon="9.583653"><ele>588.5</ele></trkpt>
  <trkpt lat="59.661350" lon="9.583690"><ele>588.1</ele></trkpt>
  <trkpt lat="59.661237" lon="9.583697"><ele>587.0</ele></trkpt>
  <trkpt lat="59.661119" lon="9.583729"><ele>585.2</ele></trkpt>
  <trkpt lat="59.660901" lon="9.583828"><ele>581.5</ele></trkpt>
  <trkpt lat="59.660802" lon="9.583917"><ele>580.0</ele></trkpt>
  <trkpt lat="59.660707" lon="9.584054"><ele>578.9</ele></trkpt>
  <trkpt lat="59.660658" lon="9.584174"><ele>578.7</ele></trkpt>
  <trkpt lat="59.660631" lon="9.584341"><ele>579.1</ele></trkpt>
  <trkpt lat="59.660628" lon="9.584752"><ele>581.1</ele></trkpt>
  <trkpt lat="59.660614" lon="9.584837"><ele>581.5</ele></trkpt>
  <trkpt lat="59.660573" lon="9.584891"><ele>581.4</ele></trkpt>
  <trkpt lat="59.660114" lon="9.585151"><ele>579.5</ele></trkpt>
  <trkpt lat="59.660067" lon="9.585150"><ele>579.1</ele></trkpt>
  <trkpt lat="59.660050" lon="9.585105"><ele>578.7</ele></trkpt>
  <trkpt lat="59.660013" lon="9.585092"><ele>578.3</ele></trkpt>
  <trkpt lat="59.659945" lon="9.585118"><ele>577.9</ele></trkpt>
  <trkpt lat="59.659905" lon="9.585272"><ele>578.7</ele></trkpt>
  <trkpt lat="59.659797" lon="9.585501"><ele>578.7</ele></trkpt>
  <trkpt lat="59.659588" lon="9.585759"><ele>577.4</ele></trkpt>
  <trkpt lat="59.659451" lon="9.585765"><ele>576.9</ele></trkpt>
  <trkpt lat="59.659343" lon="9.585791"><ele>576.6</ele></trkpt>
  <trkpt lat="59.659242" lon="9.585723"><ele>576.0</ele></trkpt>
  <trkpt lat="59.659189" lon="9.585734"><ele>575.8</ele></trkpt>
  <trkpt lat="59.659133" lon="9.585773"><ele>575.7</ele></trkpt>
  <trkpt lat="59.659086" lon="9.585841"><ele>575.7</ele></trkpt>
 </trkseg></trk></gpx>