<?xml version="1.0" encoding="UTF-8"?>
<gpx version="1.1" creator="stikart_web trailguide-snapshot" xmlns="http://www.topografix.com/GPX/1/1">
 <trk><name>Sachsen 3</name><desc>Fra Trailguide (trailguide.net), gradering: red. 2025 m, 273 m nedfart.</desc><trkseg>
  <trkpt lat="59.672033" lon="9.577956"><ele>598.8</ele></trkpt>
  <trkpt lat="59.672103" lon="9.577937"><ele>598.7</ele></trkpt>
  <trkpt lat="59.672463" lon="9.578146"><ele>594.2</ele></trkpt>
  <trkpt lat="59.672652" lon="9.578187"><ele>592.1</ele></trkpt>
  <trkpt lat="59.672865" lon="9.578209"><ele>589.8</ele></trkpt>
  <trkpt lat="59.673125" lon="9.578195"><ele>586.7</ele></trkpt>
  <trkpt lat="59.673300" lon="9.578133"><ele>584.7</ele></trkpt>
  <trkpt lat="59.673602" lon="9.578086"><ele>580.9</ele></trkpt>
  <trkpt lat="59.673860" lon="9.578181"><ele>577.4</ele></trkpt>
  <trkpt lat="59.674077" lon="9.578208"><ele>574.2</ele></trkpt>
  <trkpt lat="59.674248" lon="9.578056"><ele>571.7</ele></trkpt>
  <trkpt lat="59.674320" lon="9.578012"><ele>570.7</ele></trkpt>
  <trkpt lat="59.674416" lon="9.578090"><ele>569.2</ele></trkpt>
  <trkpt lat="59.674537" lon="9.578242"><ele>567.3</ele></trkpt>
  <trkpt lat="59.674700" lon="9.578397"><ele>563.7</ele></trkpt>
  <trkpt lat="59.674869" lon="9.578388"><ele>559.9</ele></trkpt>
  <trkpt lat="59.675037" lon="9.578201"><ele>556.5</ele></trkpt>
  <trkpt lat="59.675235" lon="9.578161"><ele>552.2</ele></trkpt>
  <trkpt lat="59.675457" lon="9.578163"><ele>547.2</ele></trkpt>
  <trkpt lat="59.675528" lon="9.578251"><ele>545.3</ele></trkpt>
  <trkpt lat="59.675618" lon="9.578665"><ele>541.7</ele></trkpt>
  <trkpt lat="59.675639" lon="9.578959"><ele>539.9</ele></trkpt>
  <trkpt lat="59.675533" lon="9.579258"><ele>540.9</ele></trkpt>
  <trkpt lat="59.675502" lon="9.579573"><ele>540.1</ele></trkpt>
  <trkpt lat="59.675543" lon="9.580239"><ele>535.9</ele></trkpt>
  <trkpt lat="59.675826" lon="9.581185"><ele>524.5</ele></trkpt>
  <trkpt lat="59.675887" lon="9.581548"><ele>520.9</ele></trkpt>
  <trkpt lat="59.675896" lon="9.581975"><ele>518.2</ele></trkpt>
  <trkpt lat="59.675807" lon="9.582315"><ele>518.6</ele></trkpt>
  <trkpt lat="59.675746" lon="9.582919"><ele>515.9</ele></trkpt>
  <trkpt lat="59.675869" lon="9.583399"><ele>508.8</ele></trkpt>
  <trkpt lat="59.675882" lon="9.583716"><ele>506.0</ele></trkpt>
  <trkpt lat="59.675858" lon="9.583991"><ele>505.2</ele></trkpt>
  <trkpt lat="59.675872" lon="9.584171"><ele>504.0</ele></trkpt>
  <trkpt lat="59.675994" lon="9.584964"><ele>496.5</ele></trkpt>
  <trkpt lat="59.676116" lon="9.585559"><ele>489.8</ele></trkpt>
  <trkpt lat="59.676102" lon="9.585916"><ele>488.4</ele></trkpt>
  <trkpt lat="59.676122" lon="9.586498"><ele>485.0</ele></trkpt>
  <trkpt lat="59.676072" lon="9.586685"><ele>485.3</ele></trkpt>
  <trkpt lat="59.676176" lon="9.587440"><ele>477.7</ele></trkpt>
  <trkpt lat="59.676178" lon="9.587593"><ele>476.4</ele></trkpt>
  <trkpt lat="59.676229" lon="9.588040"><ele>471.3</ele></trkpt>
  <trkpt lat="59.676220" lon="9.588548"><ele>466.6</ele></trkpt>
  <trkpt lat="59.676162" lon="9.588892"><ele>464.4</ele></trkpt>
  <trkpt lat="59.676077" lon="9.589228"><ele>462.6</ele></trkpt>
  <trkpt lat="59.676016" lon="9.589714"><ele>458.7</ele></trkpt>
  <trkpt lat="59.676089" lon="9.590056"><ele>452.9</ele></trkpt>
  <trkpt lat="59.676238" lon="9.590311"><ele>445.6</ele></trkpt>
  <trkpt lat="59.676317" lon="9.590717"><ele>441.2</ele></trkpt>
  <trkpt lat="59.676387" lon="9.591444"><ele>433.9</ele></trkpt>
  <trkpt lat="59.676509" lon="9.591737"><ele>430.7</ele></trkpt>
  <trkpt lat="59.676545" lon="9.591782"><ele>430.3</ele></trkpt>
  <trkpt lat="59.676578" lon="9.592028"><ele>427.6</ele></trkpt>
  <trkpt lat="59.676581" lon="9.592016"><ele>427.7</ele></trkpt>
  <trkpt lat="59.676543" lon="9.592070"><ele>427.1</ele></trkpt>
  <trkpt lat="59.676522" lon="9.592258"><ele>425.3</ele></trkpt>
  <trkpt lat="59.676438" lon="9.592572"><ele>422.7</ele></trkpt>
  <trkpt lat="59.676338" lon="9.592813"><ele>421.2</ele></trkpt>
  <trkpt lat="59.676209" lon="9.593202"><ele>419.6</ele></trkpt>
  <trkpt lat="59.676206" lon="9.593301"><ele>418.9</ele></trkpt>
  <trkpt lat="59.676296" lon="9.593631"><ele>415.2</ele></trkpt>
  <trkpt lat="59.676506" lon="9.594041"><ele>408.8</ele></trkpt>
  <trkpt lat="59.676637" lon="9.594235"><ele>404.9</ele></trkpt>
  <trkpt lat="59.676825" lon="9.594355"><ele>400.4</ele></trkpt>
  <trkpt lat="59.676867" lon="9.594351"><ele>399.7</ele></trkpt>
  <trkpt lat="59.677059" lon="9.594208"><ele>397.9</ele></trkpt>
  <trkpt lat="59.677217" lon="9.594128"><ele>398.3</ele></trkpt>
  <trkpt lat="59.677322" lon="9.594375"><ele>394.7</ele></trkpt>
  <trkpt lat="59.677355" lon="9.594671"><ele>390.5</ele></trkpt>
  <trkpt lat="59.677239" lon="9.595440"><ele>381.0</ele></trkpt>
  <trkpt lat="59.676959" lon="9.596056"><ele>378.2</ele></trkpt>
  <trkpt lat="59.676820" lon="9.596266"><ele>378.8</ele></trkpt>
  <trkpt lat="59.676747" lon="9.596339"><ele>379.5</ele></trkpt>
  <trkpt lat="59.676741" lon="9.596427"><ele>378.5</ele></trkpt>
  <trkpt lat="59.676721" lon="9.596430"><ele>378.9</ele></trkpt>
  <trkpt lat="59.676693" lon="9.596504"><ele>378.5</ele></trkpt>
  <trkpt lat="59.676590" lon="9.596885"><ele>375.9</ele></trkpt>
  <trkpt lat="59.676515" lon="9.597100"><ele>374.8</ele></trkpt>
  <trkpt lat="59.676501" lon="9.597240"><ele>373.6</ele></trkpt>
  <trkpt lat="59.676566" lon="9.597413"><ele>370.3</ele></trkpt>
  <trkpt lat="59.676627" lon="9.597518"><ele>367.9</ele></trkpt>
  <trkpt lat="59.676760" lon="9.597644"><ele>363.9</ele></trkpt>
  <trkpt lat="59.676830" lon="9.597801"><ele>361.0</ele></trkpt>
  <trkpt lat="59.676920" lon="9.598312"><ele>354.5</ele></trkpt>
  <trkpt lat="59.677086" lon="9.598694"><ele>348.4</ele></trkpt>
  <trkpt lat="59.677236" lon="9.598808"><ele>345.5</ele></trkpt>
  <trkpt lat="59.677407" lon="9.598807"><ele>343.1</ele></trkpt>
  <trkpt lat="59.677585" lon="9.598859"><ele>340.3</ele></trkpt>
  <trkpt lat="59.677735" lon="9.599113"><ele>337.1</ele></trkpt>
  <trkpt lat="59.677817" lon="9.599345"><ele>335.1</ele></trkpt>
  <trkpt lat="59.677772" lon="9.599500"><ele>335.1</ele></trkpt>
  <trkpt lat="59.677777" lon="9.599696"><ele>334.1</ele></trkpt>
  <trkpt lat="59.677818" lon="9.599862"><ele>332.8</ele></trkpt>
  <trkpt lat="59.677856" lon="9.599902"><ele>332.1</ele></trkpt>
  <trkpt lat="59.677880" lon="9.599979"><ele>331.5</ele></trkpt>
  <trkpt lat="59.677894" lon="9.599966"><ele>331.4</ele></trkpt>
  <trkpt lat="59.678098" lon="9.600096"><ele>328.8</ele></trkpt>
  <trkpt lat="59.678249" lon="9.600253"><ele>326.8</ele></trkpt>
  <trkpt lat="59.678536" lon="9.600680"><ele>323.8</ele></trkpt>
  <trkpt lat="59.678595" lon="9.600989"><ele>323.3</ele></trkpt>
  <trkpt lat="59.678596" lon="9.601110"><ele>323.3</ele></trkpt>
 </trkseg></trk></gpx>