<?xml version="1.0" encoding="UTF-8"?>
<gpx version="1.1" creator="stikart_web trailguide-snapshot" xmlns="http://www.topografix.com/GPX/1/1">
 <trk><name>Sachsen 2</name><desc>Fra Trailguide (trailguide.net), gradering: blue. 1899 m, 240 m nedfart.</desc><trkseg>
  <trkpt lat="59.672000" lon="9.577870"><ele>594.0</ele></trkpt>
  <trkpt lat="59.672470" lon="9.578140"><ele>589.0</ele></trkpt>
  <trkpt lat="59.672660" lon="9.578180"><ele>587.0</ele></trkpt>
  <trkpt lat="59.673060" lon="9.578150"><ele>582.0</ele></trkpt>
  <trkpt lat="59.673560" lon="9.578040"><ele>576.0</ele></trkpt>
  <trkpt lat="59.673900" lon="9.578210"><ele>570.0</ele></trkpt>
  <trkpt lat="59.674040" lon="9.578180"><ele>568.0</ele></trkpt>
  <trkpt lat="59.674130" lon="9.578090"><ele>567.0</ele></trkpt>
  <trkpt lat="59.674280" lon="9.577990"><ele>564.0</ele></trkpt>
  <trkpt lat="59.674700" lon="9.578400"><ele>553.0</ele></trkpt>
  <trkpt lat="59.674770" lon="9.578390"><ele>551.0</ele></trkpt>
  <trkpt lat="59.675020" lon="9.578170"><ele>546.0</ele></trkpt>
  <trkpt lat="59.675280" lon="9.578110"><ele>540.0</ele></trkpt>
  <trkpt lat="59.675480" lon="9.578160"><ele>536.0</ele></trkpt>
  <trkpt lat="59.675470" lon="9.578160"><ele>536.0</ele></trkpt>
  <trkpt lat="59.675490" lon="9.578170"><ele>535.0</ele></trkpt>
  <trkpt lat="59.675560" lon="9.578460"><ele>533.0</ele></trkpt>
  <trkpt lat="59.675630" lon="9.578830"><ele>529.0</ele></trkpt>
  <trkpt lat="59.675730" lon="9.578520"><ele>529.0</ele></trkpt>
  <trkpt lat="59.675810" lon="9.578370"><ele>527.0</ele></trkpt>
  <trkpt lat="59.675850" lon="9.578370"><ele>526.0</ele></trkpt>
  <trkpt lat="59.675920" lon="9.578450"><ele>524.0</ele></trkpt>
  <trkpt lat="59.675960" lon="9.578580"><ele>523.0</ele></trkpt>
  <trkpt lat="59.676060" lon="9.578780"><ele>520.0</ele></trkpt>
  <trkpt lat="59.676110" lon="9.578970"><ele>517.0</ele></trkpt>
  <trkpt lat="59.676120" lon="9.579100"><ele>517.0</ele></trkpt>
  <trkpt lat="59.676090" lon="9.579250"><ele>516.0</ele></trkpt>
  <trkpt lat="59.676110" lon="9.579360"><ele>515.0</ele></trkpt>
  <trkpt lat="59.676220" lon="9.579420"><ele>512.0</ele></trkpt>
  <trkpt lat="59.676300" lon="9.579520"><ele>509.0</ele></trkpt>
  <trkpt lat="59.676330" lon="9.579660"><ele>508.0</ele></trkpt>
  <trkpt lat="59.676290" lon="9.580010"><ele>506.0</ele></trkpt>
  <trkpt lat="59.676310" lon="9.580100"><ele>505.0</ele></trkpt>
  <trkpt lat="59.676390" lon="9.580230"><ele>502.0</ele></trkpt>
  <trkpt lat="59.676540" lon="9.580360"><ele>497.0</ele></trkpt>
  <trkpt lat="59.676700" lon="9.580410"><ele>493.0</ele></trkpt>
  <trkpt lat="59.676800" lon="9.580350"><ele>490.0</ele></trkpt>
  <trkpt lat="59.677180" lon="9.579820"><ele>482.0</ele></trkpt>
  <trkpt lat="59.677280" lon="9.579720"><ele>480.0</ele></trkpt>
  <trkpt lat="59.677420" lon="9.579650"><ele>476.0</ele></trkpt>
  <trkpt lat="59.677580" lon="9.579650"><ele>472.0</ele></trkpt>
  <trkpt lat="59.677700" lon="9.579690"><ele>469.0</ele></trkpt>
  <trkpt lat="59.677820" lon="9.579890"><ele>466.0</ele></trkpt>
  <trkpt lat="59.678020" lon="9.580610"><ele>458.0</ele></trkpt>
  <trkpt lat="59.678060" lon="9.580680"><ele>457.0</ele></trkpt>
  <trkpt lat="59.678130" lon="9.580730"><ele>456.0</ele></trkpt>
  <trkpt lat="59.678120" lon="9.580730"><ele>456.0</ele></trkpt>
  <trkpt lat="59.678430" lon="9.580610"><ele>451.0</ele></trkpt>
  <trkpt lat="59.678520" lon="9.580600"><ele>450.0</ele></trkpt>
  <trkpt lat="59.678620" lon="9.580620"><ele>448.0</ele></trkpt>
  <trkpt lat="59.678940" lon="9.580600"><ele>443.0</ele></trkpt>
  <trkpt lat="59.679000" lon="9.580650"><ele>442.0</ele></trkpt>
  <trkpt lat="59.679210" lon="9.580600"><ele>439.0</ele></trkpt>
  <trkpt lat="59.679520" lon="9.580650"><ele>434.0</ele></trkpt>
  <trkpt lat="59.679640" lon="9.580770"><ele>432.0</ele></trkpt>
  <trkpt lat="59.680120" lon="9.580720"><ele>424.0</ele></trkpt>
  <trkpt lat="59.680290" lon="9.580760"><ele>422.0</ele></trkpt>
  <trkpt lat="59.680410" lon="9.580710"><ele>421.0</ele></trkpt>
  <trkpt lat="59.680500" lon="9.580620"><ele>419.0</ele></trkpt>
  <trkpt lat="59.680650" lon="9.580560"><ele>417.0</ele></trkpt>
  <trkpt lat="59.680840" lon="9.580670"><ele>415.0</ele></trkpt>
  <trkpt lat="59.681000" lon="9.580660"><ele>413.0</ele></trkpt>
  <trkpt lat="59.681080" lon="9.580710"><ele>412.0</ele></trkpt>
  <trkpt lat="59.681200" lon="9.580850"><ele>411.0</ele></trkpt>
  <trkpt lat="59.681330" lon="9.580890"><ele>409.0</ele></trkpt>
  <trkpt lat="59.681530" lon="9.580840"><ele>406.0</ele></trkpt>
  <trkpt lat="59.681590" lon="9.580900"><ele>405.0</ele></trkpt>
  <trkpt lat="59.681870" lon="9.581660"><ele>405.0</ele></trkpt>
  <trkpt lat="59.682160" lon="9.581970"><ele>404.0</ele></trkpt>
  <trkpt lat="59.682560" lon="9.583160"><ele>402.0</ele></trkpt>
  <trkpt lat="59.682590" lon="9.583360"><ele>401.0</ele></trkpt>
  <trkpt lat="59.682500" lon="9.584200"><ele>400.0</ele></trkpt>
  <trkpt lat="59.682510" lon="9.584520"><ele>399.0</ele></trkpt>
  <trkpt lat="59.682550" lon="9.584720"><ele>397.0</ele></trkpt>
  <trkpt lat="59.683210" lon="9.585600"><ele>382.0</ele></trkpt>
  <trkpt lat="59.683360" lon="9.586030"><ele>378.0</ele></trkpt>
  <trkpt lat="59.683490" lon="9.586580"><ele>375.0</ele></trkpt>
  <trkpt lat="59.683820" lon="9.587340"><ele>367.0</ele></trkpt>
  <trkpt lat="59.683920" lon="9.587450"><ele>365.0</ele></trkpt>
  <trkpt lat="59.684050" lon="9.587730"><ele>362.0</ele></trkpt>
  <trkpt lat="59.684110" lon="9.588010"><ele>360.0</ele></trkpt>
  <trkpt lat="59.684230" lon="9.588350"><ele>357.0</ele></trkpt>
  <trkpt lat="59.684370" lon="9.588580"><ele>355.0</ele></trkpt>
  <trkpt lat="59.684640" lon="9.588680"><ele>353.0</ele></trkpt>
  <trkpt lat="59.684770" lon="9.588900"><ele>352.0</ele></trkpt>
  <trkpt lat="59.684910" lon="9.589000"><ele>351.0</ele></trkpt>
  <trkpt lat="59.685030" lon="9.589060"><ele>350.0</ele></trkpt>
  <trkpt lat="59.685000" lon="9.589070"><ele>350.0</ele></trkpt>
 </trkseg></trk></gpx>