<?xml version="1.0" encoding="UTF-8"?>
<gpx version="1.1" creator="stikart_web trailguide-snapshot" xmlns="http://www.topografix.com/GPX/1/1">
 <trk><name>Saggrenda spesial - lang</name><desc>Fra Trailguide (trailguide.net), gradering: red. 1367 m, 140 m nedfart.</desc><trkseg>
  <trkpt lat="59.641400" lon="9.608410"><ele>430.0</ele></trkpt>
  <trkpt lat="59.641090" lon="9.608440"><ele>428.0</ele></trkpt>
  <trkpt lat="59.640900" lon="9.608650"><ele>428.0</ele></trkpt>
  <trkpt lat="59.640710" lon="9.608820"><ele>426.0</ele></trkpt>
  <trkpt lat="59.640400" lon="9.609260"><ele>425.0</ele></trkpt>
  <trkpt lat="59.640180" lon="9.609680"><ele>426.0</ele></trkpt>
  <trkpt lat="59.640080" lon="9.609830"><ele>426.0</ele></trkpt>
  <trkpt lat="59.639180" lon="9.610380"><ele>424.0</ele></trkpt>
  <trkpt lat="59.638960" lon="9.610620"><ele>422.0</ele></trkpt>
  <trkpt lat="59.638870" lon="9.610870"><ele>422.0</ele></trkpt>
  <trkpt lat="59.638780" lon="9.610990"><ele>422.0</ele></trkpt>
  <trkpt lat="59.638600" lon="9.611400"><ele>423.0</ele></trkpt>
  <trkpt lat="59.638520" lon="9.611770"><ele>423.0</ele></trkpt>
  <trkpt lat="59.638480" lon="9.612210"><ele>422.0</ele></trkpt>
  <trkpt lat="59.638340" lon="9.612770"><ele>420.0</ele></trkpt>
  <trkpt lat="59.638130" lon="9.612980"><ele>419.0</ele></trkpt>
  <trkpt lat="59.637930" lon="9.613030"><ele>418.0</ele></trkpt>
  <trkpt lat="59.637510" lon="9.613250"><ele>417.0</ele></trkpt>
  <trkpt lat="59.637400" lon="9.613580"><ele>414.0</ele></trkpt>
  <trkpt lat="59.637210" lon="9.613920"><ele>410.0</ele></trkpt>
  <trkpt lat="59.637050" lon="9.614000"><ele>408.0</ele></trkpt>
  <trkpt lat="59.636820" lon="9.614320"><ele>405.0</ele></trkpt>
  <trkpt lat="59.636570" lon="9.614610"><ele>402.0</ele></trkpt>
  <trkpt lat="59.636230" lon="9.615090"><ele>396.0</ele></trkpt>
  <trkpt lat="59.636030" lon="9.615120"><ele>393.0</ele></trkpt>
  <trkpt lat="59.635920" lon="9.615290"><ele>390.0</ele></trkpt>
  <trkpt lat="59.635560" lon="9.615110"><ele>384.0</ele></trkpt>
  <trkpt lat="59.635520" lon="9.614950"><ele>384.0</ele></trkpt>
  <trkpt lat="59.635400" lon="9.614830"><ele>381.0</ele></trkpt>
  <trkpt lat="59.635310" lon="9.614840"><ele>379.0</ele></trkpt>
  <trkpt lat="59.635230" lon="9.614930"><ele>377.0</ele></trkpt>
  <trkpt lat="59.635170" lon="9.615090"><ele>375.0</ele></trkpt>
  <trkpt lat="59.635000" lon="9.615200"><ele>371.0</ele></trkpt>
  <trkpt lat="59.634920" lon="9.615290"><ele>368.0</ele></trkpt>
  <trkpt lat="59.634830" lon="9.615280"><ele>367.0</ele></trkpt>
  <trkpt lat="59.634720" lon="9.615310"><ele>364.0</ele></trkpt>
  <trkpt lat="59.634510" lon="9.615440"><ele>359.0</ele></trkpt>
  <trkpt lat="59.634110" lon="9.615510"><ele>352.0</ele></trkpt>
  <trkpt lat="59.633920" lon="9.615440"><ele>349.0</ele></trkpt>
  <trkpt lat="59.633860" lon="9.615490"><ele>348.0</ele></trkpt>
  <trkpt lat="59.633800" lon="9.615490"><ele>347.0</ele></trkpt>
  <trkpt lat="59.633760" lon="9.615450"><ele>346.0</ele></trkpt>
  <trkpt lat="59.633710" lon="9.615300"><ele>345.0</ele></trkpt>
  <trkpt lat="59.633680" lon="9.615310"><ele>345.0</ele></trkpt>
  <trkpt lat="59.633220" lon="9.615890"><ele>338.0</ele></trkpt>
  <trkpt lat="59.633010" lon="9.616120"><ele>334.0</ele></trkpt>
  <trkpt lat="59.632399" lon="9.616489"><ele>323.0</ele></trkpt>
  <trkpt lat="59.631759" lon="9.616661"><ele>307.0</ele></trkpt>
  <trkpt lat="59.631618" lon="9.616275"><ele>299.0</ele></trkpt>
  <trkpt lat="59.631401" lon="9.616017"><ele>293.0</ele></trkpt>
  <trkpt lat="59.630978" lon="9.615931"><ele>284.0</ele></trkpt>
 </trkseg></trk></gpx>