<?xml version="1.0" encoding="UTF-8"?>
<gpx version="1.1" creator="stikart_web trailguide-snapshot" xmlns="http://www.topografix.com/GPX/1/1">
 <trk><name>Speiderroa 3 - Steinbordet</name><desc>Fra Trailguide (trailguide.net), gradering: blue. 2431 m, 140 m nedfart.</desc><trkseg>
  <trkpt lat="59.687370" lon="9.602480"><ele>374.0</ele></trkpt>
  <trkpt lat="59.687360" lon="9.602510"><ele>374.0</ele></trkpt>
  <trkpt lat="59.687320" lon="9.602470"><ele>376.0</ele></trkpt>
  <trkpt lat="59.687240" lon="9.602630"><ele>378.0</ele></trkpt>
  <trkpt lat="59.687170" lon="9.602620"><ele>379.0</ele></trkpt>
  <trkpt lat="59.687050" lon="9.602760"><ele>379.0</ele></trkpt>
  <trkpt lat="59.686820" lon="9.602840"><ele>380.0</ele></trkpt>
  <trkpt lat="59.686500" lon="9.603160"><ele>381.0</ele></trkpt>
  <trkpt lat="59.686380" lon="9.603200"><ele>382.0</ele></trkpt>
  <trkpt lat="59.686190" lon="9.603420"><ele>382.0</ele></trkpt>
  <trkpt lat="59.686130" lon="9.603360"><ele>382.0</ele></trkpt>
  <trkpt lat="59.685950" lon="9.603500"><ele>382.0</ele></trkpt>
  <trkpt lat="59.685620" lon="9.603770"><ele>383.0</ele></trkpt>
  <trkpt lat="59.685180" lon="9.604230"><ele>385.0</ele></trkpt>
  <trkpt lat="59.685070" lon="9.604320"><ele>386.0</ele></trkpt>
  <trkpt lat="59.685040" lon="9.604280"><ele>386.0</ele></trkpt>
  <trkpt lat="59.684930" lon="9.604320"><ele>387.0</ele></trkpt>
  <trkpt lat="59.684820" lon="9.604300"><ele>387.0</ele></trkpt>
  <trkpt lat="59.684790" lon="9.604390"><ele>387.0</ele></trkpt>
  <trkpt lat="59.684740" lon="9.604430"><ele>387.0</ele></trkpt>
  <trkpt lat="59.684710" lon="9.604530"><ele>387.0</ele></trkpt>
  <trkpt lat="59.684600" lon="9.604660"><ele>388.0</ele></trkpt>
  <trkpt lat="59.684410" lon="9.604730"><ele>387.0</ele></trkpt>
  <trkpt lat="59.684280" lon="9.604800"><ele>387.0</ele></trkpt>
  <trkpt lat="59.684230" lon="9.604790"><ele>387.0</ele></trkpt>
  <trkpt lat="59.684170" lon="9.604830"><ele>386.0</ele></trkpt>
  <trkpt lat="59.683800" lon="9.605400"><ele>383.0</ele></trkpt>
  <trkpt lat="59.683650" lon="9.605480"><ele>382.0</ele></trkpt>
  <trkpt lat="59.683600" lon="9.605570"><ele>381.0</ele></trkpt>
  <trkpt lat="59.683540" lon="9.605570"><ele>381.0</ele></trkpt>
  <trkpt lat="59.683500" lon="9.605660"><ele>379.0</ele></trkpt>
  <trkpt lat="59.683360" lon="9.605780"><ele>379.0</ele></trkpt>
  <trkpt lat="59.683290" lon="9.605910"><ele>378.0</ele></trkpt>
  <trkpt lat="59.683160" lon="9.605970"><ele>377.0</ele></trkpt>
  <trkpt lat="59.683030" lon="9.606110"><ele>377.0</ele></trkpt>
  <trkpt lat="59.683000" lon="9.606270"><ele>377.0</ele></trkpt>
  <trkpt lat="59.682870" lon="9.606430"><ele>376.0</ele></trkpt>
  <trkpt lat="59.682630" lon="9.606560"><ele>373.0</ele></trkpt>
  <trkpt lat="59.682530" lon="9.606490"><ele>371.0</ele></trkpt>
  <trkpt lat="59.682480" lon="9.606430"><ele>370.0</ele></trkpt>
  <trkpt lat="59.682240" lon="9.606480"><ele>369.0</ele></trkpt>
  <trkpt lat="59.682180" lon="9.606520"><ele>369.0</ele></trkpt>
  <trkpt lat="59.682160" lon="9.606500"><ele>368.0</ele></trkpt>
  <trkpt lat="59.682030" lon="9.606580"><ele>368.0</ele></trkpt>
  <trkpt lat="59.681950" lon="9.606690"><ele>367.0</ele></trkpt>
  <trkpt lat="59.681820" lon="9.606820"><ele>366.0</ele></trkpt>
  <trkpt lat="59.681660" lon="9.606930"><ele>366.0</ele></trkpt>
  <trkpt lat="59.681350" lon="9.607230"><ele>365.0</ele></trkpt>
  <trkpt lat="59.681240" lon="9.607240"><ele>365.0</ele></trkpt>
  <trkpt lat="59.680830" lon="9.607720"><ele>363.0</ele></trkpt>
  <trkpt lat="59.680720" lon="9.607800"><ele>362.0</ele></trkpt>
  <trkpt lat="59.680630" lon="9.607790"><ele>361.0</ele></trkpt>
  <trkpt lat="59.680580" lon="9.607750"><ele>360.0</ele></trkpt>
  <trkpt lat="59.680520" lon="9.607420"><ele>359.0</ele></trkpt>
  <trkpt lat="59.680470" lon="9.607380"><ele>359.0</ele></trkpt>
  <trkpt lat="59.680400" lon="9.607430"><ele>359.0</ele></trkpt>
  <trkpt lat="59.680230" lon="9.607670"><ele>359.0</ele></trkpt>
  <trkpt lat="59.680170" lon="9.607800"><ele>359.0</ele></trkpt>
  <trkpt lat="59.680160" lon="9.608180"><ele>359.0</ele></trkpt>
  <trkpt lat="59.680130" lon="9.608280"><ele>359.0</ele></trkpt>
  <trkpt lat="59.679990" lon="9.608370"><ele>360.0</ele></trkpt>
  <trkpt lat="59.679870" lon="9.608390"><ele>360.0</ele></trkpt>
  <trkpt lat="59.679800" lon="9.608380"><ele>360.0</ele></trkpt>
  <trkpt lat="59.679530" lon="9.608750"><ele>361.0</ele></trkpt>
  <trkpt lat="59.679520" lon="9.608800"><ele>361.0</ele></trkpt>
  <trkpt lat="59.679460" lon="9.608820"><ele>362.0</ele></trkpt>
  <trkpt lat="59.679370" lon="9.608900"><ele>362.0</ele></trkpt>
  <trkpt lat="59.679310" lon="9.608920"><ele>362.0</ele></trkpt>
  <trkpt lat="59.679240" lon="9.608900"><ele>362.0</ele></trkpt>
  <trkpt lat="59.679160" lon="9.609010"><ele>361.0</ele></trkpt>
  <trkpt lat="59.679020" lon="9.609090"><ele>361.0</ele></trkpt>
  <trkpt lat="59.678920" lon="9.609100"><ele>360.0</ele></trkpt>
  <trkpt lat="59.678880" lon="9.609240"><ele>360.0</ele></trkpt>
  <trkpt lat="59.678810" lon="9.609260"><ele>359.0</ele></trkpt>
  <trkpt lat="59.678760" lon="9.609330"><ele>358.0</ele></trkpt>
  <trkpt lat="59.678680" lon="9.609370"><ele>357.0</ele></trkpt>
  <trkpt lat="59.678620" lon="9.609440"><ele>357.0</ele></trkpt>
  <trkpt lat="59.678530" lon="9.609450"><ele>356.0</ele></trkpt>
  <trkpt lat="59.678490" lon="9.609520"><ele>354.0</ele></trkpt>
  <trkpt lat="59.678430" lon="9.609540"><ele>354.0</ele></trkpt>
  <trkpt lat="59.678360" lon="9.609610"><ele>351.0</ele></trkpt>
  <trkpt lat="59.678230" lon="9.609830"><ele>347.0</ele></trkpt>
  <trkpt lat="59.678180" lon="9.609800"><ele>345.0</ele></trkpt>
  <trkpt lat="59.678130" lon="9.609850"><ele>345.0</ele></trkpt>
  <trkpt lat="59.678070" lon="9.609840"><ele>342.0</ele></trkpt>
  <trkpt lat="59.677840" lon="9.609940"><ele>336.0</ele></trkpt>
  <trkpt lat="59.677720" lon="9.610160"><ele>336.0</ele></trkpt>
  <trkpt lat="59.677650" lon="9.610240"><ele>336.0</ele></trkpt>
  <trkpt lat="59.677450" lon="9.610320"><ele>336.0</ele></trkpt>
  <trkpt lat="59.677260" lon="9.610330"><ele>336.0</ele></trkpt>
  <trkpt lat="59.677080" lon="9.610510"><ele>337.0</ele></trkpt>
  <trkpt lat="59.677010" lon="9.610550"><ele>337.0</ele></trkpt>
  <trkpt lat="59.676920" lon="9.610540"><ele>337.0</ele></trkpt>
  <trkpt lat="59.676780" lon="9.610650"><ele>337.0</ele></trkpt>
  <trkpt lat="59.676740" lon="9.610650"><ele>337.0</ele></trkpt>
  <trkpt lat="59.676540" lon="9.610860"><ele>336.0</ele></trkpt>
  <trkpt lat="59.676440" lon="9.610910"><ele>336.0</ele></trkpt>
  <trkpt lat="59.676300" lon="9.611030"><ele>335.0</ele></trkpt>
  <trkpt lat="59.676200" lon="9.611040"><ele>335.0</ele></trkpt>
  <trkpt lat="59.676140" lon="9.611020"><ele>335.0</ele></trkpt>
  <trkpt lat="59.675960" lon="9.611170"><ele>334.0</ele></trkpt>
  <trkpt lat="59.675800" lon="9.611250"><ele>334.0</ele></trkpt>
  <trkpt lat="59.675770" lon="9.611230"><ele>333.0</ele></trkpt>
  <trkpt lat="59.675720" lon="9.611280"><ele>333.0</ele></trkpt>
  <trkpt lat="59.675670" lon="9.611240"><ele>333.0</ele></trkpt>
  <trkpt lat="59.675510" lon="9.611360"><ele>331.0</ele></trkpt>
  <trkpt lat="59.675470" lon="9.611360"><ele>331.0</ele></trkpt>
  <trkpt lat="59.675420" lon="9.611440"><ele>330.0</ele></trkpt>
  <trkpt lat="59.675380" lon="9.611470"><ele>330.0</ele></trkpt>
  <trkpt lat="59.675230" lon="9.611700"><ele>328.0</ele></trkpt>
  <trkpt lat="59.675110" lon="9.611770"><ele>327.0</ele></trkpt>
  <trkpt lat="59.675000" lon="9.611700"><ele>326.0</ele></trkpt>
  <trkpt lat="59.674840" lon="9.611880"><ele>324.0</ele></trkpt>
  <trkpt lat="59.674560" lon="9.612320"><ele>318.0</ele></trkpt>
  <trkpt lat="59.674340" lon="9.612470"><ele>315.0</ele></trkpt>
  <trkpt lat="59.674290" lon="9.612470"><ele>315.0</ele></trkpt>
  <trkpt lat="59.674210" lon="9.612540"><ele>313.0</ele></trkpt>
  <trkpt lat="59.674110" lon="9.612730"><ele>312.0</ele></trkpt>
  <trkpt lat="59.674000" lon="9.612850"><ele>311.0</ele></trkpt>
  <trkpt lat="59.673900" lon="9.613060"><ele>310.0</ele></trkpt>
  <trkpt lat="59.673830" lon="9.613130"><ele>310.0</ele></trkpt>
  <trkpt lat="59.673780" lon="9.613090"><ele>310.0</ele></trkpt>
  <trkpt lat="59.673700" lon="9.613200"><ele>303.0</ele></trkpt>
  <trkpt lat="59.673660" lon="9.613200"><ele>303.0</ele></trkpt>
  <trkpt lat="59.673640" lon="9.613320"><ele>303.0</ele></trkpt>
  <trkpt lat="59.673600" lon="9.613330"><ele>301.0</ele></trkpt>
  <trkpt lat="59.673550" lon="9.613380"><ele>300.0</ele></trkpt>
  <trkpt lat="59.673510" lon="9.613390"><ele>299.0</ele></trkpt>
  <trkpt lat="59.673410" lon="9.613370"><ele>296.0</ele></trkpt>
  <trkpt lat="59.673290" lon="9.613500"><ele>294.0</ele></trkpt>
  <trkpt lat="59.673230" lon="9.613530"><ele>290.0</ele></trkpt>
  <trkpt lat="59.673160" lon="9.613510"><ele>289.0</ele></trkpt>
  <trkpt lat="59.673080" lon="9.613440"><ele>287.0</ele></trkpt>
  <trkpt lat="59.673000" lon="9.613430"><ele>285.0</ele></trkpt>
  <trkpt lat="59.672940" lon="9.613460"><ele>285.0</ele></trkpt>
  <trkpt lat="59.672900" lon="9.613440"><ele>285.0</ele></trkpt>
  <trkpt lat="59.672670" lon="9.613450"><ele>285.0</ele></trkpt>
  <trkpt lat="59.672550" lon="9.613550"><ele>285.0</ele></trkpt>
  <trkpt lat="59.672420" lon="9.613790"><ele>284.0</ele></trkpt>
  <trkpt lat="59.672330" lon="9.613830"><ele>284.0</ele></trkpt>
  <trkpt lat="59.672160" lon="9.614020"><ele>283.0</ele></trkpt>
  <trkpt lat="59.672030" lon="9.614230"><ele>283.0</ele></trkpt>
  <trkpt lat="59.672010" lon="9.614320"><ele>283.0</ele></trkpt>
  <trkpt lat="59.671930" lon="9.614280"><ele>283.0</ele></trkpt>
  <trkpt lat="59.671750" lon="9.614260"><ele>281.0</ele></trkpt>
  <trkpt lat="59.671710" lon="9.614240"><ele>281.0</ele></trkpt>
  <trkpt lat="59.671630" lon="9.614270"><ele>281.0</ele></trkpt>
  <trkpt lat="59.671310" lon="9.614180"><ele>278.0</ele></trkpt>
  <trkpt lat="59.671070" lon="9.614490"><ele>275.0</ele></trkpt>
  <trkpt lat="59.671000" lon="9.614480"><ele>274.0</ele></trkpt>
  <trkpt lat="59.670940" lon="9.614510"><ele>272.0</ele></trkpt>
  <trkpt lat="59.670920" lon="9.614540"><ele>272.0</ele></trkpt>
  <trkpt lat="59.670880" lon="9.614780"><ele>270.0</ele></trkpt>
  <trkpt lat="59.670780" lon="9.614740"><ele>268.0</ele></trkpt>
  <trkpt lat="59.670690" lon="9.614780"><ele>264.0</ele></trkpt>
  <trkpt lat="59.670640" lon="9.614960"><ele>264.0</ele></trkpt>
  <trkpt lat="59.670690" lon="9.615120"><ele>263.0</ele></trkpt>
  <trkpt lat="59.670640" lon="9.615280"><ele>263.0</ele></trkpt>
  <trkpt lat="59.670620" lon="9.615760"><ele>258.0</ele></trkpt>
  <trkpt lat="59.670590" lon="9.615890"><ele>257.0</ele></trkpt>
  <trkpt lat="59.670570" lon="9.616090"><ele>257.0</ele></trkpt>
  <trkpt lat="59.670520" lon="9.616250"><ele>256.0</ele></trkpt>
  <trkpt lat="59.670310" lon="9.616500"><ele>255.0</ele></trkpt>
  <trkpt lat="59.670240" lon="9.616910"><ele>254.0</ele></trkpt>
  <trkpt lat="59.670020" lon="9.617040"><ele>255.0</ele></trkpt>
  <trkpt lat="59.669890" lon="9.617030"><ele>255.0</ele></trkpt>
  <trkpt lat="59.669820" lon="9.617050"><ele>255.0</ele></trkpt>
  <trkpt lat="59.669740" lon="9.617130"><ele>255.0</ele></trkpt>
  <trkpt lat="59.669400" lon="9.617380"><ele>255.0</ele></trkpt>
  <trkpt lat="59.669210" lon="9.617400"><ele>254.0</ele></trkpt>
  <trkpt lat="59.669160" lon="9.617460"><ele>254.0</ele></trkpt>
  <trkpt lat="59.669120" lon="9.617610"><ele>252.0</ele></trkpt>
  <trkpt lat="59.669020" lon="9.617680"><ele>252.0</ele></trkpt>
  <trkpt lat="59.668930" lon="9.617820"><ele>248.0</ele></trkpt>
  <trkpt lat="59.668920" lon="9.618020"><ele>248.0</ele></trkpt>
 </trkseg></trk></gpx>