<?xml version="1.0" encoding="UTF-8"?>
<gpx version="1.1" creator="stikart_web trailguide-snapshot" xmlns="http://www.topografix.com/GPX/1/1">
 <trk><name>Speiderroatransporten</name><desc>Fra Trailguide (trailguide.net), gradering: green. 908 m, 8 m nedfart.</desc><trkseg>
  <trkpt lat="59.684100" lon="9.598810"><ele>343.0</ele></trkpt>
  <trkpt lat="59.684400" lon="9.599210"><ele>347.0</ele></trkpt>
  <trkpt lat="59.684540" lon="9.599430"><ele>349.0</ele></trkpt>
  <trkpt lat="59.684700" lon="9.599530"><ele>351.0</ele></trkpt>
  <trkpt lat="59.684800" lon="9.599710"><ele>352.0</ele></trkpt>
  <trkpt lat="59.684940" lon="9.599900"><ele>352.0</ele></trkpt>
  <trkpt lat="59.685070" lon="9.600000"><ele>353.0</ele></trkpt>
  <trkpt lat="59.685270" lon="9.600030"><ele>354.0</ele></trkpt>
  <trkpt lat="59.685430" lon="9.600010"><ele>355.0</ele></trkpt>
  <trkpt lat="59.685670" lon="9.600140"><ele>357.0</ele></trkpt>
  <trkpt lat="59.685740" lon="9.600640"><ele>358.0</ele></trkpt>
  <trkpt lat="59.685860" lon="9.600870"><ele>360.0</ele></trkpt>
  <trkpt lat="59.686040" lon="9.600990"><ele>362.0</ele></trkpt>
  <trkpt lat="59.686390" lon="9.601440"><ele>365.0</ele></trkpt>
  <trkpt lat="59.686740" lon="9.601540"><ele>368.0</ele></trkpt>
  <trkpt lat="59.686890" lon="9.601560"><ele>369.0</ele></trkpt>
  <trkpt lat="59.687160" lon="9.601800"><ele>369.0</ele></trkpt>
  <trkpt lat="59.687260" lon="9.601950"><ele>370.0</ele></trkpt>
  <trkpt lat="59.687430" lon="9.602100"><ele>370.0</ele></trkpt>
  <trkpt lat="59.687560" lon="9.602300"><ele>371.0</ele></trkpt>
  <trkpt lat="59.687420" lon="9.603390"><ele>366.0</ele></trkpt>
  <trkpt lat="59.687350" lon="9.603690"><ele>363.0</ele></trkpt>
  <trkpt lat="59.687450" lon="9.603790"><ele>361.0</ele></trkpt>
  <trkpt lat="59.687690" lon="9.603840"><ele>361.0</ele></trkpt>
  <trkpt lat="59.687930" lon="9.603550"><ele>361.0</ele></trkpt>
  <trkpt lat="59.688440" lon="9.603170"><ele>362.0</ele></trkpt>
  <trkpt lat="59.688710" lon="9.602930"><ele>362.0</ele></trkpt>
  <trkpt lat="59.688580" lon="9.603250"><ele>361.0</ele></trkpt>
  <trkpt lat="59.688530" lon="9.603510"><ele>360.0</ele></trkpt>
  <trkpt lat="59.688500" lon="9.603810"><ele>360.0</ele></trkpt>
  <trkpt lat="59.688510" lon="9.603980"><ele>361.0</ele></trkpt>
  <trkpt lat="59.688620" lon="9.603960"><ele>362.0</ele></trkpt>
  <trkpt lat="59.688730" lon="9.604130"><ele>365.0</ele></trkpt>
  <trkpt lat="59.688380" lon="9.604680"><ele>372.0</ele></trkpt>
  <trkpt lat="59.688440" lon="9.604990"><ele>372.0</ele></trkpt>
  <trkpt lat="59.688370" lon="9.605480"><ele>377.0</ele></trkpt>
  <trkpt lat="59.688460" lon="9.605780"><ele>377.0</ele></trkpt>
 </trkseg></trk></gpx>