<?xml version="1.0" encoding="UTF-8"?>
<gpx version="1.1" creator="stikart_web trailguide-snapshot" xmlns="http://www.topografix.com/GPX/1/1">
 <trk><name>Speiderroa 2</name><desc>Fra Trailguide (trailguide.net), gradering: blue. 953 m, 36 m nedfart.</desc><trkseg>
  <trkpt lat="59.688310" lon="9.604740"><ele>372.0</ele></trkpt>
  <trkpt lat="59.688240" lon="9.604810"><ele>373.0</ele></trkpt>
  <trkpt lat="59.687860" lon="9.604880"><ele>373.0</ele></trkpt>
  <trkpt lat="59.687710" lon="9.604940"><ele>374.0</ele></trkpt>
  <trkpt lat="59.687490" lon="9.605350"><ele>374.0</ele></trkpt>
  <trkpt lat="59.687240" lon="9.605600"><ele>373.0</ele></trkpt>
  <trkpt lat="59.686980" lon="9.605650"><ele>370.0</ele></trkpt>
  <trkpt lat="59.686810" lon="9.605920"><ele>370.0</ele></trkpt>
  <trkpt lat="59.686740" lon="9.606070"><ele>370.0</ele></trkpt>
  <trkpt lat="59.686600" lon="9.606200"><ele>371.0</ele></trkpt>
  <trkpt lat="59.686470" lon="9.606380"><ele>371.0</ele></trkpt>
  <trkpt lat="59.686260" lon="9.606780"><ele>371.0</ele></trkpt>
  <trkpt lat="59.685940" lon="9.606970"><ele>371.0</ele></trkpt>
  <trkpt lat="59.685690" lon="9.607140"><ele>371.0</ele></trkpt>
  <trkpt lat="59.685510" lon="9.607220"><ele>370.0</ele></trkpt>
  <trkpt lat="59.685350" lon="9.607390"><ele>370.0</ele></trkpt>
  <trkpt lat="59.685060" lon="9.607600"><ele>368.0</ele></trkpt>
  <trkpt lat="59.684900" lon="9.607740"><ele>366.0</ele></trkpt>
  <trkpt lat="59.684710" lon="9.607870"><ele>365.0</ele></trkpt>
  <trkpt lat="59.684360" lon="9.608070"><ele>364.0</ele></trkpt>
  <trkpt lat="59.684140" lon="9.608300"><ele>363.0</ele></trkpt>
  <trkpt lat="59.683870" lon="9.608650"><ele>362.0</ele></trkpt>
  <trkpt lat="59.683510" lon="9.608950"><ele>359.0</ele></trkpt>
  <trkpt lat="59.683390" lon="9.609100"><ele>357.0</ele></trkpt>
  <trkpt lat="59.683080" lon="9.609300"><ele>352.0</ele></trkpt>
  <trkpt lat="59.682900" lon="9.609530"><ele>348.0</ele></trkpt>
  <trkpt lat="59.682710" lon="9.609540"><ele>344.0</ele></trkpt>
  <trkpt lat="59.682320" lon="9.609880"><ele>340.0</ele></trkpt>
  <trkpt lat="59.682200" lon="9.610020"><ele>341.0</ele></trkpt>
  <trkpt lat="59.682050" lon="9.610130"><ele>341.0</ele></trkpt>
  <trkpt lat="59.681800" lon="9.610400"><ele>342.0</ele></trkpt>
  <trkpt lat="59.681460" lon="9.610670"><ele>343.0</ele></trkpt>
  <trkpt lat="59.681310" lon="9.610720"><ele>342.0</ele></trkpt>
  <trkpt lat="59.681160" lon="9.610870"><ele>341.0</ele></trkpt>
  <trkpt lat="59.680970" lon="9.611130"><ele>338.0</ele></trkpt>
  <trkpt lat="59.680910" lon="9.611330"><ele>337.0</ele></trkpt>
  <trkpt lat="59.680780" lon="9.611480"><ele>337.0</ele></trkpt>
  <trkpt lat="59.680680" lon="9.611680"><ele>336.0</ele></trkpt>
 </trkseg></trk></gpx>