<?xml version="1.0" encoding="UTF-8"?>
<gpx version="1.1" creator="stikart_web trailguide-snapshot" xmlns="http://www.topografix.com/GPX/1/1">
 <trk><name>Storåsen Afterbike</name><desc>Fra Trailguide (trailguide.net), gradering: blue. 1804 m, 157 m nedfart.</desc><trkseg>
  <trkpt lat="59.668390" lon="9.627470"><ele>338.0</ele></trkpt>
  <trkpt lat="59.668490" lon="9.627700"><ele>337.0</ele></trkpt>
  <trkpt lat="59.668560" lon="9.628060"><ele>336.0</ele></trkpt>
  <trkpt lat="59.668520" lon="9.628200"><ele>336.0</ele></trkpt>
  <trkpt lat="59.668160" lon="9.628540"><ele>335.0</ele></trkpt>
  <trkpt lat="59.668060" lon="9.628900"><ele>335.0</ele></trkpt>
  <trkpt lat="59.667890" lon="9.629070"><ele>335.0</ele></trkpt>
  <trkpt lat="59.667710" lon="9.629520"><ele>334.0</ele></trkpt>
  <trkpt lat="59.667590" lon="9.629870"><ele>334.0</ele></trkpt>
  <trkpt lat="59.667540" lon="9.629950"><ele>334.0</ele></trkpt>
  <trkpt lat="59.667490" lon="9.629980"><ele>334.0</ele></trkpt>
  <trkpt lat="59.667430" lon="9.630070"><ele>334.0</ele></trkpt>
  <trkpt lat="59.667400" lon="9.630170"><ele>334.0</ele></trkpt>
  <trkpt lat="59.667230" lon="9.630310"><ele>333.0</ele></trkpt>
  <trkpt lat="59.667090" lon="9.630310"><ele>332.0</ele></trkpt>
  <trkpt lat="59.666980" lon="9.630400"><ele>331.0</ele></trkpt>
  <trkpt lat="59.666850" lon="9.630540"><ele>330.0</ele></trkpt>
  <trkpt lat="59.666610" lon="9.630740"><ele>329.0</ele></trkpt>
  <trkpt lat="59.666450" lon="9.630790"><ele>327.0</ele></trkpt>
  <trkpt lat="59.666390" lon="9.630750"><ele>327.0</ele></trkpt>
  <trkpt lat="59.666210" lon="9.630750"><ele>326.0</ele></trkpt>
  <trkpt lat="59.666090" lon="9.630860"><ele>325.0</ele></trkpt>
  <trkpt lat="59.666070" lon="9.631220"><ele>324.0</ele></trkpt>
  <trkpt lat="59.666140" lon="9.631250"><ele>324.0</ele></trkpt>
  <trkpt lat="59.666340" lon="9.631500"><ele>319.0</ele></trkpt>
  <trkpt lat="59.666430" lon="9.631690"><ele>317.0</ele></trkpt>
  <trkpt lat="59.666570" lon="9.632140"><ele>314.0</ele></trkpt>
  <trkpt lat="59.666640" lon="9.632270"><ele>313.0</ele></trkpt>
  <trkpt lat="59.666680" lon="9.632270"><ele>313.0</ele></trkpt>
  <trkpt lat="59.666910" lon="9.632190"><ele>309.0</ele></trkpt>
  <trkpt lat="59.667060" lon="9.631990"><ele>308.0</ele></trkpt>
  <trkpt lat="59.667130" lon="9.632000"><ele>308.0</ele></trkpt>
  <trkpt lat="59.667440" lon="9.632220"><ele>306.0</ele></trkpt>
  <trkpt lat="59.667530" lon="9.632250"><ele>305.0</ele></trkpt>
  <trkpt lat="59.667590" lon="9.632210"><ele>305.0</ele></trkpt>
  <trkpt lat="59.667630" lon="9.632210"><ele>305.0</ele></trkpt>
  <trkpt lat="59.667750" lon="9.632090"><ele>305.0</ele></trkpt>
  <trkpt lat="59.667860" lon="9.632180"><ele>304.0</ele></trkpt>
  <trkpt lat="59.668160" lon="9.632340"><ele>304.0</ele></trkpt>
  <trkpt lat="59.668220" lon="9.632470"><ele>302.0</ele></trkpt>
  <trkpt lat="59.668290" lon="9.632690"><ele>301.0</ele></trkpt>
  <trkpt lat="59.668330" lon="9.632740"><ele>301.0</ele></trkpt>
  <trkpt lat="59.668440" lon="9.632720"><ele>297.0</ele></trkpt>
  <trkpt lat="59.668460" lon="9.632690"><ele>297.0</ele></trkpt>
  <trkpt lat="59.668550" lon="9.632660"><ele>294.0</ele></trkpt>
  <trkpt lat="59.668650" lon="9.632690"><ele>292.0</ele></trkpt>
  <trkpt lat="59.668700" lon="9.632740"><ele>290.0</ele></trkpt>
  <trkpt lat="59.668740" lon="9.632850"><ele>286.0</ele></trkpt>
  <trkpt lat="59.668770" lon="9.633180"><ele>285.0</ele></trkpt>
  <trkpt lat="59.668850" lon="9.633280"><ele>281.0</ele></trkpt>
  <trkpt lat="59.668990" lon="9.633330"><ele>280.0</ele></trkpt>
  <trkpt lat="59.669210" lon="9.633680"><ele>277.0</ele></trkpt>
  <trkpt lat="59.669250" lon="9.633650"><ele>277.0</ele></trkpt>
  <trkpt lat="59.669310" lon="9.633640"><ele>277.0</ele></trkpt>
  <trkpt lat="59.669380" lon="9.633680"><ele>276.0</ele></trkpt>
  <trkpt lat="59.669440" lon="9.633680"><ele>276.0</ele></trkpt>
  <trkpt lat="59.669500" lon="9.633720"><ele>276.0</ele></trkpt>
  <trkpt lat="59.669580" lon="9.633740"><ele>275.0</ele></trkpt>
  <trkpt lat="59.669600" lon="9.633780"><ele>275.0</ele></trkpt>
  <trkpt lat="59.669600" lon="9.633830"><ele>275.0</ele></trkpt>
  <trkpt lat="59.669520" lon="9.633950"><ele>272.0</ele></trkpt>
  <trkpt lat="59.669550" lon="9.633990"><ele>272.0</ele></trkpt>
  <trkpt lat="59.669750" lon="9.634010"><ele>269.0</ele></trkpt>
  <trkpt lat="59.669830" lon="9.634060"><ele>269.0</ele></trkpt>
  <trkpt lat="59.669970" lon="9.634050"><ele>264.0</ele></trkpt>
  <trkpt lat="59.670050" lon="9.634080"><ele>264.0</ele></trkpt>
  <trkpt lat="59.670320" lon="9.634250"><ele>255.0</ele></trkpt>
  <trkpt lat="59.670470" lon="9.634290"><ele>255.0</ele></trkpt>
  <trkpt lat="59.670660" lon="9.634210"><ele>250.0</ele></trkpt>
  <trkpt lat="59.670860" lon="9.634230"><ele>247.0</ele></trkpt>
  <trkpt lat="59.670970" lon="9.634400"><ele>245.0</ele></trkpt>
  <trkpt lat="59.670970" lon="9.634530"><ele>243.0</ele></trkpt>
  <trkpt lat="59.671020" lon="9.634700"><ele>242.0</ele></trkpt>
  <trkpt lat="59.671090" lon="9.634840"><ele>241.0</ele></trkpt>
  <trkpt lat="59.671120" lon="9.634860"><ele>239.0</ele></trkpt>
  <trkpt lat="59.671160" lon="9.634850"><ele>239.0</ele></trkpt>
  <trkpt lat="59.671210" lon="9.634890"><ele>238.0</ele></trkpt>
  <trkpt lat="59.671240" lon="9.634960"><ele>237.0</ele></trkpt>
  <trkpt lat="59.671270" lon="9.635190"><ele>235.0</ele></trkpt>
  <trkpt lat="59.671220" lon="9.635170"><ele>235.0</ele></trkpt>
  <trkpt lat="59.670870" lon="9.635460"><ele>235.0</ele></trkpt>
  <trkpt lat="59.670850" lon="9.635430"><ele>235.0</ele></trkpt>
  <trkpt lat="59.670800" lon="9.635500"><ele>235.0</ele></trkpt>
  <trkpt lat="59.670700" lon="9.635520"><ele>235.0</ele></trkpt>
  <trkpt lat="59.670610" lon="9.635610"><ele>235.0</ele></trkpt>
  <trkpt lat="59.670460" lon="9.635650"><ele>235.0</ele></trkpt>
  <trkpt lat="59.670190" lon="9.635760"><ele>235.0</ele></trkpt>
  <trkpt lat="59.670060" lon="9.635840"><ele>235.0</ele></trkpt>
  <trkpt lat="59.670100" lon="9.636130"><ele>235.0</ele></trkpt>
  <trkpt lat="59.670080" lon="9.636390"><ele>235.0</ele></trkpt>
  <trkpt lat="59.669970" lon="9.636570"><ele>236.0</ele></trkpt>
  <trkpt lat="59.669830" lon="9.636580"><ele>236.0</ele></trkpt>
  <trkpt lat="59.669510" lon="9.636820"><ele>238.0</ele></trkpt>
  <trkpt lat="59.669360" lon="9.636780"><ele>239.0</ele></trkpt>
  <trkpt lat="59.669160" lon="9.636830"><ele>239.0</ele></trkpt>
  <trkpt lat="59.669010" lon="9.636910"><ele>238.0</ele></trkpt>
  <trkpt lat="59.668800" lon="9.637060"><ele>237.0</ele></trkpt>
  <trkpt lat="59.668670" lon="9.637210"><ele>236.0</ele></trkpt>
  <trkpt lat="59.668580" lon="9.637180"><ele>235.0</ele></trkpt>
  <trkpt lat="59.668380" lon="9.637590"><ele>229.0</ele></trkpt>
  <trkpt lat="59.668080" lon="9.637960"><ele>222.0</ele></trkpt>
  <trkpt lat="59.668020" lon="9.637990"><ele>221.0</ele></trkpt>
  <trkpt lat="59.667960" lon="9.637980"><ele>221.0</ele></trkpt>
  <trkpt lat="59.667860" lon="9.638040"><ele>221.0</ele></trkpt>
  <trkpt lat="59.667740" lon="9.638050"><ele>220.0</ele></trkpt>
  <trkpt lat="59.667640" lon="9.638190"><ele>217.0</ele></trkpt>
  <trkpt lat="59.667600" lon="9.638200"><ele>217.0</ele></trkpt>
  <trkpt lat="59.667570" lon="9.638280"><ele>215.0</ele></trkpt>
  <trkpt lat="59.667350" lon="9.638470"><ele>212.0</ele></trkpt>
  <trkpt lat="59.667240" lon="9.638510"><ele>210.0</ele></trkpt>
  <trkpt lat="59.667120" lon="9.638640"><ele>208.0</ele></trkpt>
  <trkpt lat="59.667070" lon="9.638800"><ele>205.0</ele></trkpt>
  <trkpt lat="59.667010" lon="9.638840"><ele>204.0</ele></trkpt>
  <trkpt lat="59.666950" lon="9.638950"><ele>203.0</ele></trkpt>
  <trkpt lat="59.666870" lon="9.639010"><ele>200.0</ele></trkpt>
  <trkpt lat="59.666760" lon="9.639200"><ele>198.0</ele></trkpt>
  <trkpt lat="59.666730" lon="9.639340"><ele>197.0</ele></trkpt>
  <trkpt lat="59.666650" lon="9.639480"><ele>195.0</ele></trkpt>
  <trkpt lat="59.666330" lon="9.639790"><ele>190.0</ele></trkpt>
  <trkpt lat="59.666240" lon="9.640030"><ele>185.0</ele></trkpt>
  <trkpt lat="59.666030" lon="9.640220"><ele>181.0</ele></trkpt>
 </trkseg></trk></gpx>