<?xml version="1.0" encoding="UTF-8"?>
<gpx version="1.1" creator="stikart_web trailguide-snapshot" xmlns="http://www.topografix.com/GPX/1/1">
 <trk><name>Sulusåsen</name><desc>Fra Trailguide (trailguide.net), gradering: blue. 1217 m, 157 m nedfart.</desc><trkseg>
  <trkpt lat="59.689252" lon="9.665856"><ele>403.0</ele></trkpt>
  <trkpt lat="59.689188" lon="9.665830"><ele>403.0</ele></trkpt>
  <trkpt lat="59.689009" lon="9.665674"><ele>403.0</ele></trkpt>
  <trkpt lat="59.688909" lon="9.665528"><ele>401.0</ele></trkpt>
  <trkpt lat="59.688705" lon="9.665313"><ele>398.0</ele></trkpt>
  <trkpt lat="59.688695" lon="9.665262"><ele>398.0</ele></trkpt>
  <trkpt lat="59.688633" lon="9.665250"><ele>399.0</ele></trkpt>
  <trkpt lat="59.688566" lon="9.665214"><ele>398.0</ele></trkpt>
  <trkpt lat="59.688529" lon="9.665112"><ele>397.0</ele></trkpt>
  <trkpt lat="59.688529" lon="9.665063"><ele>396.0</ele></trkpt>
  <trkpt lat="59.688501" lon="9.665001"><ele>396.0</ele></trkpt>
  <trkpt lat="59.688448" lon="9.664944"><ele>395.0</ele></trkpt>
  <trkpt lat="59.688395" lon="9.664825"><ele>394.0</ele></trkpt>
  <trkpt lat="59.688374" lon="9.664731"><ele>393.0</ele></trkpt>
  <trkpt lat="59.688239" lon="9.664462"><ele>389.0</ele></trkpt>
  <trkpt lat="59.687887" lon="9.663929"><ele>383.0</ele></trkpt>
  <trkpt lat="59.687824" lon="9.663909"><ele>383.0</ele></trkpt>
  <trkpt lat="59.687776" lon="9.663679"><ele>381.0</ele></trkpt>
  <trkpt lat="59.687750" lon="9.663637"><ele>381.0</ele></trkpt>
  <trkpt lat="59.687642" lon="9.663561"><ele>377.0</ele></trkpt>
  <trkpt lat="59.687528" lon="9.663419"><ele>374.0</ele></trkpt>
  <trkpt lat="59.687361" lon="9.663293"><ele>372.0</ele></trkpt>
  <trkpt lat="59.687268" lon="9.663317"><ele>371.0</ele></trkpt>
  <trkpt lat="59.687126" lon="9.663311"><ele>369.0</ele></trkpt>
  <trkpt lat="59.687045" lon="9.663262"><ele>368.0</ele></trkpt>
  <trkpt lat="59.686925" lon="9.663260"><ele>368.0</ele></trkpt>
  <trkpt lat="59.686758" lon="9.663121"><ele>366.0</ele></trkpt>
  <trkpt lat="59.686606" lon="9.663187"><ele>366.0</ele></trkpt>
  <trkpt lat="59.686538" lon="9.663123"><ele>365.0</ele></trkpt>
  <trkpt lat="59.686451" lon="9.663152"><ele>365.0</ele></trkpt>
  <trkpt lat="59.686379" lon="9.663111"><ele>364.0</ele></trkpt>
  <trkpt lat="59.686341" lon="9.663111"><ele>364.0</ele></trkpt>
  <trkpt lat="59.686316" lon="9.663136"><ele>364.0</ele></trkpt>
  <trkpt lat="59.686298" lon="9.663203"><ele>364.0</ele></trkpt>
  <trkpt lat="59.686112" lon="9.663163"><ele>363.0</ele></trkpt>
  <trkpt lat="59.686054" lon="9.663130"><ele>362.0</ele></trkpt>
  <trkpt lat="59.685970" lon="9.663109"><ele>361.0</ele></trkpt>
  <trkpt lat="59.685930" lon="9.663078"><ele>361.0</ele></trkpt>
  <trkpt lat="59.685881" lon="9.662998"><ele>359.0</ele></trkpt>
  <trkpt lat="59.685731" lon="9.662907"><ele>358.0</ele></trkpt>
  <trkpt lat="59.685697" lon="9.662902"><ele>357.0</ele></trkpt>
  <trkpt lat="59.685627" lon="9.662843"><ele>357.0</ele></trkpt>
  <trkpt lat="59.685584" lon="9.662783"><ele>357.0</ele></trkpt>
  <trkpt lat="59.685459" lon="9.662681"><ele>356.0</ele></trkpt>
  <trkpt lat="59.685421" lon="9.662662"><ele>356.0</ele></trkpt>
  <trkpt lat="59.685347" lon="9.662674"><ele>356.0</ele></trkpt>
  <trkpt lat="59.685277" lon="9.662624"><ele>356.0</ele></trkpt>
  <trkpt lat="59.685067" lon="9.662536"><ele>356.0</ele></trkpt>
  <trkpt lat="59.685031" lon="9.662550"><ele>356.0</ele></trkpt>
  <trkpt lat="59.684981" lon="9.662541"><ele>355.0</ele></trkpt>
  <trkpt lat="59.684905" lon="9.662575"><ele>355.0</ele></trkpt>
  <trkpt lat="59.684859" lon="9.662636"><ele>355.0</ele></trkpt>
  <trkpt lat="59.684816" lon="9.662747"><ele>356.0</ele></trkpt>
  <trkpt lat="59.684765" lon="9.662824"><ele>356.0</ele></trkpt>
  <trkpt lat="59.684582" lon="9.662788"><ele>356.0</ele></trkpt>
  <trkpt lat="59.684444" lon="9.662881"><ele>356.0</ele></trkpt>
  <trkpt lat="59.684381" lon="9.662952"><ele>356.0</ele></trkpt>
  <trkpt lat="59.684335" lon="9.662956"><ele>356.0</ele></trkpt>
  <trkpt lat="59.684148" lon="9.663079"><ele>354.0</ele></trkpt>
  <trkpt lat="59.684097" lon="9.663153"><ele>353.0</ele></trkpt>
  <trkpt lat="59.683962" lon="9.663261"><ele>352.0</ele></trkpt>
  <trkpt lat="59.683690" lon="9.663444"><ele>348.0</ele></trkpt>
  <trkpt lat="59.683578" lon="9.663557"><ele>347.0</ele></trkpt>
  <trkpt lat="59.683435" lon="9.663639"><ele>343.0</ele></trkpt>
  <trkpt lat="59.683321" lon="9.663656"><ele>340.0</ele></trkpt>
  <trkpt lat="59.683051" lon="9.663533"><ele>334.0</ele></trkpt>
  <trkpt lat="59.683005" lon="9.663539"><ele>333.0</ele></trkpt>
  <trkpt lat="59.682913" lon="9.663510"><ele>332.0</ele></trkpt>
  <trkpt lat="59.682837" lon="9.663525"><ele>331.0</ele></trkpt>
  <trkpt lat="59.682761" lon="9.663505"><ele>330.0</ele></trkpt>
  <trkpt lat="59.682650" lon="9.663381"><ele>329.0</ele></trkpt>
  <trkpt lat="59.682559" lon="9.663307"><ele>328.0</ele></trkpt>
  <trkpt lat="59.682465" lon="9.663268"><ele>327.0</ele></trkpt>
  <trkpt lat="59.682364" lon="9.663201"><ele>326.0</ele></trkpt>
  <trkpt lat="59.682140" lon="9.662970"><ele>321.0</ele></trkpt>
  <trkpt lat="59.682043" lon="9.662944"><ele>319.0</ele></trkpt>
  <trkpt lat="59.681819" lon="9.662613"><ele>313.0</ele></trkpt>
  <trkpt lat="59.681571" lon="9.662323"><ele>305.0</ele></trkpt>
  <trkpt lat="59.681527" lon="9.661994"><ele>301.0</ele></trkpt>
  <trkpt lat="59.681408" lon="9.661828"><ele>296.0</ele></trkpt>
  <trkpt lat="59.681366" lon="9.661785"><ele>295.0</ele></trkpt>
  <trkpt lat="59.681250" lon="9.661721"><ele>293.0</ele></trkpt>
  <trkpt lat="59.681223" lon="9.661696"><ele>292.0</ele></trkpt>
  <trkpt lat="59.681197" lon="9.661634"><ele>292.0</ele></trkpt>
  <trkpt lat="59.681149" lon="9.660949"><ele>286.0</ele></trkpt>
  <trkpt lat="59.681083" lon="9.660851"><ele>283.0</ele></trkpt>
  <trkpt lat="59.680886" lon="9.660723"><ele>278.0</ele></trkpt>
  <trkpt lat="59.680731" lon="9.660591"><ele>274.0</ele></trkpt>
  <trkpt lat="59.680613" lon="9.660526"><ele>271.0</ele></trkpt>
  <trkpt lat="59.680524" lon="9.660521"><ele>269.0</ele></trkpt>
  <trkpt lat="59.680463" lon="9.660495"><ele>267.0</ele></trkpt>
  <trkpt lat="59.680423" lon="9.660438"><ele>265.0</ele></trkpt>
  <trkpt lat="59.680387" lon="9.660279"><ele>263.0</ele></trkpt>
  <trkpt lat="59.680249" lon="9.660026"><ele>258.0</ele></trkpt>
  <trkpt lat="59.680211" lon="9.659672"><ele>252.0</ele></trkpt>
  <trkpt lat="59.680219" lon="9.659587"><ele>250.0</ele></trkpt>
  <trkpt lat="59.680171" lon="9.659542"><ele>249.0</ele></trkpt>
  <trkpt lat="59.680068" lon="9.659519"><ele>244.0</ele></trkpt>
 </trkseg></trk></gpx>