<?xml version="1.0" encoding="UTF-8"?>
<gpx version="1.1" creator="stikart_web trailguide-snapshot" xmlns="http://www.topografix.com/GPX/1/1">
 <trk><name>Tangentjern - Rundtjern 1</name><desc>Fra Trailguide (trailguide.net), gradering: blue. 323 m, 43 m nedfart.</desc><trkseg>
  <trkpt lat="59.679110" lon="9.612650"><ele>335.0</ele></trkpt>
  <trkpt lat="59.678780" lon="9.612930"><ele>332.0</ele></trkpt>
  <trkpt lat="59.678690" lon="9.612930"><ele>331.0</ele></trkpt>
  <trkpt lat="59.678480" lon="9.613010"><ele>327.0</ele></trkpt>
  <trkpt lat="59.678280" lon="9.612990"><ele>324.0</ele></trkpt>
  <trkpt lat="59.678180" lon="9.613020"><ele>322.0</ele></trkpt>
  <trkpt lat="59.678100" lon="9.613340"><ele>320.0</ele></trkpt>
  <trkpt lat="59.677970" lon="9.613420"><ele>318.0</ele></trkpt>
  <trkpt lat="59.677750" lon="9.613480"><ele>314.0</ele></trkpt>
  <trkpt lat="59.677360" lon="9.613690"><ele>308.0</ele></trkpt>
  <trkpt lat="59.677270" lon="9.613700"><ele>306.0</ele></trkpt>
  <trkpt lat="59.677270" lon="9.613790"><ele>306.0</ele></trkpt>
  <trkpt lat="59.677060" lon="9.614080"><ele>301.0</ele></trkpt>
  <trkpt lat="59.677040" lon="9.614170"><ele>300.0</ele></trkpt>
  <trkpt lat="59.676950" lon="9.614150"><ele>299.0</ele></trkpt>
  <trkpt lat="59.676930" lon="9.614260"><ele>299.0</ele></trkpt>
  <trkpt lat="59.676820" lon="9.614270"><ele>296.0</ele></trkpt>
  <trkpt lat="59.676640" lon="9.614600"><ele>291.0</ele></trkpt>
  <trkpt lat="59.676600" lon="9.614540"><ele>289.0</ele></trkpt>
 </trkseg></trk></gpx>