<?xml version="1.0" encoding="UTF-8"?>
<gpx version="1.1" creator="stikart_web strava-extract" xmlns="http://www.topografix.com/GPX/1/1">
 <trk><name>Telefonløypa</name><desc>Ekstrahert fra Strava-løpetur 2024-08-29 (aktivitet 12271079801), matchet mot OSM-sti Telefonløypa</desc><trkseg>
  <trkpt lat="59.671970" lon="9.578323"><ele>592.8</ele></trkpt>
  <trkpt lat="59.671969" lon="9.578347"><ele>593.0</ele></trkpt>
  <trkpt lat="59.671968" lon="9.578372"><ele>593.0</ele></trkpt>
  <trkpt lat="59.671966" lon="9.578410"><ele>593.0</ele></trkpt>
  <trkpt lat="59.671961" lon="9.578445"><ele>593.0</ele></trkpt>
  <trkpt lat="59.671955" lon="9.578469"><ele>593.0</ele></trkpt>
  <trkpt lat="59.671948" lon="9.578500"><ele>593.0</ele></trkpt>
  <trkpt lat="59.671943" lon="9.578529"><ele>593.0</ele></trkpt>
  <trkpt lat="59.671937" lon="9.578560"><ele>592.8</ele></trkpt>
  <trkpt lat="59.671935" lon="9.578583"><ele>592.4</ele></trkpt>
  <trkpt lat="59.671932" lon="9.578610"><ele>592.4</ele></trkpt>
  <trkpt lat="59.671932" lon="9.578639"><ele>592.0</ele></trkpt>
  <trkpt lat="59.671933" lon="9.578676"><ele>591.6</ele></trkpt>
  <trkpt lat="59.671934" lon="9.578713"><ele>591.2</ele></trkpt>
  <trkpt lat="59.671936" lon="9.578744"><ele>590.8</ele></trkpt>
  <trkpt lat="59.671938" lon="9.578776"><ele>590.6</ele></trkpt>
  <trkpt lat="59.671939" lon="9.578811"><ele>590.4</ele></trkpt>
  <trkpt lat="59.671937" lon="9.578842"><ele>590.0</ele></trkpt>
  <trkpt lat="59.671932" lon="9.578876"><ele>589.8</ele></trkpt>
  <trkpt lat="59.671927" lon="9.578907"><ele>589.4</ele></trkpt>
  <trkpt lat="59.671920" lon="9.578935"><ele>589.0</ele></trkpt>
  <trkpt lat="59.671911" lon="9.578964"><ele>588.6</ele></trkpt>
  <trkpt lat="59.671901" lon="9.578990"><ele>588.6</ele></trkpt>
  <trkpt lat="59.671893" lon="9.579021"><ele>588.2</ele></trkpt>
  <trkpt lat="59.671885" lon="9.579054"><ele>588.0</ele></trkpt>
  <trkpt lat="59.671881" lon="9.579086"><ele>587.6</ele></trkpt>
  <trkpt lat="59.671882" lon="9.579116"><ele>587.0</ele></trkpt>
  <trkpt lat="59.671885" lon="9.579143"><ele>586.8</ele></trkpt>
  <trkpt lat="59.671890" lon="9.579167"><ele>586.6</ele></trkpt>
  <trkpt lat="59.671896" lon="9.579189"><ele>586.4</ele></trkpt>
  <trkpt lat="59.671899" lon="9.579212"><ele>586.4</ele></trkpt>
  <trkpt lat="59.671902" lon="9.579240"><ele>586.4</ele></trkpt>
  <trkpt lat="59.671904" lon="9.579277"><ele>586.2</ele></trkpt>
  <trkpt lat="59.671906" lon="9.579312"><ele>586.2</ele></trkpt>
  <trkpt lat="59.671912" lon="9.579336"><ele>586.2</ele></trkpt>
  <trkpt lat="59.671916" lon="9.579365"><ele>586.2</ele></trkpt>
  <trkpt lat="59.671919" lon="9.579392"><ele>586.2</ele></trkpt>
  <trkpt lat="59.671922" lon="9.579415"><ele>586.2</ele></trkpt>
  <trkpt lat="59.671926" lon="9.579438"><ele>586.2</ele></trkpt>
  <trkpt lat="59.671930" lon="9.579470"><ele>586.2</ele></trkpt>
  <trkpt lat="59.671935" lon="9.579498"><ele>586.2</ele></trkpt>
  <trkpt lat="59.671941" lon="9.579523"><ele>586.2</ele></trkpt>
  <trkpt lat="59.671946" lon="9.579552"><ele>586.2</ele></trkpt>
  <trkpt lat="59.671947" lon="9.579576"><ele>586.0</ele></trkpt>
  <trkpt lat="59.671944" lon="9.579592"><ele>586.0</ele></trkpt>
  <trkpt lat="59.671942" lon="9.579611"><ele>585.8</ele></trkpt>
  <trkpt lat="59.671940" lon="9.579633"><ele>585.6</ele></trkpt>
  <trkpt lat="59.671939" lon="9.579650"><ele>585.2</ele></trkpt>
  <trkpt lat="59.671936" lon="9.579669"><ele>585.0</ele></trkpt>
  <trkpt lat="59.671935" lon="9.579685"><ele>584.8</ele></trkpt>
  <trkpt lat="59.671932" lon="9.579701"><ele>584.6</ele></trkpt>
  <trkpt lat="59.671931" lon="9.579714"><ele>584.2</ele></trkpt>
  <trkpt lat="59.671931" lon="9.579736"><ele>584.0</ele></trkpt>
  <trkpt lat="59.671929" lon="9.579765"><ele>583.8</ele></trkpt>
  <trkpt lat="59.671933" lon="9.579785"><ele>583.6</ele></trkpt>
  <trkpt lat="59.671934" lon="9.579807"><ele>583.2</ele></trkpt>
  <trkpt lat="59.671937" lon="9.579825"><ele>583.0</ele></trkpt>
  <trkpt lat="59.671939" lon="9.579839"><ele>582.8</ele></trkpt>
  <trkpt lat="59.671939" lon="9.579852"><ele>582.4</ele></trkpt>
  <trkpt lat="59.671939" lon="9.579865"><ele>582.0</ele></trkpt>
  <trkpt lat="59.671942" lon="9.579882"><ele>581.8</ele></trkpt>
  <trkpt lat="59.671944" lon="9.579900"><ele>581.4</ele></trkpt>
  <trkpt lat="59.671948" lon="9.579923"><ele>581.0</ele></trkpt>
  <trkpt lat="59.671951" lon="9.579943"><ele>580.6</ele></trkpt>
  <trkpt lat="59.671951" lon="9.579968"><ele>580.4</ele></trkpt>
  <trkpt lat="59.671953" lon="9.579989"><ele>580.0</ele></trkpt>
  <trkpt lat="59.671954" lon="9.580000"><ele>579.4</ele></trkpt>
  <trkpt lat="59.671955" lon="9.580013"><ele>579.0</ele></trkpt>
  <trkpt lat="59.671957" lon="9.580029"><ele>578.6</ele></trkpt>
  <trkpt lat="59.671960" lon="9.580043"><ele>578.4</ele></trkpt>
  <trkpt lat="59.671961" lon="9.580057"><ele>578.0</ele></trkpt>
  <trkpt lat="59.671964" lon="9.580083"><ele>577.6</ele></trkpt>
  <trkpt lat="59.671965" lon="9.580114"><ele>577.0</ele></trkpt>
  <trkpt lat="59.671966" lon="9.580141"><ele>576.8</ele></trkpt>
  <trkpt lat="59.671965" lon="9.580158"><ele>576.8</ele></trkpt>
  <trkpt lat="59.671965" lon="9.580176"><ele>576.4</ele></trkpt>
  <trkpt lat="59.671966" lon="9.580194"><ele>576.0</ele></trkpt>
  <trkpt lat="59.671969" lon="9.580217"><ele>575.6</ele></trkpt>
  <trkpt lat="59.671970" lon="9.580241"><ele>575.2</ele></trkpt>
  <trkpt lat="59.671971" lon="9.580262"><ele>574.8</ele></trkpt>
  <trkpt lat="59.671971" lon="9.580290"><ele>574.4</ele></trkpt>
  <trkpt lat="59.671973" lon="9.580311"><ele>574.0</ele></trkpt>
  <trkpt lat="59.671976" lon="9.580334"><ele>573.6</ele></trkpt>
  <trkpt lat="59.671981" lon="9.580362"><ele>573.2</ele></trkpt>
  <trkpt lat="59.671987" lon="9.580387"><ele>573.2</ele></trkpt>
  <trkpt lat="59.671994" lon="9.580410"><ele>572.6</ele></trkpt>
  <trkpt lat="59.672004" lon="9.580440"><ele>572.4</ele></trkpt>
  <trkpt lat="59.672011" lon="9.580466"><ele>572.2</ele></trkpt>
  <trkpt lat="59.672018" lon="9.580490"><ele>572.2</ele></trkpt>
  <trkpt lat="59.672024" lon="9.580513"><ele>572.2</ele></trkpt>
  <trkpt lat="59.672033" lon="9.580529"><ele>572.2</ele></trkpt>
  <trkpt lat="59.672043" lon="9.580545"><ele>572.2</ele></trkpt>
  <trkpt lat="59.672054" lon="9.580558"><ele>572.2</ele></trkpt>
  <trkpt lat="59.672066" lon="9.580568"><ele>572.2</ele></trkpt>
  <trkpt lat="59.672080" lon="9.580580"><ele>572.2</ele></trkpt>
  <trkpt lat="59.672099" lon="9.580597"><ele>572.2</ele></trkpt>
  <trkpt lat="59.672117" lon="9.580612"><ele>572.2</ele></trkpt>
  <trkpt lat="59.672136" lon="9.580621"><ele>572.2</ele></trkpt>
  <trkpt lat="59.672157" lon="9.580635"><ele>572.2</ele></trkpt>
  <trkpt lat="59.672178" lon="9.580646"><ele>572.2</ele></trkpt>
  <trkpt lat="59.672199" lon="9.580664"><ele>572.0</ele></trkpt>
  <trkpt lat="59.672219" lon="9.580691"><ele>572.0</ele></trkpt>
  <trkpt lat="59.672235" lon="9.580706"><ele>571.8</ele></trkpt>
  <trkpt lat="59.672253" lon="9.580711"><ele>571.8</ele></trkpt>
  <trkpt lat="59.672271" lon="9.580708"><ele>571.6</ele></trkpt>
  <trkpt lat="59.672287" lon="9.580706"><ele>571.6</ele></trkpt>
  <trkpt lat="59.672308" lon="9.580705"><ele>571.6</ele></trkpt>
  <trkpt lat="59.672327" lon="9.580705"><ele>571.4</ele></trkpt>
  <trkpt lat="59.672347" lon="9.580707"><ele>571.2</ele></trkpt>
  <trkpt lat="59.672362" lon="9.580703"><ele>571.2</ele></trkpt>
  <trkpt lat="59.672378" lon="9.580700"><ele>570.8</ele></trkpt>
  <trkpt lat="59.672394" lon="9.580701"><ele>570.6</ele></trkpt>
  <trkpt lat="59.672413" lon="9.580710"><ele>570.4</ele></trkpt>
  <trkpt lat="59.672426" lon="9.580718"><ele>570.4</ele></trkpt>
  <trkpt lat="59.672443" lon="9.580726"><ele>570.0</ele></trkpt>
  <trkpt lat="59.672456" lon="9.580746"><ele>570.0</ele></trkpt>
  <trkpt lat="59.672470" lon="9.580771"><ele>569.8</ele></trkpt>
  <trkpt lat="59.672484" lon="9.580805"><ele>569.4</ele></trkpt>
  <trkpt lat="59.672502" lon="9.580835"><ele>569.0</ele></trkpt>
  <trkpt lat="59.672519" lon="9.580862"><ele>568.6</ele></trkpt>
  <trkpt lat="59.672538" lon="9.580898"><ele>568.2</ele></trkpt>
  <trkpt lat="59.672561" lon="9.580937"><ele>567.8</ele></trkpt>
  <trkpt lat="59.672580" lon="9.580969"><ele>567.6</ele></trkpt>
  <trkpt lat="59.672596" lon="9.580999"><ele>567.6</ele></trkpt>
  <trkpt lat="59.672612" lon="9.581021"><ele>567.4</ele></trkpt>
  <trkpt lat="59.672630" lon="9.581043"><ele>567.4</ele></trkpt>
  <trkpt lat="59.672650" lon="9.581075"><ele>567.4</ele></trkpt>
  <trkpt lat="59.672663" lon="9.581111"><ele>567.4</ele></trkpt>
  <trkpt lat="59.672676" lon="9.581151"><ele>567.4</ele></trkpt>
  <trkpt lat="59.672686" lon="9.581197"><ele>567.4</ele></trkpt>
  <trkpt lat="59.672696" lon="9.581231"><ele>567.4</ele></trkpt>
  <trkpt lat="59.672707" lon="9.581262"><ele>567.4</ele></trkpt>
  <trkpt lat="59.672720" lon="9.581301"><ele>567.4</ele></trkpt>
  <trkpt lat="59.672734" lon="9.581340"><ele>567.4</ele></trkpt>
  <trkpt lat="59.672747" lon="9.581374"><ele>567.4</ele></trkpt>
  <trkpt lat="59.672757" lon="9.581403"><ele>567.4</ele></trkpt>
  <trkpt lat="59.672761" lon="9.581441"><ele>567.4</ele></trkpt>
  <trkpt lat="59.672763" lon="9.581482"><ele>567.6</ele></trkpt>
  <trkpt lat="59.672761" lon="9.581534"><ele>567.6</ele></trkpt>
  <trkpt lat="59.672758" lon="9.581593"><ele>567.6</ele></trkpt>
  <trkpt lat="59.672760" lon="9.581643"><ele>567.6</ele></trkpt>
  <trkpt lat="59.672766" lon="9.581692"><ele>567.2</ele></trkpt>
  <trkpt lat="59.672769" lon="9.581741"><ele>566.8</ele></trkpt>
  <trkpt lat="59.672773" lon="9.581784"><ele>566.4</ele></trkpt>
  <trkpt lat="59.672776" lon="9.581832"><ele>566.4</ele></trkpt>
  <trkpt lat="59.672779" lon="9.581879"><ele>566.4</ele></trkpt>
  <trkpt lat="59.672783" lon="9.581922"><ele>566.4</ele></trkpt>
  <trkpt lat="59.672790" lon="9.581964"><ele>566.2</ele></trkpt>
  <trkpt lat="59.672789" lon="9.582015"><ele>566.2</ele></trkpt>
  <trkpt lat="59.672790" lon="9.582052"><ele>566.2</ele></trkpt>
  <trkpt lat="59.672791" lon="9.582095"><ele>566.2</ele></trkpt>
  <trkpt lat="59.672795" lon="9.582134"><ele>566.2</ele></trkpt>
  <trkpt lat="59.672803" lon="9.582175"><ele>566.0</ele></trkpt>
  <trkpt lat="59.672809" lon="9.582221"><ele>566.0</ele></trkpt>
  <trkpt lat="59.672815" lon="9.582261"><ele>566.0</ele></trkpt>
  <trkpt lat="59.672814" lon="9.582308"><ele>566.0</ele></trkpt>
  <trkpt lat="59.672809" lon="9.582346"><ele>566.0</ele></trkpt>
  <trkpt lat="59.672803" lon="9.582393"><ele>566.0</ele></trkpt>
  <trkpt lat="59.672793" lon="9.582437"><ele>565.8</ele></trkpt>
  <trkpt lat="59.672786" lon="9.582471"><ele>565.6</ele></trkpt>
  <trkpt lat="59.672778" lon="9.582513"><ele>565.4</ele></trkpt>
  <trkpt lat="59.672770" lon="9.582552"><ele>565.4</ele></trkpt>
  <trkpt lat="59.672760" lon="9.582587"><ele>565.2</ele></trkpt>
  <trkpt lat="59.672752" lon="9.582623"><ele>565.2</ele></trkpt>
  <trkpt lat="59.672735" lon="9.582658"><ele>565.2</ele></trkpt>
  <trkpt lat="59.672721" lon="9.582683"><ele>565.2</ele></trkpt>
  <trkpt lat="59.672705" lon="9.582707"><ele>565.4</ele></trkpt>
  <trkpt lat="59.672688" lon="9.582742"><ele>565.4</ele></trkpt>
  <trkpt lat="59.672678" lon="9.582772"><ele>565.4</ele></trkpt>
  <trkpt lat="59.672661" lon="9.582808"><ele>565.4</ele></trkpt>
  <trkpt lat="59.672642" lon="9.582847"><ele>565.4</ele></trkpt>
  <trkpt lat="59.672628" lon="9.582883"><ele>565.4</ele></trkpt>
  <trkpt lat="59.672614" lon="9.582921"><ele>565.4</ele></trkpt>
  <trkpt lat="59.672600" lon="9.582964"><ele>565.4</ele></trkpt>
  <trkpt lat="59.672593" lon="9.582996"><ele>565.4</ele></trkpt>
  <trkpt lat="59.672584" lon="9.583034"><ele>565.4</ele></trkpt>
  <trkpt lat="59.672575" lon="9.583069"><ele>565.4</ele></trkpt>
  <trkpt lat="59.672563" lon="9.583116"><ele>565.4</ele></trkpt>
  <trkpt lat="59.672549" lon="9.583165"><ele>564.8</ele></trkpt>
  <trkpt lat="59.672532" lon="9.583212"><ele>564.6</ele></trkpt>
  <trkpt lat="59.672516" lon="9.583250"><ele>564.4</ele></trkpt>
  <trkpt lat="59.672499" lon="9.583292"><ele>563.8</ele></trkpt>
  <trkpt lat="59.672484" lon="9.583333"><ele>563.6</ele></trkpt>
  <trkpt lat="59.672471" lon="9.583358"><ele>563.6</ele></trkpt>
  <trkpt lat="59.672454" lon="9.583390"><ele>563.6</ele></trkpt>
  <trkpt lat="59.672441" lon="9.583411"><ele>563.8</ele></trkpt>
  <trkpt lat="59.672426" lon="9.583440"><ele>563.8</ele></trkpt>
  <trkpt lat="59.672415" lon="9.583469"><ele>563.8</ele></trkpt>
  <trkpt lat="59.672404" lon="9.583504"><ele>563.8</ele></trkpt>
  <trkpt lat="59.672395" lon="9.583542"><ele>563.8</ele></trkpt>
  <trkpt lat="59.672392" lon="9.583581"><ele>563.8</ele></trkpt>
  <trkpt lat="59.672391" lon="9.583610"><ele>563.8</ele></trkpt>
  <trkpt lat="59.672388" lon="9.583635"><ele>563.8</ele></trkpt>
  <trkpt lat="59.672385" lon="9.583661"><ele>563.6</ele></trkpt>
  <trkpt lat="59.672381" lon="9.583686"><ele>563.6</ele></trkpt>
  <trkpt lat="59.672374" lon="9.583707"><ele>563.4</ele></trkpt>
  <trkpt lat="59.672365" lon="9.583727"><ele>563.4</ele></trkpt>
  <trkpt lat="59.672358" lon="9.583756"><ele>563.0</ele></trkpt>
  <trkpt lat="59.672350" lon="9.583788"><ele>562.6</ele></trkpt>
  <trkpt lat="59.672343" lon="9.583825"><ele>562.2</ele></trkpt>
  <trkpt lat="59.672332" lon="9.583868"><ele>562.0</ele></trkpt>
  <trkpt lat="59.672318" lon="9.583902"><ele>561.4</ele></trkpt>
  <trkpt lat="59.672301" lon="9.583939"><ele>561.0</ele></trkpt>
  <trkpt lat="59.672282" lon="9.583972"><ele>560.4</ele></trkpt>
  <trkpt lat="59.672263" lon="9.583998"><ele>560.2</ele></trkpt>
  <trkpt lat="59.672246" lon="9.584030"><ele>560.0</ele></trkpt>
  <trkpt lat="59.672230" lon="9.584065"><ele>560.0</ele></trkpt>
  <trkpt lat="59.672219" lon="9.584102"><ele>559.8</ele></trkpt>
  <trkpt lat="59.672213" lon="9.584145"><ele>559.6</ele></trkpt>
  <trkpt lat="59.672209" lon="9.584183"><ele>559.4</ele></trkpt>
  <trkpt lat="59.672199" lon="9.584225"><ele>559.0</ele></trkpt>
  <trkpt lat="59.672185" lon="9.584267"><ele>558.8</ele></trkpt>
  <trkpt lat="59.672172" lon="9.584308"><ele>558.6</ele></trkpt>
  <trkpt lat="59.672159" lon="9.584351"><ele>558.2</ele></trkpt>
  <trkpt lat="59.672145" lon="9.584378"><ele>557.6</ele></trkpt>
  <trkpt lat="59.672127" lon="9.584407"><ele>557.4</ele></trkpt>
  <trkpt lat="59.672104" lon="9.584443"><ele>557.4</ele></trkpt>
  <trkpt lat="59.672084" lon="9.584474"><ele>557.4</ele></trkpt>
  <trkpt lat="59.672065" lon="9.584508"><ele>557.4</ele></trkpt>
  <trkpt lat="59.672047" lon="9.584546"><ele>557.6</ele></trkpt>
  <trkpt lat="59.672030" lon="9.584587"><ele>557.6</ele></trkpt>
  <trkpt lat="59.672019" lon="9.584633"><ele>557.8</ele></trkpt>
  <trkpt lat="59.672009" lon="9.584683"><ele>557.8</ele></trkpt>
  <trkpt lat="59.672004" lon="9.584721"><ele>558.0</ele></trkpt>
  <trkpt lat="59.671999" lon="9.584764"><ele>558.0</ele></trkpt>
  <trkpt lat="59.671994" lon="9.584809"><ele>558.2</ele></trkpt>
  <trkpt lat="59.671990" lon="9.584846"><ele>558.4</ele></trkpt>
  <trkpt lat="59.671981" lon="9.584889"><ele>558.8</ele></trkpt>
  <trkpt lat="59.671970" lon="9.584923"><ele>559.0</ele></trkpt>
  <trkpt lat="59.671961" lon="9.584959"><ele>559.2</ele></trkpt>
  <trkpt lat="59.671950" lon="9.584996"><ele>559.6</ele></trkpt>
  <trkpt lat="59.671937" lon="9.585038"><ele>560.0</ele></trkpt>
  <trkpt lat="59.671929" lon="9.585075"><ele>560.0</ele></trkpt>
  <trkpt lat="59.671915" lon="9.585121"><ele>560.2</ele></trkpt>
  <trkpt lat="59.671905" lon="9.585163"><ele>560.2</ele></trkpt>
  <trkpt lat="59.671894" lon="9.585201"><ele>560.2</ele></trkpt>
  <trkpt lat="59.671877" lon="9.585239"><ele>560.4</ele></trkpt>
  <trkpt lat="59.671861" lon="9.585262"><ele>560.8</ele></trkpt>
  <trkpt lat="59.671840" lon="9.585289"><ele>561.2</ele></trkpt>
  <trkpt lat="59.671818" lon="9.585311"><ele>561.6</ele></trkpt>
  <trkpt lat="59.671799" lon="9.585332"><ele>561.8</ele></trkpt>
  <trkpt lat="59.671780" lon="9.585362"><ele>561.8</ele></trkpt>
  <trkpt lat="59.671763" lon="9.585402"><ele>562.0</ele></trkpt>
  <trkpt lat="59.671745" lon="9.585439"><ele>562.0</ele></trkpt>
  <trkpt lat="59.671724" lon="9.585469"><ele>562.2</ele></trkpt>
  <trkpt lat="59.671709" lon="9.585492"><ele>562.2</ele></trkpt>
  <trkpt lat="59.671690" lon="9.585520"><ele>562.4</ele></trkpt>
  <trkpt lat="59.671672" lon="9.585550"><ele>562.6</ele></trkpt>
  <trkpt lat="59.671656" lon="9.585579"><ele>562.8</ele></trkpt>
  <trkpt lat="59.671641" lon="9.585611"><ele>563.2</ele></trkpt>
  <trkpt lat="59.671624" lon="9.585639"><ele>563.8</ele></trkpt>
  <trkpt lat="59.671610" lon="9.585667"><ele>564.2</ele></trkpt>
  <trkpt lat="59.671598" lon="9.585705"><ele>564.6</ele></trkpt>
  <trkpt lat="59.671584" lon="9.585745"><ele>564.8</ele></trkpt>
  <trkpt lat="59.671569" lon="9.585777"><ele>564.8</ele></trkpt>
  <trkpt lat="59.671552" lon="9.585809"><ele>564.8</ele></trkpt>
  <trkpt lat="59.671538" lon="9.585842"><ele>565.0</ele></trkpt>
  <trkpt lat="59.671525" lon="9.585879"><ele>565.0</ele></trkpt>
  <trkpt lat="59.671510" lon="9.585925"><ele>565.0</ele></trkpt>
  <trkpt lat="59.671497" lon="9.585961"><ele>565.0</ele></trkpt>
  <trkpt lat="59.671485" lon="9.585995"><ele>565.2</ele></trkpt>
  <trkpt lat="59.671475" lon="9.586039"><ele>565.0</ele></trkpt>
  <trkpt lat="59.671468" lon="9.586082"><ele>565.0</ele></trkpt>
  <trkpt lat="59.671458" lon="9.586127"><ele>565.0</ele></trkpt>
  <trkpt lat="59.671449" lon="9.586164"><ele>565.0</ele></trkpt>
  <trkpt lat="59.671444" lon="9.586204"><ele>564.6</ele></trkpt>
  <trkpt lat="59.671440" lon="9.586240"><ele>564.2</ele></trkpt>
  <trkpt lat="59.671436" lon="9.586277"><ele>563.8</ele></trkpt>
  <trkpt lat="59.671429" lon="9.586320"><ele>563.6</ele></trkpt>
  <trkpt lat="59.671424" lon="9.586359"><ele>563.2</ele></trkpt>
  <trkpt lat="59.671417" lon="9.586401"><ele>562.8</ele></trkpt>
  <trkpt lat="59.671413" lon="9.586439"><ele>562.6</ele></trkpt>
  <trkpt lat="59.671411" lon="9.586476"><ele>562.0</ele></trkpt>
  <trkpt lat="59.671409" lon="9.586516"><ele>561.8</ele></trkpt>
  <trkpt lat="59.671411" lon="9.586555"><ele>561.4</ele></trkpt>
  <trkpt lat="59.671412" lon="9.586598"><ele>561.0</ele></trkpt>
  <trkpt lat="59.671411" lon="9.586644"><ele>560.6</ele></trkpt>
  <trkpt lat="59.671405" lon="9.586687"><ele>559.8</ele></trkpt>
  <trkpt lat="59.671394" lon="9.586729"><ele>559.2</ele></trkpt>
  <trkpt lat="59.671380" lon="9.586762"><ele>558.8</ele></trkpt>
  <trkpt lat="59.671366" lon="9.586799"><ele>558.2</ele></trkpt>
  <trkpt lat="59.671351" lon="9.586841"><ele>557.8</ele></trkpt>
  <trkpt lat="59.671338" lon="9.586888"><ele>557.2</ele></trkpt>
  <trkpt lat="59.671328" lon="9.586932"><ele>556.8</ele></trkpt>
  <trkpt lat="59.671316" lon="9.586967"><ele>556.4</ele></trkpt>
  <trkpt lat="59.671303" lon="9.586999"><ele>556.0</ele></trkpt>
  <trkpt lat="59.671287" lon="9.587030"><ele>556.0</ele></trkpt>
  <trkpt lat="59.671269" lon="9.587059"><ele>555.8</ele></trkpt>
  <trkpt lat="59.671251" lon="9.587093"><ele>555.8</ele></trkpt>
  <trkpt lat="59.671228" lon="9.587118"><ele>555.4</ele></trkpt>
  <trkpt lat="59.671210" lon="9.587144"><ele>555.0</ele></trkpt>
  <trkpt lat="59.671190" lon="9.587171"><ele>554.8</ele></trkpt>
  <trkpt lat="59.671175" lon="9.587204"><ele>554.4</ele></trkpt>
  <trkpt lat="59.671163" lon="9.587244"><ele>554.2</ele></trkpt>
  <trkpt lat="59.671147" lon="9.587289"><ele>554.0</ele></trkpt>
  <trkpt lat="59.671129" lon="9.587329"><ele>553.8</ele></trkpt>
  <trkpt lat="59.671119" lon="9.587370"><ele>553.2</ele></trkpt>
  <trkpt lat="59.671113" lon="9.587424"><ele>552.8</ele></trkpt>
  <trkpt lat="59.671109" lon="9.587465"><ele>552.0</ele></trkpt>
  <trkpt lat="59.671106" lon="9.587511"><ele>551.4</ele></trkpt>
  <trkpt lat="59.671100" lon="9.587561"><ele>551.2</ele></trkpt>
  <trkpt lat="59.671093" lon="9.587608"><ele>550.8</ele></trkpt>
  <trkpt lat="59.671084" lon="9.587646"><ele>550.6</ele></trkpt>
  <trkpt lat="59.671074" lon="9.587685"><ele>550.6</ele></trkpt>
  <trkpt lat="59.671066" lon="9.587733"><ele>550.6</ele></trkpt>
  <trkpt lat="59.671062" lon="9.587779"><ele>550.6</ele></trkpt>
  <trkpt lat="59.671062" lon="9.587816"><ele>550.8</ele></trkpt>
  <trkpt lat="59.671063" lon="9.587850"><ele>550.8</ele></trkpt>
  <trkpt lat="59.671066" lon="9.587896"><ele>550.8</ele></trkpt>
  <trkpt lat="59.671068" lon="9.587945"><ele>550.8</ele></trkpt>
  <trkpt lat="59.671062" lon="9.587999"><ele>550.8</ele></trkpt>
  <trkpt lat="59.671059" lon="9.588041"><ele>550.8</ele></trkpt>
  <trkpt lat="59.671060" lon="9.588089"><ele>551.0</ele></trkpt>
  <trkpt lat="59.671063" lon="9.588141"><ele>551.0</ele></trkpt>
  <trkpt lat="59.671069" lon="9.588191"><ele>551.0</ele></trkpt>
  <trkpt lat="59.671072" lon="9.588241"><ele>551.0</ele></trkpt>
  <trkpt lat="59.671069" lon="9.588297"><ele>551.0</ele></trkpt>
  <trkpt lat="59.671066" lon="9.588343"><ele>551.0</ele></trkpt>
  <trkpt lat="59.671061" lon="9.588391"><ele>550.8</ele></trkpt>
  <trkpt lat="59.671053" lon="9.588445"><ele>550.6</ele></trkpt>
  <trkpt lat="59.671047" lon="9.588488"><ele>550.6</ele></trkpt>
  <trkpt lat="59.671039" lon="9.588544"><ele>550.4</ele></trkpt>
  <trkpt lat="59.671032" lon="9.588585"><ele>550.4</ele></trkpt>
  <trkpt lat="59.671023" lon="9.588633"><ele>550.4</ele></trkpt>
  <trkpt lat="59.671012" lon="9.588677"><ele>550.6</ele></trkpt>
  <trkpt lat="59.671004" lon="9.588723"><ele>550.8</ele></trkpt>
  <trkpt lat="59.670993" lon="9.588773"><ele>551.2</ele></trkpt>
  <trkpt lat="59.670985" lon="9.588812"><ele>551.4</ele></trkpt>
  <trkpt lat="59.670977" lon="9.588848"><ele>551.6</ele></trkpt>
  <trkpt lat="59.670970" lon="9.588884"><ele>552.0</ele></trkpt>
  <trkpt lat="59.670964" lon="9.588914"><ele>552.6</ele></trkpt>
  <trkpt lat="59.670961" lon="9.588948"><ele>552.8</ele></trkpt>
  <trkpt lat="59.670956" lon="9.588987"><ele>552.8</ele></trkpt>
  <trkpt lat="59.670950" lon="9.589022"><ele>552.8</ele></trkpt>
  <trkpt lat="59.670939" lon="9.589063"><ele>552.8</ele></trkpt>
  <trkpt lat="59.670926" lon="9.589097"><ele>552.6</ele></trkpt>
  <trkpt lat="59.670918" lon="9.589133"><ele>552.6</ele></trkpt>
  <trkpt lat="59.670910" lon="9.589171"><ele>552.6</ele></trkpt>
  <trkpt lat="59.670902" lon="9.589215"><ele>552.4</ele></trkpt>
  <trkpt lat="59.670893" lon="9.589256"><ele>552.4</ele></trkpt>
  <trkpt lat="59.670882" lon="9.589297"><ele>552.4</ele></trkpt>
  <trkpt lat="59.670866" lon="9.589336"><ele>552.2</ele></trkpt>
  <trkpt lat="59.670851" lon="9.589368"><ele>552.2</ele></trkpt>
  <trkpt lat="59.670835" lon="9.589398"><ele>552.2</ele></trkpt>
  <trkpt lat="59.670821" lon="9.589433"><ele>552.2</ele></trkpt>
  <trkpt lat="59.670811" lon="9.589467"><ele>552.0</ele></trkpt>
  <trkpt lat="59.670804" lon="9.589504"><ele>552.0</ele></trkpt>
  <trkpt lat="59.670798" lon="9.589540"><ele>552.0</ele></trkpt>
  <trkpt lat="59.670791" lon="9.589572"><ele>552.0</ele></trkpt>
  <trkpt lat="59.670780" lon="9.589606"><ele>551.8</ele></trkpt>
  <trkpt lat="59.670774" lon="9.589640"><ele>551.8</ele></trkpt>
  <trkpt lat="59.670767" lon="9.589665"><ele>551.8</ele></trkpt>
  <trkpt lat="59.670762" lon="9.589700"><ele>551.8</ele></trkpt>
  <trkpt lat="59.670752" lon="9.589738"><ele>551.8</ele></trkpt>
  <trkpt lat="59.670744" lon="9.589766"><ele>551.6</ele></trkpt>
  <trkpt lat="59.670739" lon="9.589795"><ele>551.6</ele></trkpt>
  <trkpt lat="59.670732" lon="9.589838"><ele>551.6</ele></trkpt>
  <trkpt lat="59.670726" lon="9.589868"><ele>551.6</ele></trkpt>
  <trkpt lat="59.670718" lon="9.589900"><ele>551.4</ele></trkpt>
  <trkpt lat="59.670705" lon="9.589935"><ele>551.4</ele></trkpt>
  <trkpt lat="59.670691" lon="9.589961"><ele>551.4</ele></trkpt>
  <trkpt lat="59.670677" lon="9.589989"><ele>551.2</ele></trkpt>
  <trkpt lat="59.670667" lon="9.590027"><ele>551.0</ele></trkpt>
  <trkpt lat="59.670662" lon="9.590059"><ele>550.8</ele></trkpt>
  <trkpt lat="59.670663" lon="9.590094"><ele>550.8</ele></trkpt>
  <trkpt lat="59.670662" lon="9.590133"><ele>550.8</ele></trkpt>
  <trkpt lat="59.670661" lon="9.590159"><ele>550.8</ele></trkpt>
  <trkpt lat="59.670655" lon="9.590185"><ele>550.6</ele></trkpt>
  <trkpt lat="59.670647" lon="9.590206"><ele>550.2</ele></trkpt>
  <trkpt lat="59.670637" lon="9.590233"><ele>549.8</ele></trkpt>
  <trkpt lat="59.670627" lon="9.590268"><ele>549.6</ele></trkpt>
  <trkpt lat="59.670616" lon="9.590306"><ele>548.8</ele></trkpt>
  <trkpt lat="59.670605" lon="9.590350"><ele>548.2</ele></trkpt>
  <trkpt lat="59.670593" lon="9.590389"><ele>547.8</ele></trkpt>
  <trkpt lat="59.670584" lon="9.590435"><ele>547.4</ele></trkpt>
  <trkpt lat="59.670580" lon="9.590482"><ele>547.0</ele></trkpt>
  <trkpt lat="59.670576" lon="9.590528"><ele>546.6</ele></trkpt>
  <trkpt lat="59.670565" lon="9.590580"><ele>546.0</ele></trkpt>
  <trkpt lat="59.670557" lon="9.590617"><ele>546.0</ele></trkpt>
  <trkpt lat="59.670549" lon="9.590644"><ele>545.8</ele></trkpt>
  <trkpt lat="59.670538" lon="9.590679"><ele>545.8</ele></trkpt>
  <trkpt lat="59.670530" lon="9.590706"><ele>545.8</ele></trkpt>
  <trkpt lat="59.670521" lon="9.590742"><ele>546.0</ele></trkpt>
  <trkpt lat="59.670509" lon="9.590779"><ele>546.0</ele></trkpt>
  <trkpt lat="59.670502" lon="9.590809"><ele>546.2</ele></trkpt>
  <trkpt lat="59.670492" lon="9.590846"><ele>546.2</ele></trkpt>
  <trkpt lat="59.670483" lon="9.590885"><ele>546.2</ele></trkpt>
  <trkpt lat="59.670469" lon="9.590920"><ele>546.2</ele></trkpt>
  <trkpt lat="59.670452" lon="9.590947"><ele>546.0</ele></trkpt>
  <trkpt lat="59.670440" lon="9.590974"><ele>545.4</ele></trkpt>
  <trkpt lat="59.670429" lon="9.591010"><ele>545.2</ele></trkpt>
  <trkpt lat="59.670418" lon="9.591042"><ele>545.0</ele></trkpt>
  <trkpt lat="59.670407" lon="9.591074"><ele>545.0</ele></trkpt>
  <trkpt lat="59.670398" lon="9.591105"><ele>544.4</ele></trkpt>
  <trkpt lat="59.670390" lon="9.591144"><ele>544.0</ele></trkpt>
  <trkpt lat="59.670374" lon="9.591179"><ele>544.0</ele></trkpt>
  <trkpt lat="59.670357" lon="9.591200"><ele>543.8</ele></trkpt>
  <trkpt lat="59.670337" lon="9.591227"><ele>543.8</ele></trkpt>
  <trkpt lat="59.670319" lon="9.591251"><ele>543.2</ele></trkpt>
  <trkpt lat="59.670305" lon="9.591281"><ele>542.4</ele></trkpt>
  <trkpt lat="59.670297" lon="9.591318"><ele>542.2</ele></trkpt>
  <trkpt lat="59.670287" lon="9.591359"><ele>542.0</ele></trkpt>
  <trkpt lat="59.670277" lon="9.591395"><ele>542.0</ele></trkpt>
  <trkpt lat="59.670266" lon="9.591431"><ele>541.8</ele></trkpt>
  <trkpt lat="59.670254" lon="9.591456"><ele>541.4</ele></trkpt>
  <trkpt lat="59.670242" lon="9.591478"><ele>541.0</ele></trkpt>
  <trkpt lat="59.670232" lon="9.591503"><ele>541.0</ele></trkpt>
  <trkpt lat="59.670221" lon="9.591526"><ele>540.8</ele></trkpt>
  <trkpt lat="59.670207" lon="9.591564"><ele>540.6</ele></trkpt>
  <trkpt lat="59.670197" lon="9.591613"><ele>540.4</ele></trkpt>
  <trkpt lat="59.670187" lon="9.591658"><ele>540.2</ele></trkpt>
  <trkpt lat="59.670176" lon="9.591694"><ele>540.0</ele></trkpt>
  <trkpt lat="59.670165" lon="9.591720"><ele>539.4</ele></trkpt>
  <trkpt lat="59.670154" lon="9.591751"><ele>539.0</ele></trkpt>
  <trkpt lat="59.670142" lon="9.591782"><ele>538.8</ele></trkpt>
  <trkpt lat="59.670133" lon="9.591818"><ele>538.6</ele></trkpt>
  <trkpt lat="59.670120" lon="9.591851"><ele>538.6</ele></trkpt>
  <trkpt lat="59.670106" lon="9.591879"><ele>538.6</ele></trkpt>
  <trkpt lat="59.670090" lon="9.591902"><ele>538.2</ele></trkpt>
  <trkpt lat="59.670079" lon="9.591926"><ele>537.6</ele></trkpt>
  <trkpt lat="59.670070" lon="9.591955"><ele>537.0</ele></trkpt>
  <trkpt lat="59.670051" lon="9.591988"><ele>536.8</ele></trkpt>
  <trkpt lat="59.670034" lon="9.592010"><ele>536.4</ele></trkpt>
  <trkpt lat="59.670019" lon="9.592045"><ele>536.4</ele></trkpt>
  <trkpt lat="59.670005" lon="9.592089"><ele>536.0</ele></trkpt>
  <trkpt lat="59.669995" lon="9.592124"><ele>535.6</ele></trkpt>
  <trkpt lat="59.669984" lon="9.592164"><ele>535.2</ele></trkpt>
  <trkpt lat="59.669969" lon="9.592197"><ele>534.6</ele></trkpt>
  <trkpt lat="59.669955" lon="9.592231"><ele>534.2</ele></trkpt>
  <trkpt lat="59.669938" lon="9.592262"><ele>533.8</ele></trkpt>
  <trkpt lat="59.669918" lon="9.592282"><ele>533.4</ele></trkpt>
  <trkpt lat="59.669898" lon="9.592291"><ele>533.0</ele></trkpt>
  <trkpt lat="59.669881" lon="9.592307"><ele>532.8</ele></trkpt>
  <trkpt lat="59.669865" lon="9.592318"><ele>532.6</ele></trkpt>
  <trkpt lat="59.669849" lon="9.592336"><ele>532.6</ele></trkpt>
  <trkpt lat="59.669830" lon="9.592367"><ele>532.4</ele></trkpt>
  <trkpt lat="59.669808" lon="9.592378"><ele>532.0</ele></trkpt>
  <trkpt lat="59.669787" lon="9.592386"><ele>531.6</ele></trkpt>
  <trkpt lat="59.669772" lon="9.592397"><ele>531.0</ele></trkpt>
  <trkpt lat="59.669756" lon="9.592419"><ele>531.0</ele></trkpt>
  <trkpt lat="59.669743" lon="9.592448"><ele>530.4</ele></trkpt>
  <trkpt lat="59.669733" lon="9.592478"><ele>529.8</ele></trkpt>
  <trkpt lat="59.669718" lon="9.592503"><ele>529.6</ele></trkpt>
  <trkpt lat="59.669708" lon="9.592519"><ele>529.0</ele></trkpt>
  <trkpt lat="59.669697" lon="9.592539"><ele>528.6</ele></trkpt>
  <trkpt lat="59.669678" lon="9.592551"><ele>528.4</ele></trkpt>
  <trkpt lat="59.669658" lon="9.592554"><ele>528.2</ele></trkpt>
  <trkpt lat="59.669633" lon="9.592564"><ele>528.0</ele></trkpt>
  <trkpt lat="59.669613" lon="9.592572"><ele>527.8</ele></trkpt>
  <trkpt lat="59.669599" lon="9.592591"><ele>527.2</ele></trkpt>
  <trkpt lat="59.669587" lon="9.592611"><ele>526.8</ele></trkpt>
  <trkpt lat="59.669576" lon="9.592641"><ele>526.8</ele></trkpt>
  <trkpt lat="59.669563" lon="9.592677"><ele>526.6</ele></trkpt>
  <trkpt lat="59.669552" lon="9.592709"><ele>526.6</ele></trkpt>
  <trkpt lat="59.669540" lon="9.592727"><ele>526.4</ele></trkpt>
  <trkpt lat="59.669524" lon="9.592760"><ele>526.4</ele></trkpt>
  <trkpt lat="59.669506" lon="9.592790"><ele>525.8</ele></trkpt>
  <trkpt lat="59.669488" lon="9.592812"><ele>525.4</ele></trkpt>
  <trkpt lat="59.669471" lon="9.592835"><ele>525.0</ele></trkpt>
  <trkpt lat="59.669453" lon="9.592858"><ele>524.2</ele></trkpt>
  <trkpt lat="59.669430" lon="9.592875"><ele>523.8</ele></trkpt>
  <trkpt lat="59.669411" lon="9.592904"><ele>523.2</ele></trkpt>
  <trkpt lat="59.669392" lon="9.592951"><ele>522.6</ele></trkpt>
  <trkpt lat="59.669377" lon="9.592991"><ele>522.4</ele></trkpt>
  <trkpt lat="59.669365" lon="9.593028"><ele>521.6</ele></trkpt>
  <trkpt lat="59.669348" lon="9.593070"><ele>521.4</ele></trkpt>
  <trkpt lat="59.669334" lon="9.593104"><ele>521.4</ele></trkpt>
  <trkpt lat="59.669322" lon="9.593135"><ele>521.2</ele></trkpt>
  <trkpt lat="59.669305" lon="9.593156"><ele>520.8</ele></trkpt>
  <trkpt lat="59.669289" lon="9.593173"><ele>520.4</ele></trkpt>
  <trkpt lat="59.669274" lon="9.593199"><ele>520.0</ele></trkpt>
  <trkpt lat="59.669261" lon="9.593228"><ele>519.6</ele></trkpt>
  <trkpt lat="59.669249" lon="9.593263"><ele>519.0</ele></trkpt>
  <trkpt lat="59.669237" lon="9.593297"><ele>518.6</ele></trkpt>
  <trkpt lat="59.669226" lon="9.593334"><ele>518.2</ele></trkpt>
  <trkpt lat="59.669210" lon="9.593367"><ele>518.0</ele></trkpt>
  <trkpt lat="59.669196" lon="9.593390"><ele>517.4</ele></trkpt>
  <trkpt lat="59.669180" lon="9.593413"><ele>517.2</ele></trkpt>
  <trkpt lat="59.669167" lon="9.593432"><ele>516.8</ele></trkpt>
  <trkpt lat="59.669156" lon="9.593456"><ele>516.2</ele></trkpt>
  <trkpt lat="59.669145" lon="9.593481"><ele>515.6</ele></trkpt>
  <trkpt lat="59.669134" lon="9.593499"><ele>515.2</ele></trkpt>
  <trkpt lat="59.669120" lon="9.593518"><ele>514.8</ele></trkpt>
  <trkpt lat="59.669110" lon="9.593537"><ele>514.4</ele></trkpt>
  <trkpt lat="59.669096" lon="9.593568"><ele>514.0</ele></trkpt>
  <trkpt lat="59.669083" lon="9.593593"><ele>513.2</ele></trkpt>
  <trkpt lat="59.669072" lon="9.593618"><ele>512.8</ele></trkpt>
  <trkpt lat="59.669058" lon="9.593642"><ele>512.2</ele></trkpt>
  <trkpt lat="59.669046" lon="9.593668"><ele>511.6</ele></trkpt>
  <trkpt lat="59.669034" lon="9.593697"><ele>511.0</ele></trkpt>
  <trkpt lat="59.669026" lon="9.593730"><ele>510.8</ele></trkpt>
  <trkpt lat="59.669014" lon="9.593759"><ele>510.4</ele></trkpt>
  <trkpt lat="59.668997" lon="9.593779"><ele>509.8</ele></trkpt>
  <trkpt lat="59.668984" lon="9.593800"><ele>509.6</ele></trkpt>
  <trkpt lat="59.668970" lon="9.593826"><ele>508.6</ele></trkpt>
  <trkpt lat="59.668957" lon="9.593855"><ele>508.6</ele></trkpt>
  <trkpt lat="59.668943" lon="9.593882"><ele>508.0</ele></trkpt>
  <trkpt lat="59.668933" lon="9.593900"><ele>507.2</ele></trkpt>
  <trkpt lat="59.668926" lon="9.593928"><ele>506.8</ele></trkpt>
  <trkpt lat="59.668921" lon="9.593952"><ele>506.4</ele></trkpt>
  <trkpt lat="59.668914" lon="9.593976"><ele>505.8</ele></trkpt>
  <trkpt lat="59.668906" lon="9.594001"><ele>505.6</ele></trkpt>
  <trkpt lat="59.668897" lon="9.594023"><ele>505.0</ele></trkpt>
  <trkpt lat="59.668883" lon="9.594045"><ele>504.6</ele></trkpt>
  <trkpt lat="59.668868" lon="9.594057"><ele>504.4</ele></trkpt>
  <trkpt lat="59.668855" lon="9.594073"><ele>503.8</ele></trkpt>
  <trkpt lat="59.668846" lon="9.594092"><ele>503.2</ele></trkpt>
  <trkpt lat="59.668837" lon="9.594117"><ele>502.8</ele></trkpt>
  <trkpt lat="59.668827" lon="9.594139"><ele>502.6</ele></trkpt>
  <trkpt lat="59.668818" lon="9.594161"><ele>502.2</ele></trkpt>
  <trkpt lat="59.668811" lon="9.594184"><ele>501.8</ele></trkpt>
  <trkpt lat="59.668803" lon="9.594202"><ele>501.2</ele></trkpt>
  <trkpt lat="59.668796" lon="9.594233"><ele>500.6</ele></trkpt>
  <trkpt lat="59.668796" lon="9.594255"><ele>500.2</ele></trkpt>
  <trkpt lat="59.668796" lon="9.594287"><ele>500.0</ele></trkpt>
  <trkpt lat="59.668796" lon="9.594320"><ele>499.6</ele></trkpt>
  <trkpt lat="59.668796" lon="9.594348"><ele>499.0</ele></trkpt>
  <trkpt lat="59.668799" lon="9.594387"><ele>498.4</ele></trkpt>
  <trkpt lat="59.668800" lon="9.594417"><ele>497.8</ele></trkpt>
  <trkpt lat="59.668803" lon="9.594454"><ele>497.2</ele></trkpt>
  <trkpt lat="59.668803" lon="9.594486"><ele>496.8</ele></trkpt>
  <trkpt lat="59.668798" lon="9.594521"><ele>496.2</ele></trkpt>
  <trkpt lat="59.668790" lon="9.594548"><ele>496.0</ele></trkpt>
  <trkpt lat="59.668786" lon="9.594581"><ele>495.4</ele></trkpt>
  <trkpt lat="59.668786" lon="9.594612"><ele>494.8</ele></trkpt>
  <trkpt lat="59.668787" lon="9.594645"><ele>494.6</ele></trkpt>
  <trkpt lat="59.668792" lon="9.594681"><ele>494.4</ele></trkpt>
  <trkpt lat="59.668800" lon="9.594708"><ele>493.6</ele></trkpt>
  <trkpt lat="59.668810" lon="9.594744"><ele>493.2</ele></trkpt>
  <trkpt lat="59.668817" lon="9.594774"><ele>492.8</ele></trkpt>
  <trkpt lat="59.668822" lon="9.594807"><ele>492.2</ele></trkpt>
  <trkpt lat="59.668827" lon="9.594841"><ele>491.8</ele></trkpt>
  <trkpt lat="59.668831" lon="9.594872"><ele>491.4</ele></trkpt>
  <trkpt lat="59.668836" lon="9.594915"><ele>491.2</ele></trkpt>
  <trkpt lat="59.668838" lon="9.594953"><ele>490.6</ele></trkpt>
  <trkpt lat="59.668838" lon="9.594980"><ele>490.2</ele></trkpt>
  <trkpt lat="59.668834" lon="9.595006"><ele>490.0</ele></trkpt>
  <trkpt lat="59.668827" lon="9.595032"><ele>489.8</ele></trkpt>
  <trkpt lat="59.668820" lon="9.595061"><ele>489.2</ele></trkpt>
  <trkpt lat="59.668815" lon="9.595096"><ele>488.8</ele></trkpt>
  <trkpt lat="59.668812" lon="9.595126"><ele>488.4</ele></trkpt>
  <trkpt lat="59.668812" lon="9.595162"><ele>488.0</ele></trkpt>
  <trkpt lat="59.668806" lon="9.595210"><ele>487.8</ele></trkpt>
  <trkpt lat="59.668801" lon="9.595249"><ele>487.8</ele></trkpt>
  <trkpt lat="59.668795" lon="9.595288"><ele>487.6</ele></trkpt>
  <trkpt lat="59.668788" lon="9.595343"><ele>487.4</ele></trkpt>
  <trkpt lat="59.668786" lon="9.595387"><ele>487.0</ele></trkpt>
  <trkpt lat="59.668782" lon="9.595431"><ele>486.8</ele></trkpt>
  <trkpt lat="59.668773" lon="9.595474"><ele>486.6</ele></trkpt>
  <trkpt lat="59.668764" lon="9.595511"><ele>486.0</ele></trkpt>
  <trkpt lat="59.668757" lon="9.595546"><ele>485.8</ele></trkpt>
  <trkpt lat="59.668754" lon="9.595584"><ele>485.6</ele></trkpt>
  <trkpt lat="59.668750" lon="9.595630"><ele>485.2</ele></trkpt>
  <trkpt lat="59.668746" lon="9.595675"><ele>484.8</ele></trkpt>
  <trkpt lat="59.668745" lon="9.595723"><ele>484.6</ele></trkpt>
  <trkpt lat="59.668741" lon="9.595772"><ele>484.0</ele></trkpt>
  <trkpt lat="59.668739" lon="9.595805"><ele>483.4</ele></trkpt>
  <trkpt lat="59.668739" lon="9.595842"><ele>482.6</ele></trkpt>
  <trkpt lat="59.668740" lon="9.595878"><ele>482.2</ele></trkpt>
  <trkpt lat="59.668745" lon="9.595914"><ele>482.2</ele></trkpt>
  <trkpt lat="59.668750" lon="9.595945"><ele>481.8</ele></trkpt>
  <trkpt lat="59.668759" lon="9.595968"><ele>481.4</ele></trkpt>
  <trkpt lat="59.668764" lon="9.595990"><ele>481.0</ele></trkpt>
  <trkpt lat="59.668771" lon="9.596021"><ele>480.6</ele></trkpt>
  <trkpt lat="59.668773" lon="9.596049"><ele>480.2</ele></trkpt>
  <trkpt lat="59.668773" lon="9.596072"><ele>479.6</ele></trkpt>
  <trkpt lat="59.668771" lon="9.596092"><ele>479.2</ele></trkpt>
  <trkpt lat="59.668771" lon="9.596109"><ele>478.8</ele></trkpt>
  <trkpt lat="59.668771" lon="9.596138"><ele>478.2</ele></trkpt>
  <trkpt lat="59.668769" lon="9.596176"><ele>477.6</ele></trkpt>
  <trkpt lat="59.668762" lon="9.596212"><ele>477.2</ele></trkpt>
  <trkpt lat="59.668751" lon="9.596242"><ele>477.0</ele></trkpt>
  <trkpt lat="59.668738" lon="9.596270"><ele>476.6</ele></trkpt>
  <trkpt lat="59.668729" lon="9.596298"><ele>476.0</ele></trkpt>
  <trkpt lat="59.668721" lon="9.596336"><ele>475.4</ele></trkpt>
  <trkpt lat="59.668713" lon="9.596372"><ele>475.0</ele></trkpt>
  <trkpt lat="59.668702" lon="9.596411"><ele>474.6</ele></trkpt>
  <trkpt lat="59.668692" lon="9.596444"><ele>474.2</ele></trkpt>
  <trkpt lat="59.668682" lon="9.596481"><ele>473.6</ele></trkpt>
  <trkpt lat="59.668675" lon="9.596521"><ele>473.4</ele></trkpt>
  <trkpt lat="59.668671" lon="9.596563"><ele>472.8</ele></trkpt>
  <trkpt lat="59.668666" lon="9.596611"><ele>472.2</ele></trkpt>
  <trkpt lat="59.668659" lon="9.596657"><ele>471.6</ele></trkpt>
  <trkpt lat="59.668652" lon="9.596696"><ele>471.2</ele></trkpt>
  <trkpt lat="59.668641" lon="9.596745"><ele>470.8</ele></trkpt>
  <trkpt lat="59.668627" lon="9.596780"><ele>470.6</ele></trkpt>
  <trkpt lat="59.668611" lon="9.596815"><ele>470.4</ele></trkpt>
  <trkpt lat="59.668596" lon="9.596857"><ele>470.2</ele></trkpt>
  <trkpt lat="59.668583" lon="9.596896"><ele>470.0</ele></trkpt>
  <trkpt lat="59.668572" lon="9.596940"><ele>469.8</ele></trkpt>
  <trkpt lat="59.668562" lon="9.596991"><ele>469.6</ele></trkpt>
  <trkpt lat="59.668555" lon="9.597028"><ele>469.6</ele></trkpt>
  <trkpt lat="59.668543" lon="9.597070"><ele>469.2</ele></trkpt>
  <trkpt lat="59.668531" lon="9.597103"><ele>468.8</ele></trkpt>
  <trkpt lat="59.668520" lon="9.597135"><ele>468.2</ele></trkpt>
  <trkpt lat="59.668503" lon="9.597173"><ele>468.0</ele></trkpt>
  <trkpt lat="59.668485" lon="9.597205"><ele>468.0</ele></trkpt>
  <trkpt lat="59.668468" lon="9.597237"><ele>467.8</ele></trkpt>
  <trkpt lat="59.668452" lon="9.597282"><ele>467.4</ele></trkpt>
  <trkpt lat="59.668434" lon="9.597323"><ele>467.0</ele></trkpt>
  <trkpt lat="59.668422" lon="9.597359"><ele>466.4</ele></trkpt>
  <trkpt lat="59.668411" lon="9.597391"><ele>466.0</ele></trkpt>
  <trkpt lat="59.668397" lon="9.597410"><ele>465.6</ele></trkpt>
  <trkpt lat="59.668384" lon="9.597429"><ele>465.2</ele></trkpt>
  <trkpt lat="59.668371" lon="9.597447"><ele>465.0</ele></trkpt>
  <trkpt lat="59.668353" lon="9.597472"><ele>465.0</ele></trkpt>
  <trkpt lat="59.668333" lon="9.597491"><ele>464.8</ele></trkpt>
  <trkpt lat="59.668322" lon="9.597510"><ele>464.4</ele></trkpt>
  <trkpt lat="59.668306" lon="9.597539"><ele>463.8</ele></trkpt>
  <trkpt lat="59.668292" lon="9.597561"><ele>463.4</ele></trkpt>
  <trkpt lat="59.668277" lon="9.597585"><ele>463.0</ele></trkpt>
  <trkpt lat="59.668265" lon="9.597623"><ele>462.8</ele></trkpt>
  <trkpt lat="59.668257" lon="9.597662"><ele>462.4</ele></trkpt>
  <trkpt lat="59.668248" lon="9.597703"><ele>461.8</ele></trkpt>
  <trkpt lat="59.668237" lon="9.597740"><ele>461.6</ele></trkpt>
  <trkpt lat="59.668226" lon="9.597784"><ele>460.8</ele></trkpt>
  <trkpt lat="59.668205" lon="9.597820"><ele>460.4</ele></trkpt>
  <trkpt lat="59.668183" lon="9.597844"><ele>460.0</ele></trkpt>
  <trkpt lat="59.668160" lon="9.597871"><ele>459.6</ele></trkpt>
  <trkpt lat="59.668133" lon="9.597897"><ele>459.2</ele></trkpt>
  <trkpt lat="59.668115" lon="9.597927"><ele>458.8</ele></trkpt>
  <trkpt lat="59.668101" lon="9.597961"><ele>458.8</ele></trkpt>
  <trkpt lat="59.668083" lon="9.597999"><ele>458.4</ele></trkpt>
  <trkpt lat="59.668062" lon="9.598019"><ele>458.2</ele></trkpt>
  <trkpt lat="59.668043" lon="9.598037"><ele>458.0</ele></trkpt>
  <trkpt lat="59.668025" lon="9.598060"><ele>457.6</ele></trkpt>
  <trkpt lat="59.668001" lon="9.598076"><ele>457.4</ele></trkpt>
  <trkpt lat="59.667978" lon="9.598079"><ele>457.2</ele></trkpt>
  <trkpt lat="59.667952" lon="9.598078"><ele>457.0</ele></trkpt>
  <trkpt lat="59.667925" lon="9.598081"><ele>456.8</ele></trkpt>
  <trkpt lat="59.667901" lon="9.598084"><ele>456.4</ele></trkpt>
  <trkpt lat="59.667879" lon="9.598092"><ele>455.8</ele></trkpt>
  <trkpt lat="59.667855" lon="9.598093"><ele>455.6</ele></trkpt>
  <trkpt lat="59.667833" lon="9.598101"><ele>455.4</ele></trkpt>
  <trkpt lat="59.667810" lon="9.598115"><ele>455.4</ele></trkpt>
  <trkpt lat="59.667783" lon="9.598125"><ele>455.2</ele></trkpt>
  <trkpt lat="59.667759" lon="9.598125"><ele>455.2</ele></trkpt>
  <trkpt lat="59.667739" lon="9.598134"><ele>455.2</ele></trkpt>
  <trkpt lat="59.667715" lon="9.598146"><ele>455.2</ele></trkpt>
  <trkpt lat="59.667699" lon="9.598172"><ele>455.4</ele></trkpt>
  <trkpt lat="59.667686" lon="9.598199"><ele>455.2</ele></trkpt>
  <trkpt lat="59.667677" lon="9.598244"><ele>455.2</ele></trkpt>
  <trkpt lat="59.667666" lon="9.598286"><ele>455.2</ele></trkpt>
  <trkpt lat="59.667655" lon="9.598314"><ele>455.2</ele></trkpt>
  <trkpt lat="59.667643" lon="9.598342"><ele>455.0</ele></trkpt>
  <trkpt lat="59.667627" lon="9.598368"><ele>454.8</ele></trkpt>
  <trkpt lat="59.667612" lon="9.598386"><ele>454.2</ele></trkpt>
  <trkpt lat="59.667598" lon="9.598404"><ele>454.2</ele></trkpt>
  <trkpt lat="59.667579" lon="9.598428"><ele>454.0</ele></trkpt>
  <trkpt lat="59.667560" lon="9.598454"><ele>453.8</ele></trkpt>
  <trkpt lat="59.667547" lon="9.598491"><ele>453.6</ele></trkpt>
  <trkpt lat="59.667535" lon="9.598535"><ele>453.2</ele></trkpt>
  <trkpt lat="59.667529" lon="9.598573"><ele>452.8</ele></trkpt>
  <trkpt lat="59.667526" lon="9.598618"><ele>452.4</ele></trkpt>
  <trkpt lat="59.667524" lon="9.598657"><ele>451.8</ele></trkpt>
  <trkpt lat="59.667521" lon="9.598699"><ele>451.4</ele></trkpt>
  <trkpt lat="59.667511" lon="9.598738"><ele>451.0</ele></trkpt>
  <trkpt lat="59.667500" lon="9.598772"><ele>450.8</ele></trkpt>
  <trkpt lat="59.667484" lon="9.598808"><ele>450.2</ele></trkpt>
  <trkpt lat="59.667465" lon="9.598842"><ele>449.4</ele></trkpt>
  <trkpt lat="59.667449" lon="9.598879"><ele>449.2</ele></trkpt>
  <trkpt lat="59.667432" lon="9.598918"><ele>448.8</ele></trkpt>
  <trkpt lat="59.667415" lon="9.598955"><ele>448.4</ele></trkpt>
  <trkpt lat="59.667395" lon="9.598975"><ele>448.0</ele></trkpt>
  <trkpt lat="59.667381" lon="9.598994"><ele>447.8</ele></trkpt>
  <trkpt lat="59.667366" lon="9.599013"><ele>447.4</ele></trkpt>
  <trkpt lat="59.667350" lon="9.599033"><ele>447.2</ele></trkpt>
  <trkpt lat="59.667335" lon="9.599051"><ele>447.0</ele></trkpt>
  <trkpt lat="59.667329" lon="9.599076"><ele>446.8</ele></trkpt>
  <trkpt lat="59.667322" lon="9.599111"><ele>446.6</ele></trkpt>
  <trkpt lat="59.667313" lon="9.599132"><ele>446.0</ele></trkpt>
  <trkpt lat="59.667300" lon="9.599157"><ele>446.0</ele></trkpt>
  <trkpt lat="59.667286" lon="9.599174"><ele>445.6</ele></trkpt>
  <trkpt lat="59.667273" lon="9.599198"><ele>445.4</ele></trkpt>
  <trkpt lat="59.667260" lon="9.599223"><ele>444.8</ele></trkpt>
  <trkpt lat="59.667250" lon="9.599248"><ele>444.4</ele></trkpt>
  <trkpt lat="59.667243" lon="9.599272"><ele>444.2</ele></trkpt>
  <trkpt lat="59.667232" lon="9.599305"><ele>443.8</ele></trkpt>
  <trkpt lat="59.667222" lon="9.599333"><ele>443.4</ele></trkpt>
  <trkpt lat="59.667213" lon="9.599359"><ele>443.2</ele></trkpt>
  <trkpt lat="59.667199" lon="9.599384"><ele>442.4</ele></trkpt>
  <trkpt lat="59.667186" lon="9.599409"><ele>442.2</ele></trkpt>
  <trkpt lat="59.667171" lon="9.599437"><ele>441.6</ele></trkpt>
  <trkpt lat="59.667156" lon="9.599469"><ele>441.2</ele></trkpt>
  <trkpt lat="59.667146" lon="9.599498"><ele>440.6</ele></trkpt>
  <trkpt lat="59.667132" lon="9.599531"><ele>440.4</ele></trkpt>
  <trkpt lat="59.667120" lon="9.599564"><ele>440.0</ele></trkpt>
  <trkpt lat="59.667113" lon="9.599596"><ele>439.6</ele></trkpt>
  <trkpt lat="59.667105" lon="9.599640"><ele>439.4</ele></trkpt>
  <trkpt lat="59.667094" lon="9.599652"><ele>439.2</ele></trkpt>
  <trkpt lat="59.667083" lon="9.599651"><ele>438.8</ele></trkpt>
  <trkpt lat="59.667067" lon="9.599659"><ele>438.6</ele></trkpt>
  <trkpt lat="59.667055" lon="9.599678"><ele>438.4</ele></trkpt>
  <trkpt lat="59.667046" lon="9.599706"><ele>438.2</ele></trkpt>
  <trkpt lat="59.667034" lon="9.599743"><ele>437.8</ele></trkpt>
  <trkpt lat="59.667026" lon="9.599776"><ele>437.8</ele></trkpt>
  <trkpt lat="59.667021" lon="9.599811"><ele>437.6</ele></trkpt>
  <trkpt lat="59.667010" lon="9.599846"><ele>437.6</ele></trkpt>
  <trkpt lat="59.667000" lon="9.599877"><ele>437.4</ele></trkpt>
  <trkpt lat="59.666993" lon="9.599901"><ele>437.0</ele></trkpt>
  <trkpt lat="59.666983" lon="9.599936"><ele>436.8</ele></trkpt>
  <trkpt lat="59.666974" lon="9.599963"><ele>436.6</ele></trkpt>
  <trkpt lat="59.666965" lon="9.599992"><ele>436.2</ele></trkpt>
  <trkpt lat="59.666953" lon="9.600028"><ele>436.0</ele></trkpt>
  <trkpt lat="59.666946" lon="9.600065"><ele>435.6</ele></trkpt>
  <trkpt lat="59.666941" lon="9.600097"><ele>435.0</ele></trkpt>
  <trkpt lat="59.666935" lon="9.600125"><ele>435.0</ele></trkpt>
  <trkpt lat="59.666926" lon="9.600153"><ele>434.8</ele></trkpt>
  <trkpt lat="59.666918" lon="9.600183"><ele>434.4</ele></trkpt>
  <trkpt lat="59.666909" lon="9.600207"><ele>434.0</ele></trkpt>
  <trkpt lat="59.666905" lon="9.600236"><ele>433.6</ele></trkpt>
  <trkpt lat="59.666902" lon="9.600263"><ele>433.0</ele></trkpt>
  <trkpt lat="59.666899" lon="9.600283"><ele>432.8</ele></trkpt>
  <trkpt lat="59.666896" lon="9.600305"><ele>432.6</ele></trkpt>
  <trkpt lat="59.666894" lon="9.600326"><ele>432.2</ele></trkpt>
  <trkpt lat="59.666894" lon="9.600344"><ele>431.8</ele></trkpt>
  <trkpt lat="59.666896" lon="9.600368"><ele>431.2</ele></trkpt>
  <trkpt lat="59.666899" lon="9.600392"><ele>431.0</ele></trkpt>
  <trkpt lat="59.666895" lon="9.600423"><ele>430.8</ele></trkpt>
  <trkpt lat="59.666889" lon="9.600447"><ele>430.2</ele></trkpt>
  <trkpt lat="59.666885" lon="9.600465"><ele>429.8</ele></trkpt>
  <trkpt lat="59.666881" lon="9.600485"><ele>429.6</ele></trkpt>
  <trkpt lat="59.666881" lon="9.600514"><ele>429.2</ele></trkpt>
  <trkpt lat="59.666883" lon="9.600543"><ele>428.6</ele></trkpt>
  <trkpt lat="59.666887" lon="9.600567"><ele>428.2</ele></trkpt>
  <trkpt lat="59.666888" lon="9.600595"><ele>427.8</ele></trkpt>
  <trkpt lat="59.666883" lon="9.600628"><ele>427.4</ele></trkpt>
  <trkpt lat="59.666877" lon="9.600666"><ele>427.0</ele></trkpt>
  <trkpt lat="59.666870" lon="9.600698"><ele>426.4</ele></trkpt>
  <trkpt lat="59.666867" lon="9.600726"><ele>426.0</ele></trkpt>
  <trkpt lat="59.666866" lon="9.600750"><ele>425.4</ele></trkpt>
  <trkpt lat="59.666865" lon="9.600778"><ele>425.0</ele></trkpt>
  <trkpt lat="59.666871" lon="9.600808"><ele>424.8</ele></trkpt>
  <trkpt lat="59.666871" lon="9.600839"><ele>424.4</ele></trkpt>
  <trkpt lat="59.666872" lon="9.600873"><ele>424.0</ele></trkpt>
  <trkpt lat="59.666872" lon="9.600900"><ele>423.6</ele></trkpt>
  <trkpt lat="59.666875" lon="9.600932"><ele>423.4</ele></trkpt>
  <trkpt lat="59.666877" lon="9.600966"><ele>423.0</ele></trkpt>
  <trkpt lat="59.666880" lon="9.601000"><ele>422.2</ele></trkpt>
  <trkpt lat="59.666884" lon="9.601033"><ele>421.6</ele></trkpt>
  <trkpt lat="59.666889" lon="9.601070"><ele>421.2</ele></trkpt>
  <trkpt lat="59.666896" lon="9.601105"><ele>421.0</ele></trkpt>
  <trkpt lat="59.666901" lon="9.601139"><ele>420.4</ele></trkpt>
  <trkpt lat="59.666907" lon="9.601174"><ele>420.2</ele></trkpt>
  <trkpt lat="59.666914" lon="9.601216"><ele>419.6</ele></trkpt>
  <trkpt lat="59.666913" lon="9.601255"><ele>419.0</ele></trkpt>
  <trkpt lat="59.666911" lon="9.601292"><ele>418.6</ele></trkpt>
  <trkpt lat="59.666910" lon="9.601333"><ele>418.4</ele></trkpt>
  <trkpt lat="59.666910" lon="9.601370"><ele>418.0</ele></trkpt>
  <trkpt lat="59.666915" lon="9.601409"><ele>417.4</ele></trkpt>
  <trkpt lat="59.666920" lon="9.601446"><ele>417.0</ele></trkpt>
  <trkpt lat="59.666926" lon="9.601478"><ele>416.8</ele></trkpt>
  <trkpt lat="59.666927" lon="9.601499"><ele>416.8</ele></trkpt>
  <trkpt lat="59.666931" lon="9.601523"><ele>416.6</ele></trkpt>
  <trkpt lat="59.666930" lon="9.601544"><ele>416.2</ele></trkpt>
  <trkpt lat="59.666931" lon="9.601566"><ele>415.6</ele></trkpt>
  <trkpt lat="59.666930" lon="9.601594"><ele>415.4</ele></trkpt>
  <trkpt lat="59.666924" lon="9.601616"><ele>415.0</ele></trkpt>
  <trkpt lat="59.666914" lon="9.601644"><ele>414.4</ele></trkpt>
  <trkpt lat="59.666907" lon="9.601659"><ele>414.0</ele></trkpt>
  <trkpt lat="59.666898" lon="9.601677"><ele>413.8</ele></trkpt>
  <trkpt lat="59.666893" lon="9.601690"><ele>413.4</ele></trkpt>
  <trkpt lat="59.666885" lon="9.601710"><ele>413.0</ele></trkpt>
  <trkpt lat="59.666879" lon="9.601738"><ele>412.6</ele></trkpt>
  <trkpt lat="59.666872" lon="9.601764"><ele>412.2</ele></trkpt>
  <trkpt lat="59.666861" lon="9.601798"><ele>411.8</ele></trkpt>
  <trkpt lat="59.666848" lon="9.601816"><ele>411.2</ele></trkpt>
  <trkpt lat="59.666835" lon="9.601850"><ele>410.8</ele></trkpt>
  <trkpt lat="59.666822" lon="9.601886"><ele>410.2</ele></trkpt>
  <trkpt lat="59.666813" lon="9.601917"><ele>409.6</ele></trkpt>
  <trkpt lat="59.666796" lon="9.601962"><ele>409.0</ele></trkpt>
  <trkpt lat="59.666780" lon="9.601983"><ele>408.6</ele></trkpt>
  <trkpt lat="59.666766" lon="9.602006"><ele>408.2</ele></trkpt>
  <trkpt lat="59.666748" lon="9.602038"><ele>408.0</ele></trkpt>
  <trkpt lat="59.666735" lon="9.602069"><ele>407.8</ele></trkpt>
  <trkpt lat="59.666721" lon="9.602109"><ele>407.6</ele></trkpt>
  <trkpt lat="59.666704" lon="9.602149"><ele>407.6</ele></trkpt>
  <trkpt lat="59.666689" lon="9.602184"><ele>407.6</ele></trkpt>
  <trkpt lat="59.666675" lon="9.602216"><ele>407.4</ele></trkpt>
  <trkpt lat="59.666661" lon="9.602249"><ele>407.4</ele></trkpt>
  <trkpt lat="59.666644" lon="9.602281"><ele>407.4</ele></trkpt>
  <trkpt lat="59.666628" lon="9.602310"><ele>407.2</ele></trkpt>
  <trkpt lat="59.666613" lon="9.602331"><ele>407.0</ele></trkpt>
  <trkpt lat="59.666600" lon="9.602361"><ele>406.8</ele></trkpt>
  <trkpt lat="59.666588" lon="9.602391"><ele>406.6</ele></trkpt>
  <trkpt lat="59.666575" lon="9.602431"><ele>406.2</ele></trkpt>
  <trkpt lat="59.666569" lon="9.602461"><ele>405.8</ele></trkpt>
  <trkpt lat="59.666559" lon="9.602487"><ele>405.4</ele></trkpt>
  <trkpt lat="59.666550" lon="9.602517"><ele>405.2</ele></trkpt>
  <trkpt lat="59.666543" lon="9.602548"><ele>404.8</ele></trkpt>
  <trkpt lat="59.666532" lon="9.602569"><ele>404.6</ele></trkpt>
  <trkpt lat="59.666518" lon="9.602591"><ele>404.6</ele></trkpt>
  <trkpt lat="59.666506" lon="9.602619"><ele>404.4</ele></trkpt>
  <trkpt lat="59.666487" lon="9.602656"><ele>404.2</ele></trkpt>
  <trkpt lat="59.666476" lon="9.602676"><ele>404.0</ele></trkpt>
  <trkpt lat="59.666460" lon="9.602700"><ele>403.6</ele></trkpt>
  <trkpt lat="59.666454" lon="9.602718"><ele>403.4</ele></trkpt>
  <trkpt lat="59.666453" lon="9.602737"><ele>403.2</ele></trkpt>
  <trkpt lat="59.666450" lon="9.602761"><ele>403.2</ele></trkpt>
  <trkpt lat="59.666448" lon="9.602778"><ele>403.0</ele></trkpt>
  <trkpt lat="59.666447" lon="9.602791"><ele>402.8</ele></trkpt>
  <trkpt lat="59.666444" lon="9.602803"><ele>402.8</ele></trkpt>
  <trkpt lat="59.666439" lon="9.602826"><ele>402.4</ele></trkpt>
  <trkpt lat="59.666430" lon="9.602839"><ele>402.0</ele></trkpt>
  <trkpt lat="59.666422" lon="9.602863"><ele>401.6</ele></trkpt>
  <trkpt lat="59.666416" lon="9.602886"><ele>401.0</ele></trkpt>
  <trkpt lat="59.666411" lon="9.602905"><ele>400.8</ele></trkpt>
  <trkpt lat="59.666408" lon="9.602928"><ele>400.4</ele></trkpt>
  <trkpt lat="59.666408" lon="9.602948"><ele>400.2</ele></trkpt>
  <trkpt lat="59.666409" lon="9.602973"><ele>399.8</ele></trkpt>
  <trkpt lat="59.666407" lon="9.602998"><ele>399.6</ele></trkpt>
  <trkpt lat="59.666403" lon="9.603022"><ele>399.4</ele></trkpt>
  <trkpt lat="59.666397" lon="9.603049"><ele>399.0</ele></trkpt>
  <trkpt lat="59.666397" lon="9.603074"><ele>398.8</ele></trkpt>
  <trkpt lat="59.666394" lon="9.603104"><ele>398.4</ele></trkpt>
  <trkpt lat="59.666392" lon="9.603127"><ele>398.0</ele></trkpt>
  <trkpt lat="59.666393" lon="9.603151"><ele>397.8</ele></trkpt>
  <trkpt lat="59.666392" lon="9.603173"><ele>397.6</ele></trkpt>
  <trkpt lat="59.666388" lon="9.603189"><ele>397.6</ele></trkpt>
  <trkpt lat="59.666386" lon="9.603206"><ele>397.2</ele></trkpt>
  <trkpt lat="59.666387" lon="9.603229"><ele>397.2</ele></trkpt>
  <trkpt lat="59.666383" lon="9.603252"><ele>396.8</ele></trkpt>
  <trkpt lat="59.666376" lon="9.603272"><ele>396.8</ele></trkpt>
  <trkpt lat="59.666367" lon="9.603288"><ele>396.6</ele></trkpt>
  <trkpt lat="59.666361" lon="9.603304"><ele>396.4</ele></trkpt>
  <trkpt lat="59.666355" lon="9.603325"><ele>396.0</ele></trkpt>
  <trkpt lat="59.666351" lon="9.603341"><ele>396.0</ele></trkpt>
  <trkpt lat="59.666347" lon="9.603356"><ele>395.6</ele></trkpt>
  <trkpt lat="59.666346" lon="9.603373"><ele>395.4</ele></trkpt>
  <trkpt lat="59.666346" lon="9.603397"><ele>395.0</ele></trkpt>
  <trkpt lat="59.666345" lon="9.603416"><ele>394.8</ele></trkpt>
  <trkpt lat="59.666338" lon="9.603427"><ele>394.6</ele></trkpt>
  <trkpt lat="59.666330" lon="9.603443"><ele>394.4</ele></trkpt>
  <trkpt lat="59.666322" lon="9.603454"><ele>394.2</ele></trkpt>
  <trkpt lat="59.666312" lon="9.603469"><ele>394.0</ele></trkpt>
  <trkpt lat="59.666304" lon="9.603482"><ele>393.4</ele></trkpt>
  <trkpt lat="59.666296" lon="9.603498"><ele>393.2</ele></trkpt>
  <trkpt lat="59.666288" lon="9.603520"><ele>393.0</ele></trkpt>
  <trkpt lat="59.666281" lon="9.603534"><ele>392.6</ele></trkpt>
  <trkpt lat="59.666274" lon="9.603554"><ele>392.4</ele></trkpt>
  <trkpt lat="59.666271" lon="9.603572"><ele>392.0</ele></trkpt>
  <trkpt lat="59.666269" lon="9.603593"><ele>391.6</ele></trkpt>
  <trkpt lat="59.666269" lon="9.603622"><ele>391.4</ele></trkpt>
  <trkpt lat="59.666270" lon="9.603643"><ele>391.0</ele></trkpt>
  <trkpt lat="59.666271" lon="9.603663"><ele>390.6</ele></trkpt>
  <trkpt lat="59.666271" lon="9.603680"><ele>390.4</ele></trkpt>
  <trkpt lat="59.666271" lon="9.603695"><ele>390.0</ele></trkpt>
  <trkpt lat="59.666274" lon="9.603718"><ele>389.6</ele></trkpt>
  <trkpt lat="59.666278" lon="9.603738"><ele>389.2</ele></trkpt>
  <trkpt lat="59.666284" lon="9.603774"><ele>388.8</ele></trkpt>
  <trkpt lat="59.666289" lon="9.603814"><ele>388.2</ele></trkpt>
  <trkpt lat="59.666297" lon="9.603863"><ele>387.8</ele></trkpt>
  <trkpt lat="59.666303" lon="9.603913"><ele>387.2</ele></trkpt>
  <trkpt lat="59.666308" lon="9.603962"><ele>386.8</ele></trkpt>
  <trkpt lat="59.666315" lon="9.604008"><ele>386.4</ele></trkpt>
  <trkpt lat="59.666318" lon="9.604057"><ele>386.2</ele></trkpt>
  <trkpt lat="59.666323" lon="9.604104"><ele>385.8</ele></trkpt>
  <trkpt lat="59.666327" lon="9.604152"><ele>385.6</ele></trkpt>
  <trkpt lat="59.666331" lon="9.604201"><ele>385.4</ele></trkpt>
  <trkpt lat="59.666339" lon="9.604250"><ele>385.2</ele></trkpt>
  <trkpt lat="59.666354" lon="9.604299"><ele>385.2</ele></trkpt>
  <trkpt lat="59.666372" lon="9.604336"><ele>385.2</ele></trkpt>
  <trkpt lat="59.666391" lon="9.604362"><ele>385.0</ele></trkpt>
  <trkpt lat="59.666411" lon="9.604381"><ele>385.0</ele></trkpt>
  <trkpt lat="59.666433" lon="9.604401"><ele>385.0</ele></trkpt>
  <trkpt lat="59.666455" lon="9.604412"><ele>385.0</ele></trkpt>
  <trkpt lat="59.666478" lon="9.604424"><ele>384.8</ele></trkpt>
  <trkpt lat="59.666502" lon="9.604444"><ele>384.8</ele></trkpt>
  <trkpt lat="59.666492" lon="9.604453"><ele>384.8</ele></trkpt>
  <trkpt lat="59.666511" lon="9.604477"><ele>384.8</ele></trkpt>
  <trkpt lat="59.666520" lon="9.604472"><ele>384.8</ele></trkpt>
  <trkpt lat="59.666544" lon="9.604508"><ele>384.4</ele></trkpt>
  <trkpt lat="59.666584" lon="9.604582"><ele>384.0</ele></trkpt>
  <trkpt lat="59.666602" lon="9.604629"><ele>383.8</ele></trkpt>
  <trkpt lat="59.666618" lon="9.604681"><ele>383.8</ele></trkpt>
  <trkpt lat="59.666629" lon="9.604729"><ele>383.8</ele></trkpt>
  <trkpt lat="59.666636" lon="9.604790"><ele>383.8</ele></trkpt>
  <trkpt lat="59.666640" lon="9.604840"><ele>383.6</ele></trkpt>
  <trkpt lat="59.666643" lon="9.604890"><ele>383.4</ele></trkpt>
 </trkseg></trk></gpx>