<?xml version="1.0" encoding="UTF-8"?>
<gpx version="1.1" creator="stikart_web trailguide-snapshot" xmlns="http://www.topografix.com/GPX/1/1">
 <trk><name>Ollebakkene til Funkelia (Telefonløypa helt ned)</name><desc>Fra Trailguide (trailguide.net), gradering: red. 1067 m, 127 m nedfart.</desc><trkseg>
  <trkpt lat="59.666350" lon="9.604320"><ele>390.0</ele></trkpt>
  <trkpt lat="59.666410" lon="9.604400"><ele>389.0</ele></trkpt>
  <trkpt lat="59.666510" lon="9.604480"><ele>388.0</ele></trkpt>
  <trkpt lat="59.666630" lon="9.604680"><ele>386.0</ele></trkpt>
  <trkpt lat="59.666650" lon="9.604830"><ele>384.0</ele></trkpt>
  <trkpt lat="59.666640" lon="9.604950"><ele>384.0</ele></trkpt>
  <trkpt lat="59.666660" lon="9.605140"><ele>382.0</ele></trkpt>
  <trkpt lat="59.666690" lon="9.605250"><ele>381.0</ele></trkpt>
  <trkpt lat="59.666760" lon="9.605390"><ele>379.0</ele></trkpt>
  <trkpt lat="59.666930" lon="9.605590"><ele>376.0</ele></trkpt>
  <trkpt lat="59.667250" lon="9.606240"><ele>370.0</ele></trkpt>
  <trkpt lat="59.667300" lon="9.606380"><ele>369.0</ele></trkpt>
  <trkpt lat="59.667480" lon="9.606500"><ele>367.0</ele></trkpt>
  <trkpt lat="59.667610" lon="9.606780"><ele>363.0</ele></trkpt>
  <trkpt lat="59.667680" lon="9.607160"><ele>360.0</ele></trkpt>
  <trkpt lat="59.667710" lon="9.607660"><ele>356.0</ele></trkpt>
  <trkpt lat="59.667760" lon="9.607790"><ele>355.0</ele></trkpt>
  <trkpt lat="59.667940" lon="9.608000"><ele>351.0</ele></trkpt>
  <trkpt lat="59.668060" lon="9.608370"><ele>348.0</ele></trkpt>
  <trkpt lat="59.668170" lon="9.608580"><ele>345.0</ele></trkpt>
  <trkpt lat="59.668310" lon="9.608790"><ele>342.0</ele></trkpt>
  <trkpt lat="59.668330" lon="9.608850"><ele>341.0</ele></trkpt>
  <trkpt lat="59.668380" lon="9.609590"><ele>336.0</ele></trkpt>
  <trkpt lat="59.668320" lon="9.610050"><ele>333.0</ele></trkpt>
  <trkpt lat="59.668170" lon="9.610450"><ele>330.0</ele></trkpt>
  <trkpt lat="59.668100" lon="9.610710"><ele>328.0</ele></trkpt>
  <trkpt lat="59.668120" lon="9.610860"><ele>326.0</ele></trkpt>
  <trkpt lat="59.668090" lon="9.611030"><ele>324.0</ele></trkpt>
  <trkpt lat="59.668020" lon="9.611210"><ele>323.0</ele></trkpt>
  <trkpt lat="59.667860" lon="9.611450"><ele>322.0</ele></trkpt>
  <trkpt lat="59.667760" lon="9.611660"><ele>320.0</ele></trkpt>
  <trkpt lat="59.667710" lon="9.611920"><ele>318.0</ele></trkpt>
  <trkpt lat="59.667750" lon="9.612340"><ele>314.0</ele></trkpt>
  <trkpt lat="59.667810" lon="9.612510"><ele>312.0</ele></trkpt>
  <trkpt lat="59.667940" lon="9.613280"><ele>304.0</ele></trkpt>
  <trkpt lat="59.667990" lon="9.613440"><ele>303.0</ele></trkpt>
  <trkpt lat="59.668030" lon="9.613730"><ele>302.0</ele></trkpt>
  <trkpt lat="59.668030" lon="9.613910"><ele>301.0</ele></trkpt>
  <trkpt lat="59.667970" lon="9.614400"><ele>299.0</ele></trkpt>
  <trkpt lat="59.667850" lon="9.614940"><ele>297.0</ele></trkpt>
  <trkpt lat="59.667750" lon="9.615180"><ele>297.0</ele></trkpt>
  <trkpt lat="59.667660" lon="9.615480"><ele>296.0</ele></trkpt>
  <trkpt lat="59.667630" lon="9.615650"><ele>295.0</ele></trkpt>
  <trkpt lat="59.667450" lon="9.616320"><ele>293.0</ele></trkpt>
  <trkpt lat="59.667250" lon="9.617340"><ele>281.0</ele></trkpt>
  <trkpt lat="59.667100" lon="9.617610"><ele>278.0</ele></trkpt>
  <trkpt lat="59.666750" lon="9.618030"><ele>272.0</ele></trkpt>
  <trkpt lat="59.666680" lon="9.618040"><ele>272.0</ele></trkpt>
  <trkpt lat="59.666520" lon="9.618580"><ele>266.0</ele></trkpt>
  <trkpt lat="59.666390" lon="9.618890"><ele>266.0</ele></trkpt>
  <trkpt lat="59.666140" lon="9.619380"><ele>262.0</ele></trkpt>
  <trkpt lat="59.666130" lon="9.619440"><ele>261.0</ele></trkpt>
  <trkpt lat="59.666170" lon="9.619420"><ele>262.0</ele></trkpt>
 </trkseg></trk></gpx>