<?xml version="1.0" encoding="UTF-8"?>
<gpx version="1.1" creator="stikart_web trailguide-snapshot" xmlns="http://www.topografix.com/GPX/1/1">
 <trk><name>Tømmer-renna kort variant</name><desc>Fra Trailguide (trailguide.net), gradering: red. 1043 m, 143 m nedfart.</desc><trkseg>
  <trkpt lat="59.641320" lon="9.607320"><ele>429.0</ele></trkpt>
  <trkpt lat="59.641140" lon="9.607110"><ele>427.0</ele></trkpt>
  <trkpt lat="59.641050" lon="9.607080"><ele>426.0</ele></trkpt>
  <trkpt lat="59.640930" lon="9.606800"><ele>424.0</ele></trkpt>
  <trkpt lat="59.640780" lon="9.606760"><ele>421.0</ele></trkpt>
  <trkpt lat="59.640660" lon="9.606410"><ele>418.0</ele></trkpt>
  <trkpt lat="59.640580" lon="9.606370"><ele>417.0</ele></trkpt>
  <trkpt lat="59.640540" lon="9.606280"><ele>416.0</ele></trkpt>
  <trkpt lat="59.640350" lon="9.606280"><ele>412.0</ele></trkpt>
  <trkpt lat="59.640040" lon="9.606100"><ele>405.0</ele></trkpt>
  <trkpt lat="59.639990" lon="9.605980"><ele>404.0</ele></trkpt>
  <trkpt lat="59.639940" lon="9.605950"><ele>402.0</ele></trkpt>
  <trkpt lat="59.639860" lon="9.605780"><ele>400.0</ele></trkpt>
  <trkpt lat="59.639840" lon="9.605610"><ele>398.0</ele></trkpt>
  <trkpt lat="59.639790" lon="9.605490"><ele>396.0</ele></trkpt>
  <trkpt lat="59.639660" lon="9.605310"><ele>392.0</ele></trkpt>
  <trkpt lat="59.639620" lon="9.604880"><ele>388.0</ele></trkpt>
  <trkpt lat="59.639580" lon="9.604810"><ele>386.0</ele></trkpt>
  <trkpt lat="59.639330" lon="9.605140"><ele>383.0</ele></trkpt>
  <trkpt lat="59.639240" lon="9.605340"><ele>382.0</ele></trkpt>
  <trkpt lat="59.639100" lon="9.605340"><ele>379.0</ele></trkpt>
  <trkpt lat="59.638970" lon="9.605270"><ele>376.0</ele></trkpt>
  <trkpt lat="59.638630" lon="9.605460"><ele>369.0</ele></trkpt>
  <trkpt lat="59.638250" lon="9.606060"><ele>365.0</ele></trkpt>
  <trkpt lat="59.637960" lon="9.606400"><ele>362.0</ele></trkpt>
  <trkpt lat="59.637490" lon="9.606660"><ele>354.0</ele></trkpt>
  <trkpt lat="59.637400" lon="9.606790"><ele>353.0</ele></trkpt>
  <trkpt lat="59.637260" lon="9.606820"><ele>350.0</ele></trkpt>
  <trkpt lat="59.637070" lon="9.607210"><ele>348.0</ele></trkpt>
  <trkpt lat="59.636970" lon="9.607470"><ele>348.0</ele></trkpt>
  <trkpt lat="59.636800" lon="9.607540"><ele>344.0</ele></trkpt>
  <trkpt lat="59.636650" lon="9.607530"><ele>340.0</ele></trkpt>
  <trkpt lat="59.636420" lon="9.607590"><ele>335.0</ele></trkpt>
  <trkpt lat="59.636270" lon="9.607810"><ele>332.0</ele></trkpt>
  <trkpt lat="59.636100" lon="9.607810"><ele>328.0</ele></trkpt>
  <trkpt lat="59.635900" lon="9.607920"><ele>324.0</ele></trkpt>
  <trkpt lat="59.635800" lon="9.608000"><ele>322.0</ele></trkpt>
  <trkpt lat="59.635500" lon="9.608400"><ele>320.0</ele></trkpt>
  <trkpt lat="59.635340" lon="9.608470"><ele>317.0</ele></trkpt>
  <trkpt lat="59.635290" lon="9.608570"><ele>317.0</ele></trkpt>
  <trkpt lat="59.635250" lon="9.608340"><ele>315.0</ele></trkpt>
  <trkpt lat="59.635010" lon="9.607760"><ele>306.0</ele></trkpt>
  <trkpt lat="59.634890" lon="9.607560"><ele>303.0</ele></trkpt>
  <trkpt lat="59.634840" lon="9.607210"><ele>300.0</ele></trkpt>
  <trkpt lat="59.634850" lon="9.607220"><ele>301.0</ele></trkpt>
  <trkpt lat="59.634780" lon="9.607210"><ele>300.0</ele></trkpt>
  <trkpt lat="59.634630" lon="9.606960"><ele>296.0</ele></trkpt>
  <trkpt lat="59.634610" lon="9.606890"><ele>296.0</ele></trkpt>
  <trkpt lat="59.634500" lon="9.606720"><ele>293.0</ele></trkpt>
  <trkpt lat="59.634660" lon="9.606380"><ele>292.0</ele></trkpt>
  <trkpt lat="59.634750" lon="9.606030"><ele>290.0</ele></trkpt>
  <trkpt lat="59.634790" lon="9.605480"><ele>286.0</ele></trkpt>
  <trkpt lat="59.634770" lon="9.605250"><ele>283.0</ele></trkpt>
 </trkseg></trk></gpx>