{"type":"FeatureCollection","crs":{"type":"name","properties":{"name":"EPSG:4326"}},"features":[{"type":"Feature","id":1,"geometry":{"type":"Point","coordinates":[9.60592609284653,59.6896542973017]},"properties":{"FID":1,"NAVN":"Speider-Roa bålplass","fme_basena":"3006_baalGrill","fme_datase":"F:\\Kart\\10_Prosjekt\\KulturOgIdrett\\3006_baalGrill.sos"}},{"type":"Feature","id":2,"geometry":{"type":"Point","coordinates":[9.62692980915569,59.6814599676481]},"properties":{"FID":2,"NAVN":"Idrettsparken bålplass","fme_basena":"3006_baalGrill","fme_datase":"F:\\Kart\\10_Prosjekt\\KulturOgIdrett\\3006_baalGrill.sos"}},{"type":"Feature","id":3,"geometry":{"type":"Point","coordinates":[9.66378966952384,59.650365830232]},"properties":{"FID":3,"NAVN":"Gamlegrendåsen skole bålplass","fme_basena":"3006_baalGrill","fme_datase":"F:\\Kart\\10_Prosjekt\\KulturOgIdrett\\3006_baalGrill.sos"}},{"type":"Feature","id":4,"geometry":{"type":"Point","coordinates":[9.67451976235624,59.6604092371444]},"properties":{"FID":4,"NAVN":"Gamlegrendåsen Nord bålplass","fme_basena":"3006_baalGrill","fme_datase":"F:\\Kart\\10_Prosjekt\\KulturOgIdrett\\3006_baalGrill.sos"}},{"type":"Feature","id":5,"geometry":{"type":"Point","coordinates":[9.63966157571594,59.6537946661844]},"properties":{"FID":5,"NAVN":"Wennersborg bålplass","fme_basena":"3006_baalGrill","fme_datase":"F:\\Kart\\10_Prosjekt\\KulturOgIdrett\\3006_baalGrill.sos"}},{"type":"Feature","id":6,"geometry":{"type":"Point","coordinates":[9.64107557182399,59.6779517673599]},"properties":{"FID":6,"NAVN":"Kongsberg Montesorri barnehage bålplass","fme_basena":"3006_baalGrill","fme_datase":"F:\\Kart\\10_Prosjekt\\KulturOgIdrett\\3006_baalGrill.sos"}},{"type":"Feature","id":7,"geometry":{"type":"Point","coordinates":[9.66353533473108,59.6483484941235]},"properties":{"FID":7,"NAVN":"Gamlegrendåsen skileik bålplass","fme_basena":"3006_baalGrill","fme_datase":"F:\\Kart\\10_Prosjekt\\KulturOgIdrett\\3006_baalGrill.sos"}},{"type":"Feature","id":8,"geometry":{"type":"Point","coordinates":[9.64921041748745,59.6396531166655]},"properties":{"FID":8,"NAVN":null,"fme_basena":null,"fme_datase":null}},{"type":"Feature","id":9,"geometry":{"type":"Point","coordinates":[9.64900396785549,59.6871496473764]},"properties":{"FID":9,"NAVN":null,"fme_basena":null,"fme_datase":null}},{"type":"Feature","id":10,"geometry":{"type":"Point","coordinates":[9.62390897032652,59.6798421245798]},"properties":{"FID":10,"NAVN":null,"fme_basena":null,"fme_datase":null}},{"type":"Feature","id":11,"geometry":{"type":"Point","coordinates":[9.60209445495568,59.6731372325711]},"properties":{"FID":11,"NAVN":null,"fme_basena":null,"fme_datase":null}},{"type":"Feature","id":12,"geometry":{"type":"Point","coordinates":[9.601508473757,59.6779059674967]},"properties":{"FID":12,"NAVN":null,"fme_basena":null,"fme_datase":null}},{"type":"Feature","id":13,"geometry":{"type":"Point","coordinates":[9.60156914101807,59.6782093732904]},"properties":{"FID":13,"NAVN":null,"fme_basena":null,"fme_datase":null}},{"type":"Feature","id":14,"geometry":{"type":"Point","coordinates":[9.60766166641018,59.6697150003103]},"properties":{"FID":14,"NAVN":null,"fme_basena":null,"fme_datase":null}},{"type":"Feature","id":15,"geometry":{"type":"Point","coordinates":[9.6075716668483,59.6703816665441]},"properties":{"FID":15,"NAVN":null,"fme_basena":null,"fme_datase":null}},{"type":"Feature","id":16,"geometry":{"type":"Point","coordinates":[9.60706752579493,59.6707844494915]},"properties":{"FID":16,"NAVN":null,"fme_basena":null,"fme_datase":null}},{"type":"Feature","id":17,"geometry":{"type":"Point","coordinates":[9.60879613336227,59.6685963959711]},"properties":{"FID":17,"NAVN":null,"fme_basena":null,"fme_datase":null}},{"type":"Feature","id":18,"geometry":{"type":"Point","coordinates":[9.61478994823152,59.6586878422235]},"properties":{"FID":18,"NAVN":null,"fme_basena":null,"fme_datase":null}},{"type":"Feature","id":19,"geometry":{"type":"Point","coordinates":[9.61491912696532,59.6579176619737]},"properties":{"FID":19,"NAVN":null,"fme_basena":null,"fme_datase":null}},{"type":"Feature","id":20,"geometry":{"type":"Point","coordinates":[9.6054345916798,59.6539866760421]},"properties":{"FID":20,"NAVN":null,"fme_basena":null,"fme_datase":null}},{"type":"Feature","id":21,"geometry":{"type":"Point","coordinates":[9.6054345916798,59.6539866760421]},"properties":{"FID":21,"NAVN":null,"fme_basena":null,"fme_datase":null}},{"type":"Feature","id":22,"geometry":{"type":"Point","coordinates":[9.61187134150459,59.6619730235482]},"properties":{"FID":22,"NAVN":null,"fme_basena":null,"fme_datase":null}},{"type":"Feature","id":23,"geometry":{"type":"Point","coordinates":[9.48298372517609,59.6050516825798]},"properties":{"FID":23,"NAVN":null,"fme_basena":null,"fme_datase":null}},{"type":"Feature","id":24,"geometry":{"type":"Point","coordinates":[9.4831295870583,59.6054635164323]},"properties":{"FID":24,"NAVN":null,"fme_basena":null,"fme_datase":null}},{"type":"Feature","id":25,"geometry":{"type":"Point","coordinates":[9.48051083544862,59.6068086073872]},"properties":{"FID":25,"NAVN":null,"fme_basena":null,"fme_datase":null}},{"type":"Feature","id":26,"geometry":{"type":"Point","coordinates":[9.47994630037531,59.6064988972062]},"properties":{"FID":26,"NAVN":null,"fme_basena":null,"fme_datase":null}},{"type":"Feature","id":27,"geometry":{"type":"Point","coordinates":[9.50588072810779,59.5942825087621]},"properties":{"FID":27,"NAVN":null,"fme_basena":null,"fme_datase":null}},{"type":"Feature","id":28,"geometry":{"type":"Point","coordinates":[9.50610456299327,59.5942443199492]},"properties":{"FID":28,"NAVN":null,"fme_basena":null,"fme_datase":null}},{"type":"Feature","id":29,"geometry":{"type":"Point","coordinates":[9.50543704249414,59.593825668542]},"properties":{"FID":29,"NAVN":null,"fme_basena":null,"fme_datase":null}},{"type":"Feature","id":30,"geometry":{"type":"Point","coordinates":[9.5050566673383,59.5959049997917]},"properties":{"FID":30,"NAVN":null,"fme_basena":null,"fme_datase":null}},{"type":"Feature","id":31,"geometry":{"type":"Point","coordinates":[9.50496499956573,59.5959599999039]},"properties":{"FID":31,"NAVN":null,"fme_basena":null,"fme_datase":null}},{"type":"Feature","id":32,"geometry":{"type":"Point","coordinates":[9.52409988028697,59.5871521376835]},"properties":{"FID":32,"NAVN":null,"fme_basena":null,"fme_datase":null}},{"type":"Feature","id":33,"geometry":{"type":"Point","coordinates":[9.5240797094237,59.5864968372248]},"properties":{"FID":33,"NAVN":null,"fme_basena":null,"fme_datase":null}},{"type":"Feature","id":34,"geometry":{"type":"Point","coordinates":[9.65882315452871,59.6236543070498]},"properties":{"FID":34,"NAVN":null,"fme_basena":null,"fme_datase":null}},{"type":"Feature","id":35,"geometry":{"type":"Point","coordinates":[9.57917538554865,59.6663001790337]},"properties":{"FID":35,"NAVN":null,"fme_basena":null,"fme_datase":null}},{"type":"Feature","id":36,"geometry":{"type":"Point","coordinates":[9.57898917500152,59.6680892758942]},"properties":{"FID":36,"NAVN":null,"fme_basena":null,"fme_datase":null}},{"type":"Feature","id":37,"geometry":{"type":"Point","coordinates":[9.57166823523494,59.6671698971965]},"properties":{"FID":37,"NAVN":null,"fme_basena":null,"fme_datase":null}},{"type":"Feature","id":38,"geometry":{"type":"Point","coordinates":[9.5699942310499,59.6669478140704]},"properties":{"FID":38,"NAVN":null,"fme_basena":null,"fme_datase":null}},{"type":"Feature","id":39,"geometry":{"type":"Point","coordinates":[9.54547081653573,59.6758707590561]},"properties":{"FID":39,"NAVN":null,"fme_basena":null,"fme_datase":null}},{"type":"Feature","id":40,"geometry":{"type":"Point","coordinates":[9.58731667200181,59.6644341378123]},"properties":{"FID":40,"NAVN":null,"fme_basena":null,"fme_datase":null}},{"type":"Feature","id":41,"geometry":{"type":"Point","coordinates":[9.56577272607228,59.6419660942425]},"properties":{"FID":41,"NAVN":null,"fme_basena":null,"fme_datase":null}},{"type":"Feature","id":42,"geometry":{"type":"Point","coordinates":[9.64760181649008,59.6303202091978]},"properties":{"FID":42,"NAVN":null,"fme_basena":null,"fme_datase":null}},{"type":"Feature","id":43,"geometry":{"type":"Point","coordinates":[9.61802724962088,59.6461926650438]},"properties":{"FID":43,"NAVN":null,"fme_basena":null,"fme_datase":null}},{"type":"Feature","id":45,"geometry":{"type":"Point","coordinates":[9.61491333317526,59.6767133332977]},"properties":{"FID":45,"NAVN":null,"fme_basena":null,"fme_datase":null}},{"type":"Feature","id":46,"geometry":{"type":"Point","coordinates":[9.61301499969367,59.6738100003162]},"properties":{"FID":46,"NAVN":null,"fme_basena":null,"fme_datase":null}}]}