{"type": "FeatureCollection", "features": [{"type": "Feature", "geometry": {"type": "Point", "coordinates": [9.618006, 59.675816]}, "properties": {"name": "Badeplass"}}, {"type": "Feature", "geometry": {"type": "Point", "coordinates": [9.616192, 59.676379]}, "properties": {"name": "Badeplass"}}, {"type": "Feature", "geometry": {"type": "Point", "coordinates": [9.616014, 59.675125]}, "properties": {"name": "Badeplass"}}, {"type": "Feature", "geometry": {"type": "Point", "coordinates": [9.599, 59.627818]}, "properties": {"name": "Saggrendadammen"}}]}