{"type": "FeatureCollection", "features": [{"type": "Feature", "geometry": {"type": "Point", "coordinates": [9.656269, 59.611832]}, "properties": {"name": "Drikkevann"}}, {"type": "Feature", "geometry": {"type": "Point", "coordinates": [9.675552, 59.654847]}, "properties": {"name": "Drikkevann"}}, {"type": "Feature", "geometry": {"type": "Point", "coordinates": [9.707914, 59.680334]}, "properties": {"name": "Drikkevann"}}, {"type": "Feature", "geometry": {"type": "Point", "coordinates": [9.601214, 59.6276]}, "properties": {"name": "Drikkevann"}}]}