{"type":"FeatureCollection","crs":{"type":"name","properties":{"name":"EPSG:4326"}},"features":[{"type":"Feature","id":1,"geometry":{"type":"Point","coordinates":[9.60212933504165,59.6731449901609]},"properties":{"FID":1,"NAVN":"Hannibalhuken","fme_basena":"3006_baalGrill","fme_datase":"F:\\Kart\\10_Prosjekt\\KulturOgIdrett\\3006_baalGrill.sos"}},{"type":"Feature","id":2,"geometry":{"type":"Point","coordinates":[9.6545633231884,59.5968869617249]},"properties":{"FID":2,"NAVN":"Skrimhuken","fme_basena":"3006_baalGrill","fme_datase":"F:\\Kart\\10_Prosjekt\\KulturOgIdrett\\3006_baalGrill.sos"}},{"type":"Feature","id":3,"geometry":{"type":"Point","coordinates":[9.60537287439601,59.6539664523822]},"properties":{"FID":3,"NAVN":"Korset gapahuk","fme_basena":"3006_baalGrill","fme_datase":"F:\\Kart\\10_Prosjekt\\KulturOgIdrett\\3006_baalGrill.sos"}},{"type":"Feature","id":4,"geometry":{"type":"Point","coordinates":[9.60467748951831,59.6776950001885]},"properties":{"FID":4,"NAVN":"Lysløype Funkelia gapahuk","fme_basena":"3006_baalGrill","fme_datase":"F:\\Kart\\10_Prosjekt\\KulturOgIdrett\\3006_baalGrill.sos"}},{"type":"Feature","id":5,"geometry":{"type":"Point","coordinates":[10.0065548604376,59.4990078471883]},"properties":{"FID":5,"NAVN":"Bergerbakken gapahuk","fme_basena":"3006_baalGrill","fme_datase":"F:\\Kart\\10_Prosjekt\\KulturOgIdrett\\3006_baalGrill.sos"}},{"type":"Feature","id":6,"geometry":{"type":"Point","coordinates":[9.63789955358071,59.6757332034669]},"properties":{"FID":6,"NAVN":"Kongsberg Bruk gapahuk","fme_basena":"3006_baalGrill","fme_datase":"F:\\Kart\\10_Prosjekt\\KulturOgIdrett\\3006_baalGrill.sos"}},{"type":"Feature","id":7,"geometry":{"type":"Point","coordinates":[9.64474020525084,59.6593146918363]},"properties":{"FID":7,"NAVN":"Rolfeløkka gapahuk","fme_basena":"3006_baalGrill","fme_datase":"F:\\Kart\\10_Prosjekt\\KulturOgIdrett\\3006_baalGrill.sos"}},{"type":"Feature","id":8,"geometry":{"type":"Point","coordinates":[9.64632579276476,59.6583142396821]},"properties":{"FID":8,"NAVN":"Krags gate barnehage gapahuk","fme_basena":"3006_baalGrill","fme_datase":"F:\\Kart\\10_Prosjekt\\KulturOgIdrett\\3006_baalGrill.sos"}},{"type":"Feature","id":9,"geometry":{"type":"Point","coordinates":[9.64283537051326,59.6293148523736]},"properties":{"FID":9,"NAVN":"Skrimveien gapahuk","fme_basena":"3006_baalGrill","fme_datase":"F:\\Kart\\10_Prosjekt\\KulturOgIdrett\\3006_baalGrill.sos"}},{"type":"Feature","id":10,"geometry":{"type":"Point","coordinates":[9.58794034922887,59.5867180780142]},"properties":{"FID":10,"NAVN":"Bjørndalsrundens gapahuk Trytetjern","fme_basena":"3006_baalGrill","fme_datase":"F:\\Kart\\10_Prosjekt\\KulturOgIdrett\\3006_baalGrill.sos"}},{"type":"Feature","id":11,"geometry":{"type":"Point","coordinates":[9.67456736589508,59.6690802867678]},"properties":{"FID":11,"NAVN":"Madsebakken skole gapahuk","fme_basena":"3006_baalGrill","fme_datase":"F:\\Kart\\10_Prosjekt\\KulturOgIdrett\\3006_baalGrill.sos"}},{"type":"Feature","id":12,"geometry":{"type":"Point","coordinates":[9.99794366352787,59.505087077627]},"properties":{"FID":12,"NAVN":"Hvittingfoss luftsportklubb gapahuk","fme_basena":"3006_baalGrill","fme_datase":"F:\\Kart\\10_Prosjekt\\KulturOgIdrett\\3006_baalGrill.sos"}},{"type":"Feature","id":13,"geometry":{"type":"Point","coordinates":[10.0027873046855,59.4737275648036]},"properties":{"FID":13,"NAVN":"Hvittingfoss Bruk gapahuk","fme_basena":"3006_baalGrill","fme_datase":"F:\\Kart\\10_Prosjekt\\KulturOgIdrett\\3006_baalGrill.sos"}},{"type":"Feature","id":14,"geometry":{"type":"Point","coordinates":[9.68291917930579,59.670060540172]},"properties":{"FID":14,"NAVN":"Sølvposten gapahuk","fme_basena":"3006_baalGrill","fme_datase":"F:\\Kart\\10_Prosjekt\\KulturOgIdrett\\3006_baalGrill.sos"}},{"type":"Feature","id":15,"geometry":{"type":"Point","coordinates":[9.6649458960905,59.6403579994173]},"properties":{"FID":15,"NAVN":"Rosteds vei gapahuk","fme_basena":"3006_baalGrill","fme_datase":"F:\\Kart\\10_Prosjekt\\KulturOgIdrett\\3006_baalGrill.sos"}},{"type":"Feature","id":16,"geometry":{"type":"Point","coordinates":[9.66057891673992,59.5989174384093]},"properties":{"FID":16,"NAVN":"Brattløkka gapahuk","fme_basena":"3006_baalGrill","fme_datase":"F:\\Kart\\10_Prosjekt\\KulturOgIdrett\\3006_baalGrill.sos"}},{"type":"Feature","id":17,"geometry":{"type":"Point","coordinates":[9.64279412431218,59.6016498933267]},"properties":{"FID":17,"NAVN":"Brattløkka gapahuk","fme_basena":"3006_baalGrill","fme_datase":"F:\\Kart\\10_Prosjekt\\KulturOgIdrett\\3006_baalGrill.sos"}},{"type":"Feature","id":18,"geometry":{"type":"Point","coordinates":[9.6477758052347,59.6863042839091]},"properties":{"FID":18,"NAVN":"Raumyr gapahuk","fme_basena":"3006_baalGrill","fme_datase":"F:\\Kart\\10_Prosjekt\\KulturOgIdrett\\3006_baalGrill.sos"}},{"type":"Feature","id":19,"geometry":{"type":"Point","coordinates":[9.74336114531321,59.6048835748821]},"properties":{"FID":19,"NAVN":"Hostvedtmoen gapahuk","fme_basena":"3006_baalGrill","fme_datase":"F:\\Kart\\10_Prosjekt\\KulturOgIdrett\\3006_baalGrill.sos"}},{"type":"Feature","id":20,"geometry":{"type":"Point","coordinates":[9.6368100060942,59.6600501824221]},"properties":{"FID":20,"NAVN":"Venåsløkka gapahuk","fme_basena":"3006_baalGrill","fme_datase":"F:\\Kart\\10_Prosjekt\\KulturOgIdrett\\3006_baalGrill.sos"}},{"type":"Feature","id":21,"geometry":{"type":"Point","coordinates":[9.64907166627141,59.6871116667972]},"properties":{"FID":21,"NAVN":null,"fme_basena":null,"fme_datase":null}},{"type":"Feature","id":22,"geometry":{"type":"Point","coordinates":[9.66491923688878,59.649510482558]},"properties":{"FID":22,"NAVN":null,"fme_basena":null,"fme_datase":null}},{"type":"Feature","id":23,"geometry":{"type":"Point","coordinates":[9.48309445456867,59.6050520368621]},"properties":{"FID":23,"NAVN":null,"fme_basena":null,"fme_datase":null}},{"type":"Feature","id":24,"geometry":{"type":"Point","coordinates":[9.54546500059195,59.6759316669986]},"properties":{"FID":24,"NAVN":null,"fme_basena":null,"fme_datase":null}},{"type":"Feature","id":25,"geometry":{"type":"Point","coordinates":[9.6476875478205,59.6303548205122]},"properties":{"FID":25,"NAVN":null,"fme_basena":null,"fme_datase":null}}]}