{"type": "FeatureCollection", "features": [{"type": "Feature", "geometry": {"type": "Point", "coordinates": [9.624032, 59.677458]}, "properties": {"name": "Underbergstollen"}}, {"type": "Feature", "geometry": {"type": "Point", "coordinates": [9.578131, 59.671909]}, "properties": {"name": "Ertzengel Michaels gruve"}}, {"type": "Feature", "geometry": {"type": "Point", "coordinates": [9.596824, 59.664552]}, "properties": {"name": "Else stoll"}}, {"type": "Feature", "geometry": {"type": "Point", "coordinates": [9.596611, 59.639182]}, "properties": {"name": "Fredriksstolls mundloch"}}, {"type": "Feature", "geometry": {"type": "Point", "coordinates": [9.593576, 59.643788]}, "properties": {"name": "217"}}, {"type": "Feature", "geometry": {"type": "Point", "coordinates": [9.594154, 59.648982]}, "properties": {"name": "Justis 7"}}, {"type": "Feature", "geometry": {"type": "Point", "coordinates": [9.591363, 59.662628]}, "properties": {"name": "Gamle Else stoll"}}, {"type": "Feature", "geometry": {"type": "Point", "coordinates": [9.627871, 59.688299]}, "properties": {"name": "Dildok skjerp"}}, {"type": "Feature", "geometry": {"type": "Point", "coordinates": [9.624489, 59.682464]}, "properties": {"name": "Reventlow skjerp"}}, {"type": "Feature", "geometry": {"type": "Point", "coordinates": [9.589968, 59.656351]}, "properties": {"name": "Willen Gottes gruve"}}, {"type": "Feature", "geometry": {"type": "Point", "coordinates": [9.603803, 59.597558]}, "properties": {"name": "Sleikebekkskjerpene"}}, {"type": "Feature", "geometry": {"type": "Point", "coordinates": [9.618975, 59.676597]}, "properties": {"name": "Underbergstollens 1. Lichtloch"}}, {"type": "Feature", "geometry": {"type": "Point", "coordinates": [9.613205, 59.676292]}, "properties": {"name": "Underbergstollens 2. Lichtloch"}}, {"type": "Feature", "geometry": {"type": "Point", "coordinates": [9.618732, 59.630851]}, "properties": {"name": "Oprindelsen skjerp (4)"}}, {"type": "Feature", "geometry": {"type": "Point", "coordinates": [9.612882, 59.659452]}, "properties": {"name": "Silberspur"}}, {"type": "Feature", "geometry": {"type": "Point", "coordinates": [9.558537, 59.683337]}, "properties": {"name": "Vibekke skjerp"}}, {"type": "Feature", "geometry": {"type": "Point", "coordinates": [9.585804, 59.662764]}, "properties": {"name": "Østre skjerp"}}, {"type": "Feature", "geometry": {"type": "Point", "coordinates": [9.593096, 59.649794]}, "properties": {"name": "605"}}, {"type": "Feature", "geometry": {"type": "Point", "coordinates": [9.552162, 59.685679]}, "properties": {"name": "St. Andreas stoll"}}, {"type": "Feature", "geometry": {"type": "Point", "coordinates": [9.534844, 59.635853]}, "properties": {"name": "Kolhusdalen skjerp"}}, {"type": "Feature", "geometry": {"type": "Point", "coordinates": [9.545267, 59.636744]}, "properties": {"name": "Brattåsen kobberskjerp"}}, {"type": "Feature", "geometry": {"type": "Point", "coordinates": [9.623876, 59.611461]}, "properties": {"name": "Elstjernhaug skjerp"}}, {"type": "Feature", "geometry": {"type": "Point", "coordinates": [9.529247, 59.649559]}, "properties": {"name": "Jonstjernbekken blygruve"}}, {"type": "Feature", "geometry": {"type": "Point", "coordinates": [9.567159, 59.623199]}, "properties": {"name": "Lassedalen flusspatgruve"}}, {"type": "Feature", "geometry": {"type": "Point", "coordinates": [9.524942, 59.673162]}, "properties": {"name": "635"}}, {"type": "Feature", "geometry": {"type": "Point", "coordinates": [9.606065, 59.669829]}, "properties": {"name": "Engelgruss"}}, {"type": "Feature", "geometry": {"type": "Point", "coordinates": [9.602228, 59.608697]}, "properties": {"name": "Skjerpet ved Askebekk"}}, {"type": "Feature", "geometry": {"type": "Point", "coordinates": [9.593006, 59.64876]}, "properties": {"name": "Justis stoll"}}, {"type": "Feature", "geometry": {"type": "Point", "coordinates": [9.584906, 59.662435]}, "properties": {"name": "Østre skjerp"}}, {"type": "Feature", "geometry": {"type": "Point", "coordinates": [9.585038, 59.662293]}, "properties": {"name": "Østre skjerp"}}, {"type": "Feature", "geometry": {"type": "Point", "coordinates": [9.585204, 59.662454]}, "properties": {"name": "Østre skjerp"}}, {"type": "Feature", "geometry": {"type": "Point", "coordinates": [9.584948, 59.662599]}, "properties": {"name": "Østre skjerp"}}, {"type": "Feature", "geometry": {"type": "Point", "coordinates": [9.541694, 59.654121]}, "properties": {"name": "627"}}, {"type": "Feature", "geometry": {"type": "Point", "coordinates": [9.540737, 59.654366]}, "properties": {"name": "628"}}, {"type": "Feature", "geometry": {"type": "Point", "coordinates": [9.61792, 59.685341]}, "properties": {"name": "De syv skjerp"}}, {"type": "Feature", "geometry": {"type": "Point", "coordinates": [9.614041, 59.658323]}, "properties": {"name": "Sophie Hedvig"}}, {"type": "Feature", "geometry": {"type": "Point", "coordinates": [9.613953, 59.658271]}, "properties": {"name": "Samuel Gruves 3. nordre skjerp"}}, {"type": "Feature", "geometry": {"type": "Point", "coordinates": [9.613649, 59.657867]}, "properties": {"name": "Samuel gruve"}}, {"type": "Feature", "geometry": {"type": "Point", "coordinates": [9.613778, 59.657531]}, "properties": {"name": "Samuel Søndre gruve"}}, {"type": "Feature", "geometry": {"type": "Point", "coordinates": [9.549153, 59.634101]}, "properties": {"name": "Verlorne Sohn sølv og kobbergruve"}}, {"type": "Feature", "geometry": {"type": "Point", "coordinates": [9.597652, 59.635844]}, "properties": {"name": "Gabe Gottes gruves Ka"}}, {"type": "Feature", "geometry": {"type": "Point", "coordinates": [9.613187, 59.658969]}, "properties": {"name": "Midtre Silberspur gruve"}}, {"type": "Feature", "geometry": {"type": "Point", "coordinates": [9.607774, 59.66723]}, "properties": {"name": "Herzog Ulrich gruve"}}, {"type": "Feature", "geometry": {"type": "Point", "coordinates": [9.608141, 59.666765]}, "properties": {"name": "St. Johannes gruve"}}, {"type": "Feature", "geometry": {"type": "Point", "coordinates": [9.608109, 59.666593]}, "properties": {"name": "Commisarien gruve"}}, {"type": "Feature", "geometry": {"type": "Point", "coordinates": [9.605525, 59.670311]}, "properties": {"name": "Salomo gruve"}}, {"type": "Feature", "geometry": {"type": "Point", "coordinates": [9.60017, 59.676781]}, "properties": {"name": "Braunschweig gruve"}}, {"type": "Feature", "geometry": {"type": "Point", "coordinates": [9.574044, 59.65111]}, "properties": {"name": "Barlinddalen Nedre skjerp"}}, {"type": "Feature", "geometry": {"type": "Point", "coordinates": [9.618624, 59.631595]}, "properties": {"name": "Søndre Gang skjerp"}}, {"type": "Feature", "geometry": {"type": "Point", "coordinates": [9.623475, 59.655307]}, "properties": {"name": "Bakerovnsklev skjerp nr. 2"}}, {"type": "Feature", "geometry": {"type": "Point", "coordinates": [9.597489, 59.680018]}, "properties": {"name": "Der Gleichen gruve"}}, {"type": "Feature", "geometry": {"type": "Point", "coordinates": [9.59734, 59.680125]}, "properties": {"name": "1. Nordgang"}}, {"type": "Feature", "geometry": {"type": "Point", "coordinates": [9.596944, 59.680664]}, "properties": {"name": "Segen Gottes 1ste søndre Gangs Drift"}}, {"type": "Feature", "geometry": {"type": "Point", "coordinates": [9.596828, 59.680909]}, "properties": {"name": "Gamle Segen Gottes gruve"}}, {"type": "Feature", "geometry": {"type": "Point", "coordinates": [9.614102, 59.656599]}, "properties": {"name": "Samuel 2. søndre skjerp"}}, {"type": "Feature", "geometry": {"type": "Point", "coordinates": [9.614123, 59.65697]}, "properties": {"name": "Søndre skjerp"}}, {"type": "Feature", "geometry": {"type": "Point", "coordinates": [9.613122, 59.6493]}, "properties": {"name": "St. Jørgen skjerp"}}, {"type": "Feature", "geometry": {"type": "Point", "coordinates": [9.618263, 59.63481]}, "properties": {"name": "Reichentrost skjerp"}}, {"type": "Feature", "geometry": {"type": "Point", "coordinates": [9.618723, 59.639787]}, "properties": {"name": "Nordre Figenbom skjerp"}}, {"type": "Feature", "geometry": {"type": "Point", "coordinates": [9.618621, 59.63563]}, "properties": {"name": "Nordre Gang skjerp"}}, {"type": "Feature", "geometry": {"type": "Point", "coordinates": [9.618673, 59.640644]}, "properties": {"name": "Svartåstjern skjerp"}}, {"type": "Feature", "geometry": {"type": "Point", "coordinates": [9.579251, 59.683053]}, "properties": {"name": "Eikerbjørn stoll"}}, {"type": "Feature", "geometry": {"type": "Point", "coordinates": [9.57828, 59.682942]}, "properties": {"name": "Eikerbjørn skjerp"}}, {"type": "Feature", "geometry": {"type": "Point", "coordinates": [9.55918, 59.690738]}, "properties": {"name": "St. Jacobs gruve"}}, {"type": "Feature", "geometry": {"type": "Point", "coordinates": [9.578211, 59.682062]}, "properties": {"name": "Kunstbekk gruve"}}, {"type": "Feature", "geometry": {"type": "Point", "coordinates": [9.607872, 59.675849]}, "properties": {"name": "Underbergstollens 3. lichtloch"}}, {"type": "Feature", "geometry": {"type": "Point", "coordinates": [9.599074, 59.678236]}, "properties": {"name": "Gråterdypet"}}, {"type": "Feature", "geometry": {"type": "Point", "coordinates": [9.625677, 59.640909]}, "properties": {"name": "Ollebakskjerp"}}, {"type": "Feature", "geometry": {"type": "Point", "coordinates": [9.618483, 59.637312]}, "properties": {"name": "Rasmus skjerp"}}, {"type": "Feature", "geometry": {"type": "Point", "coordinates": [9.618819, 59.646335]}, "properties": {"name": "Fader Adam gruve nr. 6 stoll"}}, {"type": "Feature", "geometry": {"type": "Point", "coordinates": [9.618484, 59.63741]}, "properties": {"name": "Vaktmester skjerp"}}, {"type": "Feature", "geometry": {"type": "Point", "coordinates": [9.618419, 59.646025]}, "properties": {"name": "Fader Adam gruve"}}, {"type": "Feature", "geometry": {"type": "Point", "coordinates": [9.618692, 59.646063]}, "properties": {"name": "Fader Adam gruves stoll"}}, {"type": "Feature", "geometry": {"type": "Point", "coordinates": [9.619021, 59.645219]}, "properties": {"name": "Mutter Eva stoll"}}, {"type": "Feature", "geometry": {"type": "Point", "coordinates": [9.6184, 59.646156]}, "properties": {"name": "Fader Adam gruve nr. 4"}}, {"type": "Feature", "geometry": {"type": "Point", "coordinates": [9.618494, 59.645612]}, "properties": {"name": "Fader Adam gruves søndre stoll"}}, {"type": "Feature", "geometry": {"type": "Point", "coordinates": [9.618285, 59.646312]}, "properties": {"name": "Fader Adam gruve nr. 5"}}, {"type": "Feature", "geometry": {"type": "Point", "coordinates": [9.618332, 59.646215]}, "properties": {"name": "Fader Adam gruve nr. 6"}}, {"type": "Feature", "geometry": {"type": "Point", "coordinates": [9.618567, 59.644433]}, "properties": {"name": "Elgamelt skjerp (1798)"}}, {"type": "Feature", "geometry": {"type": "Point", "coordinates": [9.618498, 59.645348]}, "properties": {"name": "Mutter Eva gruve nr. 7"}}, {"type": "Feature", "geometry": {"type": "Point", "coordinates": [9.618519, 59.644237]}, "properties": {"name": "Beständige Liebe gruve nr. 3"}}, {"type": "Feature", "geometry": {"type": "Point", "coordinates": [9.61863, 59.644103]}, "properties": {"name": "Beständige Liebe gruve nr. 2"}}, {"type": "Feature", "geometry": {"type": "Point", "coordinates": [9.618552, 59.644329]}, "properties": {"name": "Beständige Liebe gruve"}}, {"type": "Feature", "geometry": {"type": "Point", "coordinates": [9.601257, 59.675274]}, "properties": {"name": "Blygangen gruve"}}, {"type": "Feature", "geometry": {"type": "Point", "coordinates": [9.537414, 59.631498]}, "properties": {"name": "Skjerpåsen kobberskjerp"}}, {"type": "Feature", "geometry": {"type": "Point", "coordinates": [9.54631, 59.630266]}, "properties": {"name": "Kobbervoldene skjerp"}}, {"type": "Feature", "geometry": {"type": "Point", "coordinates": [9.622969, 59.657264]}, "properties": {"name": "Funkelia skjerp nr.1"}}, {"type": "Feature", "geometry": {"type": "Point", "coordinates": [9.622878, 59.657435]}, "properties": {"name": "Funkelia skjerp nr.2"}}, {"type": "Feature", "geometry": {"type": "Point", "coordinates": [9.554039, 59.625643]}, "properties": {"name": "Gott Vermags kobbergruve"}}, {"type": "Feature", "geometry": {"type": "Point", "coordinates": [9.560135, 59.62502]}, "properties": {"name": "Gott Vermags øst"}}, {"type": "Feature", "geometry": {"type": "Point", "coordinates": [9.537783, 59.584995]}, "properties": {"name": "Kolknutsetra jerngruve"}}, {"type": "Feature", "geometry": {"type": "Point", "coordinates": [9.525197, 59.646406]}, "properties": {"name": "Rødknatten kobberskjerp"}}, {"type": "Feature", "geometry": {"type": "Point", "coordinates": [9.521141, 59.645403]}, "properties": {"name": "Helgevann skjerp nr. 12"}}, {"type": "Feature", "geometry": {"type": "Point", "coordinates": [9.524954, 59.673161]}, "properties": {"name": "Jonsknuten flusspatskjerp 635"}}, {"type": "Feature", "geometry": {"type": "Point", "coordinates": [9.602957, 59.602925]}, "properties": {"name": "Ansmyr gruve"}}, {"type": "Feature", "geometry": {"type": "Point", "coordinates": [9.604556, 59.602629]}, "properties": {"name": "Ansmyr gruves stoll"}}, {"type": "Feature", "geometry": {"type": "Point", "coordinates": [9.600752, 59.607515]}, "properties": {"name": "Askebekk gruve"}}, {"type": "Feature", "geometry": {"type": "Point", "coordinates": [9.604445, 59.602855]}, "properties": {"name": "Ansmyr nye skjerp"}}, {"type": "Feature", "geometry": {"type": "Point", "coordinates": [9.592835, 59.649132]}, "properties": {"name": "Justis stollens gruve"}}, {"type": "Feature", "geometry": {"type": "Point", "coordinates": [9.593094, 59.649798]}, "properties": {"name": "Justis gruve"}}, {"type": "Feature", "geometry": {"type": "Point", "coordinates": [9.592525, 59.649534]}, "properties": {"name": "Søndre Justis gruve"}}, {"type": "Feature", "geometry": {"type": "Point", "coordinates": [9.593379, 59.651227]}, "properties": {"name": "Gott mit König Friedrich gruve"}}, {"type": "Feature", "geometry": {"type": "Point", "coordinates": [9.593451, 59.650525]}, "properties": {"name": "Askedyp driften"}}, {"type": "Feature", "geometry": {"type": "Point", "coordinates": [9.593831, 59.651154]}, "properties": {"name": "Kongens gruve"}}, {"type": "Feature", "geometry": {"type": "Point", "coordinates": [9.589548, 59.652537]}, "properties": {"name": "Smedsrud skjerp"}}, {"type": "Feature", "geometry": {"type": "Point", "coordinates": [9.59362, 59.643766]}, "properties": {"name": "Nye Justis gruve"}}, {"type": "Feature", "geometry": {"type": "Point", "coordinates": [9.614424, 59.640903]}, "properties": {"name": "Geiteryggen skjerp"}}, {"type": "Feature", "geometry": {"type": "Point", "coordinates": [9.617194, 59.630895]}, "properties": {"name": "Oprindelse skjerp nr.5"}}, {"type": "Feature", "geometry": {"type": "Point", "coordinates": [9.618767, 59.630858]}, "properties": {"name": "Oprindelse skjerp nr.1"}}, {"type": "Feature", "geometry": {"type": "Point", "coordinates": [9.574936, 59.690055]}, "properties": {"name": "Frederik V gruve"}}, {"type": "Feature", "geometry": {"type": "Point", "coordinates": [9.578326, 59.685571]}, "properties": {"name": "IV. Lichtloch til Nordstollen"}}, {"type": "Feature", "geometry": {"type": "Point", "coordinates": [9.552444, 59.690374]}, "properties": {"name": "Vannledningsskjerp"}}, {"type": "Feature", "geometry": {"type": "Point", "coordinates": [9.61727, 59.629913]}, "properties": {"name": "Oprindelse skjerp nr.2"}}, {"type": "Feature", "geometry": {"type": "Point", "coordinates": [9.61734, 59.630171]}, "properties": {"name": "Oprindelse skjerp nr.3"}}, {"type": "Feature", "geometry": {"type": "Point", "coordinates": [9.613805, 59.658015]}, "properties": {"name": "Samuel gruves 1. nordre skjerp"}}, {"type": "Feature", "geometry": {"type": "Point", "coordinates": [9.613953, 59.657783]}, "properties": {"name": "Hoveddriften"}}, {"type": "Feature", "geometry": {"type": "Point", "coordinates": [9.613981, 59.657736]}, "properties": {"name": "Andrumsdriften"}}, {"type": "Feature", "geometry": {"type": "Point", "coordinates": [9.611353, 59.661641]}, "properties": {"name": "Trefoldighets gruves søndre gang"}}, {"type": "Feature", "geometry": {"type": "Point", "coordinates": [9.611243, 59.661755]}, "properties": {"name": "Trefoldighets gruve"}}, {"type": "Feature", "geometry": {"type": "Point", "coordinates": [9.607349, 59.667944]}, "properties": {"name": "Søndre Concordia gruve"}}, {"type": "Feature", "geometry": {"type": "Point", "coordinates": [9.607099, 59.668252]}, "properties": {"name": "Nordre Concordia gruve"}}, {"type": "Feature", "geometry": {"type": "Point", "coordinates": [9.606787, 59.668581]}, "properties": {"name": "Geschworner gruve"}}, {"type": "Feature", "geometry": {"type": "Point", "coordinates": [9.61519, 59.656843]}, "properties": {"name": "Samuel 2. søndre skjerps stoll"}}, {"type": "Feature", "geometry": {"type": "Point", "coordinates": [9.600713, 59.675806]}, "properties": {"name": "Blygangen skjerp"}}, {"type": "Feature", "geometry": {"type": "Point", "coordinates": [9.618498, 59.643225]}, "properties": {"name": "Beständige Liebe nr. 1 skjerp"}}, {"type": "Feature", "geometry": {"type": "Point", "coordinates": [9.604116, 59.67181]}, "properties": {"name": "Fräulein skjerpet"}}, {"type": "Feature", "geometry": {"type": "Point", "coordinates": [9.6043, 59.671928]}, "properties": {"name": "Fräulein skjerpet stoll"}}, {"type": "Feature", "geometry": {"type": "Point", "coordinates": [9.604826, 59.671226]}, "properties": {"name": "Fräulein Christiane gruve"}}, {"type": "Feature", "geometry": {"type": "Point", "coordinates": [9.605865, 59.669921]}, "properties": {"name": "Gott allein die Ehre gruve"}}, {"type": "Feature", "geometry": {"type": "Point", "coordinates": [9.6061, 59.669739]}, "properties": {"name": "Engelsgruss gruve"}}, {"type": "Feature", "geometry": {"type": "Point", "coordinates": [9.606336, 59.669377]}, "properties": {"name": "Haug skjerp"}}, {"type": "Feature", "geometry": {"type": "Point", "coordinates": [9.606684, 59.669403]}, "properties": {"name": "Haug skjerp dagstoll"}}, {"type": "Feature", "geometry": {"type": "Point", "coordinates": [9.605683, 59.670789]}, "properties": {"name": "David gruve"}}, {"type": "Feature", "geometry": {"type": "Point", "coordinates": [9.618555, 59.639444]}, "properties": {"name": "Søndre Figenbom skjerp"}}, {"type": "Feature", "geometry": {"type": "Point", "coordinates": [9.549671, 59.684572]}, "properties": {"name": "Sofie Frederikke gruve"}}, {"type": "Feature", "geometry": {"type": "Point", "coordinates": [9.549618, 59.685178]}, "properties": {"name": "Innfødtrettens nordre skjerp"}}, {"type": "Feature", "geometry": {"type": "Point", "coordinates": [9.550218, 59.681775]}, "properties": {"name": "St. Andreas skjerp"}}, {"type": "Feature", "geometry": {"type": "Point", "coordinates": [9.550016, 59.685856]}, "properties": {"name": "Innfødsrettens nordre skjerp stoll"}}, {"type": "Feature", "geometry": {"type": "Point", "coordinates": [9.551468, 59.685144]}, "properties": {"name": "St. Andreas gruve"}}, {"type": "Feature", "geometry": {"type": "Point", "coordinates": [9.552165, 59.685679]}, "properties": {"name": "St. Andreas gruves stoll"}}, {"type": "Feature", "geometry": {"type": "Point", "coordinates": [9.554602, 59.68524]}, "properties": {"name": "Innfødtsretten gruve"}}, {"type": "Feature", "geometry": {"type": "Point", "coordinates": [9.554275, 59.685914]}, "properties": {"name": "Innfødsretten stoll"}}, {"type": "Feature", "geometry": {"type": "Point", "coordinates": [9.558825, 59.683424]}, "properties": {"name": "Vibekke skjerps stoll"}}, {"type": "Feature", "geometry": {"type": "Point", "coordinates": [9.555027, 59.684461]}, "properties": {"name": "Søndre skjerp"}}, {"type": "Feature", "geometry": {"type": "Point", "coordinates": [9.594262, 59.684377]}, "properties": {"name": "Gamle Quintus gruve"}}, {"type": "Feature", "geometry": {"type": "Point", "coordinates": [9.593763, 59.684916]}, "properties": {"name": "Prins Christian gruve"}}, {"type": "Feature", "geometry": {"type": "Point", "coordinates": [9.575364, 59.69639]}, "properties": {"name": "Nordre Frederiks stoll"}}, {"type": "Feature", "geometry": {"type": "Point", "coordinates": [9.575164, 59.696627]}, "properties": {"name": "Svarte Torstein gruve"}}, {"type": "Feature", "geometry": {"type": "Point", "coordinates": [9.576253, 59.694076]}, "properties": {"name": "Sillemyr skjerp"}}, {"type": "Feature", "geometry": {"type": "Point", "coordinates": [9.543475, 59.694927]}, "properties": {"name": "Fulsebakk skjerp"}}, {"type": "Feature", "geometry": {"type": "Point", "coordinates": [9.543026, 59.695402]}, "properties": {"name": "Fulsebakk skjerps stoll"}}, {"type": "Feature", "geometry": {"type": "Point", "coordinates": [9.605049, 59.61798]}, "properties": {"name": "Nordre Stadsmyr gruve"}}, {"type": "Feature", "geometry": {"type": "Point", "coordinates": [9.60658, 59.617922]}, "properties": {"name": "Østre Stadsmyr skjerp"}}, {"type": "Feature", "geometry": {"type": "Point", "coordinates": [9.608628, 59.641562]}, "properties": {"name": "Skjerpet ved Bergmannsstien"}}, {"type": "Feature", "geometry": {"type": "Point", "coordinates": [9.54087, 59.653663]}, "properties": {"name": "Knutehovet gruve nr. 6"}}, {"type": "Feature", "geometry": {"type": "Point", "coordinates": [9.541534, 59.653513]}, "properties": {"name": "Skjerpet på østre side av nr. 6"}}, {"type": "Feature", "geometry": {"type": "Point", "coordinates": [9.539002, 59.654425]}, "properties": {"name": "Knutehovet gruve nr. 4"}}, {"type": "Feature", "geometry": {"type": "Point", "coordinates": [9.540553, 59.654121]}, "properties": {"name": "Knutehovet gruve nr. 5"}}, {"type": "Feature", "geometry": {"type": "Point", "coordinates": [9.540732, 59.654354]}, "properties": {"name": "Skjerpet på østre side av nr. 7"}}, {"type": "Feature", "geometry": {"type": "Point", "coordinates": [9.540394, 59.654337]}, "properties": {"name": "Knutehovet gruve nr. 7"}}, {"type": "Feature", "geometry": {"type": "Point", "coordinates": [9.540633, 59.65393]}, "properties": {"name": "Knutehovet gruve nr. 13"}}, {"type": "Feature", "geometry": {"type": "Point", "coordinates": [9.54329, 59.651631]}, "properties": {"name": "Knutehovet stoll"}}, {"type": "Feature", "geometry": {"type": "Point", "coordinates": [9.543083, 59.651793]}, "properties": {"name": "Knutehovet stolls lichtloch"}}, {"type": "Feature", "geometry": {"type": "Point", "coordinates": [9.580554, 59.660588]}, "properties": {"name": "Mildigkeit Gottes gruve"}}, {"type": "Feature", "geometry": {"type": "Point", "coordinates": [9.580719, 59.660611]}, "properties": {"name": "Mildigkeit Gottes gruve"}}, {"type": "Feature", "geometry": {"type": "Point", "coordinates": [9.580258, 59.660507]}, "properties": {"name": "Mildigkeit Gottes gruves stoll"}}, {"type": "Feature", "geometry": {"type": "Point", "coordinates": [9.600972, 59.608503]}, "properties": {"name": "Skjerpet ved Askebekk"}}, {"type": "Feature", "geometry": {"type": "Point", "coordinates": [9.610406, 59.611545]}, "properties": {"name": "Elgtjennhaugens skjerp"}}, {"type": "Feature", "geometry": {"type": "Point", "coordinates": [9.607043, 59.612864]}, "properties": {"name": "Stadsmyr stoll"}}, {"type": "Feature", "geometry": {"type": "Point", "coordinates": [9.606563, 59.612749]}, "properties": {"name": "Stadsmyr stolls lichtloch"}}, {"type": "Feature", "geometry": {"type": "Point", "coordinates": [9.5993, 59.616019]}, "properties": {"name": "Vestre Stadsmyr gruves stoll"}}, {"type": "Feature", "geometry": {"type": "Point", "coordinates": [9.595333, 59.615797]}, "properties": {"name": "Vestre Stadsmyr gruve"}}, {"type": "Feature", "geometry": {"type": "Point", "coordinates": [9.599948, 59.61205]}, "properties": {"name": "Bommeskjerpet"}}, {"type": "Feature", "geometry": {"type": "Point", "coordinates": [9.61021, 59.617444]}, "properties": {"name": "Murat skjerp"}}, {"type": "Feature", "geometry": {"type": "Point", "coordinates": [9.611244, 59.587258]}, "properties": {"name": "Vollevann skjerpene"}}, {"type": "Feature", "geometry": {"type": "Point", "coordinates": [9.613636, 59.616969]}, "properties": {"name": "Østre Ormåsen skjerp"}}, {"type": "Feature", "geometry": {"type": "Point", "coordinates": [9.624486, 59.682475]}, "properties": {"name": "Rewentlow skjerp"}}, {"type": "Feature", "geometry": {"type": "Point", "coordinates": [9.622213, 59.686124]}, "properties": {"name": "Dildok skjerp"}}, {"type": "Feature", "geometry": {"type": "Point", "coordinates": [9.617975, 59.685242]}, "properties": {"name": "De 7 skjerp"}}, {"type": "Feature", "geometry": {"type": "Point", "coordinates": [9.61878, 59.684227]}, "properties": {"name": "Prins Carl skjerp"}}, {"type": "Feature", "geometry": {"type": "Point", "coordinates": [9.627874, 59.6883]}, "properties": {"name": "Dildok skjerp stoll"}}, {"type": "Feature", "geometry": {"type": "Point", "coordinates": [9.588008, 59.660652]}, "properties": {"name": "Keller gruve nr. 2"}}, {"type": "Feature", "geometry": {"type": "Point", "coordinates": [9.587678, 59.660618]}, "properties": {"name": "Keller gruve nr. 3"}}, {"type": "Feature", "geometry": {"type": "Point", "coordinates": [9.588489, 59.660815]}, "properties": {"name": "Keller gruve"}}, {"type": "Feature", "geometry": {"type": "Point", "coordinates": [9.587239, 59.660461]}, "properties": {"name": "Prinsegangen"}}, {"type": "Feature", "geometry": {"type": "Point", "coordinates": [9.58908, 59.661151]}, "properties": {"name": "Søndre skjerp"}}, {"type": "Feature", "geometry": {"type": "Point", "coordinates": [9.587252, 59.661426]}, "properties": {"name": "Gottes Hülfe Lichtloch"}}, {"type": "Feature", "geometry": {"type": "Point", "coordinates": [9.586787, 59.661134]}, "properties": {"name": "Brennopp Lichtloch"}}, {"type": "Feature", "geometry": {"type": "Point", "coordinates": [9.58605, 59.660941]}, "properties": {"name": "Gottes Hülfe in der Noth gruves drivsjakt"}}, {"type": "Feature", "geometry": {"type": "Point", "coordinates": [9.586306, 59.660561]}, "properties": {"name": "Drei Brüder gruve"}}, {"type": "Feature", "geometry": {"type": "Point", "coordinates": [9.586534, 59.660317]}, "properties": {"name": "Gamle Gottes Hülfe in der Noth gruve"}}, {"type": "Feature", "geometry": {"type": "Point", "coordinates": [9.586561, 59.660477]}, "properties": {"name": "Herzog Friedrichs gruve"}}, {"type": "Feature", "geometry": {"type": "Point", "coordinates": [9.588073, 59.658553]}, "properties": {"name": "Gott beschert Erz gruve"}}, {"type": "Feature", "geometry": {"type": "Point", "coordinates": [9.588601, 59.659058]}, "properties": {"name": "Råen skjerp"}}, {"type": "Feature", "geometry": {"type": "Point", "coordinates": [9.572209, 59.65246]}, "properties": {"name": "Barlinddalens skjerp"}}, {"type": "Feature", "geometry": {"type": "Point", "coordinates": [9.584069, 59.660148]}, "properties": {"name": "Krag gruve"}}, {"type": "Feature", "geometry": {"type": "Point", "coordinates": [9.58291, 59.65982]}, "properties": {"name": "Krag stoll"}}, {"type": "Feature", "geometry": {"type": "Point", "coordinates": [9.583856, 59.654484]}, "properties": {"name": "Gamle Rosengang gruve"}}, {"type": "Feature", "geometry": {"type": "Point", "coordinates": [9.584652, 59.660687]}, "properties": {"name": "Krag østre skjerp"}}, {"type": "Feature", "geometry": {"type": "Point", "coordinates": [9.58519, 59.660806]}, "properties": {"name": "Krag østre skjerps stoll"}}, {"type": "Feature", "geometry": {"type": "Point", "coordinates": [9.582557, 59.654265]}, "properties": {"name": "Rosengang gruve"}}, {"type": "Feature", "geometry": {"type": "Point", "coordinates": [9.592812, 59.650342]}, "properties": {"name": "Hjulbund driften"}}, {"type": "Feature", "geometry": {"type": "Point", "coordinates": [9.598077, 59.635271]}, "properties": {"name": "Gnade Gottes gruve"}}, {"type": "Feature", "geometry": {"type": "Point", "coordinates": [9.59753, 59.635621]}, "properties": {"name": "Güte Gottes Gruve"}}, {"type": "Feature", "geometry": {"type": "Point", "coordinates": [9.597801, 59.635624]}, "properties": {"name": "Gamle Gabe Gottes"}}, {"type": "Feature", "geometry": {"type": "Point", "coordinates": [9.598252, 59.635499]}, "properties": {"name": "Østre drift"}}, {"type": "Feature", "geometry": {"type": "Point", "coordinates": [9.599324, 59.633301]}, "properties": {"name": "Grev Bernsdorf gruve"}}, {"type": "Feature", "geometry": {"type": "Point", "coordinates": [9.600372, 59.630747]}, "properties": {"name": "Hackner skjerp"}}, {"type": "Feature", "geometry": {"type": "Point", "coordinates": [9.593647, 59.650503]}, "properties": {"name": "Armen gruve"}}, {"type": "Feature", "geometry": {"type": "Point", "coordinates": [9.581918, 59.654195]}, "properties": {"name": "Rosengang gruves stoll"}}, {"type": "Feature", "geometry": {"type": "Point", "coordinates": [9.572236, 59.654872]}, "properties": {"name": "Barlinddalen stoll"}}, {"type": "Feature", "geometry": {"type": "Point", "coordinates": [9.59772, 59.679691]}, "properties": {"name": "Gud fryde Håpet gruve"}}, {"type": "Feature", "geometry": {"type": "Point", "coordinates": [9.548923, 59.627655]}, "properties": {"name": "Kobberskjerp"}}, {"type": "Feature", "geometry": {"type": "Point", "coordinates": [9.547676, 59.634989]}, "properties": {"name": "Verlorne Sohn skjerp"}}, {"type": "Feature", "geometry": {"type": "Point", "coordinates": [9.548796, 59.626916]}, "properties": {"name": "Kobberskjerp"}}, {"type": "Feature", "geometry": {"type": "Point", "coordinates": [9.607051, 59.61148]}, "properties": {"name": "Bratteskjerpet"}}, {"type": "Feature", "geometry": {"type": "Point", "coordinates": [9.60976, 59.59934]}, "properties": {"name": "Nye Kisgruva"}}, {"type": "Feature", "geometry": {"type": "Point", "coordinates": [9.530676, 59.659462]}, "properties": {"name": "Jonsknutegruve nr. 17"}}, {"type": "Feature", "geometry": {"type": "Point", "coordinates": [9.530601, 59.659635]}, "properties": {"name": "Jonsknutegruve nr. 18"}}, {"type": "Feature", "geometry": {"type": "Point", "coordinates": [9.535057, 59.659978]}, "properties": {"name": "Jonsknutegruve nr. 19"}}, {"type": "Feature", "geometry": {"type": "Point", "coordinates": [9.530484, 59.659182]}, "properties": {"name": "Jonsknutegruve nr. 17 stoll"}}, {"type": "Feature", "geometry": {"type": "Point", "coordinates": [9.536144, 59.660083]}, "properties": {"name": "Jonsknutegruve nr. 19 stoll"}}, {"type": "Feature", "geometry": {"type": "Point", "coordinates": [9.596611, 59.639189]}, "properties": {"name": "Fredriks stoll"}}, {"type": "Feature", "geometry": {"type": "Point", "coordinates": [9.590297, 59.649022]}, "properties": {"name": "Brygger gruve"}}, {"type": "Feature", "geometry": {"type": "Point", "coordinates": [9.580356, 59.665393]}, "properties": {"name": "Fortuna gruve"}}, {"type": "Feature", "geometry": {"type": "Point", "coordinates": [9.615904, 59.657728]}, "properties": {"name": "Samuel Gruves dagstoll"}}, {"type": "Feature", "geometry": {"type": "Point", "coordinates": [9.592217, 59.687448]}, "properties": {"name": "Louisa Augusta gruve"}}, {"type": "Feature", "geometry": {"type": "Point", "coordinates": [9.592787, 59.686847]}, "properties": {"name": "Charlotte Louise skjerp"}}, {"type": "Feature", "geometry": {"type": "Point", "coordinates": [9.593407, 59.685656]}, "properties": {"name": "Charlotte Amalie gruve"}}, {"type": "Feature", "geometry": {"type": "Point", "coordinates": [9.61203, 59.677934]}, "properties": {"name": "Kvartals gruves stoll"}}, {"type": "Feature", "geometry": {"type": "Point", "coordinates": [9.605807, 59.68355]}, "properties": {"name": "Skjerpet nord for Himmelfart gruve"}}, {"type": "Feature", "geometry": {"type": "Point", "coordinates": [9.607708, 59.680504]}, "properties": {"name": "Himmelfart gruve"}}, {"type": "Feature", "geometry": {"type": "Point", "coordinates": [9.596042, 59.681958]}, "properties": {"name": "Sofie Magdalena gruve"}}, {"type": "Feature", "geometry": {"type": "Point", "coordinates": [9.59221, 59.691856]}, "properties": {"name": "Kampenhaug skjerp"}}, {"type": "Feature", "geometry": {"type": "Point", "coordinates": [9.586998, 59.683954]}, "properties": {"name": "Kunstbekk skjerp"}}, {"type": "Feature", "geometry": {"type": "Point", "coordinates": [9.59706, 59.680396]}, "properties": {"name": "Tyske skjerp"}}, {"type": "Feature", "geometry": {"type": "Point", "coordinates": [9.618801, 59.631245]}, "properties": {"name": "Oprindelse skjerp nr.4"}}, {"type": "Feature", "geometry": {"type": "Point", "coordinates": [9.617804, 59.648919]}, "properties": {"name": "Gamle Vaktmester skjerp"}}, {"type": "Feature", "geometry": {"type": "Point", "coordinates": [9.576913, 59.685258]}, "properties": {"name": "Skjerpet ovenfor IV. Lichtloch til Nordstollen"}}, {"type": "Feature", "geometry": {"type": "Point", "coordinates": [9.575577, 59.683073]}, "properties": {"name": "Skjerpet ovenfor Eikerbjørn skjerp"}}, {"type": "Feature", "geometry": {"type": "Point", "coordinates": [9.566567, 59.681662]}, "properties": {"name": "Gyldenløve skjerp"}}, {"type": "Feature", "geometry": {"type": "Point", "coordinates": [9.576853, 59.659941]}, "properties": {"name": "Skjerpet ved Mildigkeitmyra"}}, {"type": "Feature", "geometry": {"type": "Point", "coordinates": [9.614023, 59.673273]}, "properties": {"name": "Skjerpet sør for Rundtjern"}}, {"type": "Feature", "geometry": {"type": "Point", "coordinates": [9.628299, 59.671875]}, "properties": {"name": "Skjerpet på Storåsen"}}, {"type": "Feature", "geometry": {"type": "Point", "coordinates": [9.597281, 59.680172]}, "properties": {"name": "2. Nordgang"}}, {"type": "Feature", "geometry": {"type": "Point", "coordinates": [9.618889, 59.644283]}, "properties": {"name": "Beständige Liebe gruves stoll"}}, {"type": "Feature", "geometry": {"type": "Point", "coordinates": [9.624014, 59.65319]}, "properties": {"name": "Bakerovnsklev skjerp nr. 1"}}, {"type": "Feature", "geometry": {"type": "Point", "coordinates": [9.528319, 59.650767]}, "properties": {"name": "Jonstjernbekken kobberskjerp"}}, {"type": "Feature", "geometry": {"type": "Point", "coordinates": [9.61651, 59.679072]}, "properties": {"name": "Barbrokollen førreformatoriske bergverks stoll"}}, {"type": "Feature", "geometry": {"type": "Point", "coordinates": [9.594411, 59.643508]}, "properties": {"name": "Nye Justis gruves stoll"}}, {"type": "Feature", "geometry": {"type": "Point", "coordinates": [9.579461, 59.678603]}, "properties": {"name": "Gud med Kronprinsen gruve"}}, {"type": "Feature", "geometry": {"type": "Point", "coordinates": [9.580728, 59.677497]}, "properties": {"name": "Søndre Kronprinsen skjerp"}}, {"type": "Feature", "geometry": {"type": "Point", "coordinates": [9.580389, 59.676071]}, "properties": {"name": "Siebenbrüder gruves stoll"}}, {"type": "Feature", "geometry": {"type": "Point", "coordinates": [9.579455, 59.675986]}, "properties": {"name": "Gamle Siebenbrüder gruve"}}, {"type": "Feature", "geometry": {"type": "Point", "coordinates": [9.579593, 59.674853]}, "properties": {"name": "Sachsen skjerp"}}, {"type": "Feature", "geometry": {"type": "Point", "coordinates": [9.57853, 59.673752]}, "properties": {"name": "Sachsen Stolls 1. lichtloch"}}, {"type": "Feature", "geometry": {"type": "Point", "coordinates": [9.57847, 59.673196]}, "properties": {"name": "Sachsen Stolls 2. lichtloch"}}, {"type": "Feature", "geometry": {"type": "Point", "coordinates": [9.578654, 59.671848]}, "properties": {"name": "Haus Sachsen gruve"}}, {"type": "Feature", "geometry": {"type": "Point", "coordinates": [9.59232, 59.662731]}, "properties": {"name": "Else stolls lichtloch"}}, {"type": "Feature", "geometry": {"type": "Point", "coordinates": [9.597649, 59.635848]}, "properties": {"name": "Gabe Gottes gruve"}}, {"type": "Feature", "geometry": {"type": "Point", "coordinates": [9.59831, 59.634716]}, "properties": {"name": "Gnade Gottes gruves stoll"}}, {"type": "Feature", "geometry": {"type": "Point", "coordinates": [9.593988, 59.650911]}, "properties": {"name": "Junge Sofia skjerp"}}, {"type": "Feature", "geometry": {"type": "Point", "coordinates": [9.582331, 59.667419]}, "properties": {"name": "Østre Morgenstjerne gruve"}}, {"type": "Feature", "geometry": {"type": "Point", "coordinates": [9.58147, 59.667446]}, "properties": {"name": "Vestre Morgenstjerne gruve"}}, {"type": "Feature", "geometry": {"type": "Point", "coordinates": [9.583559, 59.664]}, "properties": {"name": "Vestre Haus Oldenburg gruve"}}, {"type": "Feature", "geometry": {"type": "Point", "coordinates": [9.584571, 59.664185]}, "properties": {"name": "Østre Haus Oldenburg gruves stoll"}}, {"type": "Feature", "geometry": {"type": "Point", "coordinates": [9.584268, 59.664192]}, "properties": {"name": "Østre Haus Oldenburg gruve"}}, {"type": "Feature", "geometry": {"type": "Point", "coordinates": [9.579717, 59.66576]}, "properties": {"name": "Louise gruve"}}, {"type": "Feature", "geometry": {"type": "Point", "coordinates": [9.581675, 59.662803]}, "properties": {"name": "Granatskjerpet"}}, {"type": "Feature", "geometry": {"type": "Point", "coordinates": [9.527569, 59.657237]}, "properties": {"name": "Jonsknutegruve nr. 2"}}, {"type": "Feature", "geometry": {"type": "Point", "coordinates": [9.527656, 59.657323]}, "properties": {"name": "Jonsknutegruve nr. 1"}}]}