{"type": "FeatureCollection", "features": [{"type": "Feature", "properties": {"name": "Skiheisen (Kongsberg skisenter)", "type": "chair_lift"}, "geometry": {"type": "LineString", "coordinates": [[9.620585, 59.662835], [9.619606, 59.662641], [9.617549, 59.662232], [9.615272, 59.66178], [9.613519, 59.661431], [9.612721, 59.661272], [9.610625, 59.660856], [9.608635, 59.66046], [9.607992, 59.660332], [9.604907, 59.659719], [9.60159, 59.65906], [9.598484, 59.658443], [9.598083, 59.658363], [9.595962, 59.657941], [9.595791, 59.657907], [9.59546, 59.657842], [9.595453, 59.65784]]}}]}