{"type": "FeatureCollection", "features": [{"type": "Feature", "geometry": {"type": "Point", "coordinates": [9.605197, 59.621548]}, "properties": {"name": "Parkering", "sub": "Ukjent pris"}}, {"type": "Feature", "geometry": {"type": "Point", "coordinates": [9.608555, 59.600107]}, "properties": {"name": "Kisgruveveien parking", "sub": "Ukjent pris"}}, {"type": "Feature", "geometry": {"type": "Point", "coordinates": [9.616643, 59.719251]}, "properties": {"name": "Parkering", "sub": "Gratis"}}, {"type": "Feature", "geometry": {"type": "Point", "coordinates": [9.633703, 59.680313]}, "properties": {"name": "Parkering", "sub": "Ukjent pris"}}, {"type": "Feature", "geometry": {"type": "Point", "coordinates": [9.633978, 59.687924]}, "properties": {"name": "Parkering", "sub": "Ukjent pris"}}, {"type": "Feature", "geometry": {"type": "Point", "coordinates": [9.629507, 59.680166]}, "properties": {"name": "Parkering", "sub": "Ukjent pris"}}, {"type": "Feature", "geometry": {"type": "Point", "coordinates": [9.647216, 59.685808]}, "properties": {"name": "Parkering", "sub": "Ukjent pris"}}, {"type": "Feature", "geometry": {"type": "Point", "coordinates": [9.600747, 59.706227]}, "properties": {"name": "Parkering", "sub": "Ukjent pris"}}, {"type": "Feature", "geometry": {"type": "Point", "coordinates": [9.611598, 59.611706]}, "properties": {"name": "Parkering", "sub": "Ukjent pris"}}, {"type": "Feature", "geometry": {"type": "Point", "coordinates": [9.649726, 59.683306]}, "properties": {"name": "Parkering", "sub": "Gratis"}}, {"type": "Feature", "geometry": {"type": "Point", "coordinates": [9.623262, 59.662816]}, "properties": {"name": "Parkering", "sub": "Ukjent pris"}}, {"type": "Feature", "geometry": {"type": "Point", "coordinates": [9.598776, 59.628516]}, "properties": {"name": "Parkering", "sub": "Ukjent pris"}}, {"type": "Feature", "geometry": {"type": "Point", "coordinates": [9.601624, 59.62727]}, "properties": {"name": "Parkering", "sub": "Gratis"}}, {"type": "Feature", "geometry": {"type": "Point", "coordinates": [9.52246, 59.708602]}, "properties": {"name": "Parkering", "sub": "Ukjent pris"}}, {"type": "Feature", "geometry": {"type": "Point", "coordinates": [9.609083, 59.712313]}, "properties": {"name": "Parkering", "sub": "Ukjent pris"}}, {"type": "Feature", "geometry": {"type": "Point", "coordinates": [9.644714, 59.685147]}, "properties": {"name": "Parkering", "sub": "Ukjent pris"}}, {"type": "Feature", "geometry": {"type": "Point", "coordinates": [9.651009, 59.683706]}, "properties": {"name": "Parkering", "sub": "Gratis"}}, {"type": "Feature", "geometry": {"type": "Point", "coordinates": [9.627519, 59.683181]}, "properties": {"name": "Parkering", "sub": "Ukjent pris"}}, {"type": "Feature", "geometry": {"type": "Point", "coordinates": [9.628566, 59.685067]}, "properties": {"name": "Parkering", "sub": "Ukjent pris"}}, {"type": "Feature", "geometry": {"type": "Point", "coordinates": [9.627805, 59.682879]}, "properties": {"name": "Parkering", "sub": "Ukjent pris"}}, {"type": "Feature", "geometry": {"type": "Point", "coordinates": [9.62689, 59.683388]}, "properties": {"name": "Parkering", "sub": "Ukjent pris"}}, {"type": "Feature", "geometry": {"type": "Point", "coordinates": [9.628734, 59.685874]}, "properties": {"name": "Parkering", "sub": "Ukjent pris"}}, {"type": "Feature", "geometry": {"type": "Point", "coordinates": [9.629612, 59.685392]}, "properties": {"name": "Parkering", "sub": "Ukjent pris"}}, {"type": "Feature", "geometry": {"type": "Point", "coordinates": [9.637067, 59.682199]}, "properties": {"name": "Parkering", "sub": "Ukjent pris"}}, {"type": "Feature", "geometry": {"type": "Point", "coordinates": [9.631301, 59.680405]}, "properties": {"name": "Parkering", "sub": "Ukjent pris"}}, {"type": "Feature", "geometry": {"type": "Point", "coordinates": [9.617938, 59.668696]}, "properties": {"name": "Parkering", "sub": "Ukjent pris"}}, {"type": "Feature", "geometry": {"type": "Point", "coordinates": [9.632758, 59.685852]}, "properties": {"name": "Parkering", "sub": "Ukjent pris"}}, {"type": "Feature", "geometry": {"type": "Point", "coordinates": [9.579097, 59.665554]}, "properties": {"name": "Parkering", "sub": "Ukjent pris"}}, {"type": "Feature", "geometry": {"type": "Point", "coordinates": [9.578245, 59.665497]}, "properties": {"name": "Parkering", "sub": "Ukjent pris"}}, {"type": "Feature", "geometry": {"type": "Point", "coordinates": [9.596654, 59.638477]}, "properties": {"name": "Parkering", "sub": "Ukjent pris"}}, {"type": "Feature", "geometry": {"type": "Point", "coordinates": [9.602458, 59.630502]}, "properties": {"name": "Parkering", "sub": "Ukjent pris"}}, {"type": "Feature", "geometry": {"type": "Point", "coordinates": [9.625078, 59.626024]}, "properties": {"name": "Parkering", "sub": "Ukjent pris"}}, {"type": "Feature", "geometry": {"type": "Point", "coordinates": [9.624678, 59.625887]}, "properties": {"name": "Parkering", "sub": "Ukjent pris"}}, {"type": "Feature", "geometry": {"type": "Point", "coordinates": [9.625575, 59.625573]}, "properties": {"name": "Parkering", "sub": "Ukjent pris"}}, {"type": "Feature", "geometry": {"type": "Point", "coordinates": [9.625075, 59.625692]}, "properties": {"name": "Parkering", "sub": "Gratis"}}, {"type": "Feature", "geometry": {"type": "Point", "coordinates": [9.651955, 59.683741]}, "properties": {"name": "Parkering", "sub": "Ukjent pris"}}, {"type": "Feature", "geometry": {"type": "Point", "coordinates": [9.627142, 59.6794]}, "properties": {"name": "Parkering", "sub": "Ukjent pris"}}, {"type": "Feature", "geometry": {"type": "Point", "coordinates": [9.647162, 59.683864]}, "properties": {"name": "Parkering", "sub": "Ukjent pris"}}, {"type": "Feature", "geometry": {"type": "Point", "coordinates": [9.683607, 59.682131]}, "properties": {"name": "Kjennerudvannet", "sub": "Ukjent pris"}}, {"type": "Feature", "geometry": {"type": "Point", "coordinates": [9.647559, 59.68115]}, "properties": {"name": "Parkering", "sub": "Ukjent pris"}}, {"type": "Feature", "geometry": {"type": "Point", "coordinates": [9.647745, 59.684549]}, "properties": {"name": "Parkering", "sub": "Ukjent pris"}}, {"type": "Feature", "geometry": {"type": "Point", "coordinates": [9.638198, 59.688598]}, "properties": {"name": "Parkering", "sub": "Gratis"}}, {"type": "Feature", "geometry": {"type": "Point", "coordinates": [9.707619, 59.680352]}, "properties": {"name": "Parkering", "sub": "Ukjent pris"}}, {"type": "Feature", "geometry": {"type": "Point", "coordinates": [9.62281, 59.663572]}, "properties": {"name": "Parkering", "sub": "Ukjent pris"}}, {"type": "Feature", "geometry": {"type": "Point", "coordinates": [9.621036, 59.66446]}, "properties": {"name": "Parkering", "sub": "Ukjent pris"}}, {"type": "Feature", "geometry": {"type": "Point", "coordinates": [9.619352, 59.666599]}, "properties": {"name": "Parkering", "sub": "Ukjent pris"}}, {"type": "Feature", "geometry": {"type": "Point", "coordinates": [9.619564, 59.665656]}, "properties": {"name": "Parkering", "sub": "Ukjent pris"}}, {"type": "Feature", "geometry": {"type": "Point", "coordinates": [9.650118, 59.685385]}, "properties": {"name": "Parkering", "sub": "Ukjent pris"}}, {"type": "Feature", "geometry": {"type": "Point", "coordinates": [9.630596, 59.681736]}, "properties": {"name": "Parkering", "sub": "Gratis"}}, {"type": "Feature", "geometry": {"type": "Point", "coordinates": [9.65156, 59.683682]}, "properties": {"name": "Parkering", "sub": "Ukjent pris"}}, {"type": "Feature", "geometry": {"type": "Point", "coordinates": [9.650697, 59.684528]}, "properties": {"name": "Parkering", "sub": "Ukjent pris"}}, {"type": "Feature", "geometry": {"type": "Point", "coordinates": [9.637906, 59.682155]}, "properties": {"name": "Parkering", "sub": "Ukjent pris"}}, {"type": "Feature", "geometry": {"type": "Point", "coordinates": [9.601289, 59.630647]}, "properties": {"name": "Parkering", "sub": "Ukjent pris"}}, {"type": "Feature", "geometry": {"type": "Point", "coordinates": [9.620938, 59.665472]}, "properties": {"name": "Parkering", "sub": "Ukjent pris"}}]}