{"type": "FeatureCollection", "features": [{"type": "Feature", "geometry": {"type": "Point", "coordinates": [9.623395, 59.674094]}, "properties": {"name": "Beckerkjøkkenet"}}, {"type": "Feature", "geometry": {"type": "Point", "coordinates": [9.592089, 59.664687]}, "properties": {"name": "Bord og benk"}}, {"type": "Feature", "geometry": {"type": "Point", "coordinates": [9.605375, 59.666958]}, "properties": {"name": "Bord og benk"}}, {"type": "Feature", "geometry": {"type": "Point", "coordinates": [9.652895, 59.667376]}, "properties": {"name": "Rasteplass"}}, {"type": "Feature", "geometry": {"type": "Point", "coordinates": [9.645253, 59.667881]}, "properties": {"name": "Bord og benk"}}, {"type": "Feature", "geometry": {"type": "Point", "coordinates": [9.604611, 59.677696]}, "properties": {"name": "Bord og benk"}}, {"type": "Feature", "geometry": {"type": "Point", "coordinates": [9.542527, 59.673987]}, "properties": {"name": "Bord og benk"}}, {"type": "Feature", "geometry": {"type": "Point", "coordinates": [9.541413, 59.676564]}, "properties": {"name": "Bord og benk"}}, {"type": "Feature", "geometry": {"type": "Point", "coordinates": [9.606995, 59.653503]}, "properties": {"name": "Bord og benk"}}, {"type": "Feature", "geometry": {"type": "Point", "coordinates": [9.647011, 59.660443]}, "properties": {"name": "Bord og benk"}}, {"type": "Feature", "geometry": {"type": "Point", "coordinates": [9.644889, 59.665439]}, "properties": {"name": "Bord og benk"}}, {"type": "Feature", "geometry": {"type": "Point", "coordinates": [9.579521, 59.657903]}, "properties": {"name": "Bord og benk"}}, {"type": "Feature", "geometry": {"type": "Point", "coordinates": [9.592743, 59.690899]}, "properties": {"name": "Bord og benk"}}, {"type": "Feature", "geometry": {"type": "Point", "coordinates": [9.598488, 59.627638]}, "properties": {"name": "Bord og benk"}}, {"type": "Feature", "geometry": {"type": "Point", "coordinates": [9.599848, 59.627269]}, "properties": {"name": "Bord og benk"}}, {"type": "Feature", "geometry": {"type": "Point", "coordinates": [9.60086, 59.627476]}, "properties": {"name": "Bord og benk"}}, {"type": "Feature", "geometry": {"type": "Point", "coordinates": [9.599697, 59.627311]}, "properties": {"name": "Bord og benk"}}, {"type": "Feature", "geometry": {"type": "Point", "coordinates": [9.598471, 59.628193]}, "properties": {"name": "Bord og benk"}}, {"type": "Feature", "geometry": {"type": "Point", "coordinates": [9.600661, 59.627638]}, "properties": {"name": "Bord og benk"}}, {"type": "Feature", "geometry": {"type": "Point", "coordinates": [9.599732, 59.627299]}, "properties": {"name": "Bord og benk"}}, {"type": "Feature", "geometry": {"type": "Point", "coordinates": [9.600125, 59.627754]}, "properties": {"name": "Bord og benk"}}, {"type": "Feature", "geometry": {"type": "Point", "coordinates": [9.600722, 59.627597]}, "properties": {"name": "Bord og benk"}}, {"type": "Feature", "geometry": {"type": "Point", "coordinates": [9.598852, 59.630228]}, "properties": {"name": "Bord og benk"}}, {"type": "Feature", "geometry": {"type": "Point", "coordinates": [9.59878, 59.630024]}, "properties": {"name": "Bord og benk"}}, {"type": "Feature", "geometry": {"type": "Point", "coordinates": [9.599058, 59.630059]}, "properties": {"name": "Bord og benk"}}, {"type": "Feature", "geometry": {"type": "Point", "coordinates": [9.598846, 59.630064]}, "properties": {"name": "Bord og benk"}}, {"type": "Feature", "geometry": {"type": "Point", "coordinates": [9.599014, 59.630047]}, "properties": {"name": "Bord og benk"}}, {"type": "Feature", "geometry": {"type": "Point", "coordinates": [9.598785, 59.630152]}, "properties": {"name": "Bord og benk"}}, {"type": "Feature", "geometry": {"type": "Point", "coordinates": [9.59885, 59.629907]}, "properties": {"name": "Bord og benk"}}, {"type": "Feature", "geometry": {"type": "Point", "coordinates": [9.680428, 59.651319]}, "properties": {"name": "Bord og benk"}}, {"type": "Feature", "geometry": {"type": "Point", "coordinates": [9.593067, 59.654534]}, "properties": {"name": "Bord og benk"}}, {"type": "Feature", "geometry": {"type": "Point", "coordinates": [9.592971, 59.656364]}, "properties": {"name": "Bord og benk"}}, {"type": "Feature", "geometry": {"type": "Point", "coordinates": [9.596187, 59.6572]}, "properties": {"name": "Bord og benk"}}, {"type": "Feature", "geometry": {"type": "Point", "coordinates": [9.591828, 59.664124]}, "properties": {"name": "Bord og benk"}}, {"type": "Feature", "geometry": {"type": "Point", "coordinates": [9.587921, 59.662838]}, "properties": {"name": "Bord og benk"}}, {"type": "Feature", "geometry": {"type": "Point", "coordinates": [9.576743, 59.671185]}, "properties": {"name": "Bord og benk"}}, {"type": "Feature", "geometry": {"type": "Point", "coordinates": [9.602067, 59.673152]}, "properties": {"name": "Bord og benk"}}, {"type": "Feature", "geometry": {"type": "Point", "coordinates": [9.616169, 59.676425]}, "properties": {"name": "Bord og benk"}}, {"type": "Feature", "geometry": {"type": "Point", "coordinates": [9.598451, 59.628169]}, "properties": {"name": "Bord og benk"}}, {"type": "Feature", "geometry": {"type": "Point", "coordinates": [9.598327, 59.628108]}, "properties": {"name": "Bord og benk"}}, {"type": "Feature", "geometry": {"type": "Point", "coordinates": [9.59832, 59.628089]}, "properties": {"name": "Bord og benk"}}, {"type": "Feature", "geometry": {"type": "Point", "coordinates": [9.598316, 59.62807]}, "properties": {"name": "Bord og benk"}}, {"type": "Feature", "geometry": {"type": "Point", "coordinates": [9.651395, 59.665039]}, "properties": {"name": "Bord og benk"}}, {"type": "Feature", "geometry": {"type": "Point", "coordinates": [9.643698, 59.665809]}, "properties": {"name": "Bord og benk"}}, {"type": "Feature", "geometry": {"type": "Point", "coordinates": [9.64352, 59.665993]}, "properties": {"name": "Bord og benk"}}, {"type": "Feature", "geometry": {"type": "Point", "coordinates": [9.643609, 59.666213]}, "properties": {"name": "Bord og benk"}}, {"type": "Feature", "geometry": {"type": "Point", "coordinates": [9.643794, 59.66623]}, "properties": {"name": "Bord og benk"}}, {"type": "Feature", "geometry": {"type": "Point", "coordinates": [9.644854, 59.665309]}, "properties": {"name": "Bord og benk"}}, {"type": "Feature", "geometry": {"type": "Point", "coordinates": [9.644854, 59.665288]}, "properties": {"name": "Bord og benk"}}, {"type": "Feature", "geometry": {"type": "Point", "coordinates": [9.599459, 59.628034]}, "properties": {"name": "Rasteplass"}}, {"type": "Feature", "geometry": {"type": "Point", "coordinates": [9.599593, 59.627358]}, "properties": {"name": "Rasteplass"}}, {"type": "Feature", "geometry": {"type": "Point", "coordinates": [9.648405, 59.667034]}, "properties": {"name": "Rasteplass"}}, {"type": "Feature", "geometry": {"type": "Point", "coordinates": [9.651253, 59.665091]}, "properties": {"name": "Rasteplass"}}, {"type": "Feature", "geometry": {"type": "Point", "coordinates": [9.652836, 59.667396]}, "properties": {"name": "Bord og benk"}}, {"type": "Feature", "geometry": {"type": "Point", "coordinates": [9.652961, 59.667371]}, "properties": {"name": "Bord og benk"}}, {"type": "Feature", "geometry": {"type": "Point", "coordinates": [9.653193, 59.666935]}, "properties": {"name": "Bord og benk"}}, {"type": "Feature", "geometry": {"type": "Point", "coordinates": [9.616859, 59.674437]}, "properties": {"name": "Bord og benk"}}, {"type": "Feature", "geometry": {"type": "Point", "coordinates": [9.618102, 59.675735]}, "properties": {"name": "Bord og benk"}}, {"type": "Feature", "geometry": {"type": "Point", "coordinates": [9.618138, 59.67496]}, "properties": {"name": "Bord og benk"}}, {"type": "Feature", "geometry": {"type": "Point", "coordinates": [9.64606, 59.687285]}, "properties": {"name": "Bord og benk"}}, {"type": "Feature", "geometry": {"type": "Point", "coordinates": [9.646131, 59.68728]}, "properties": {"name": "Bord og benk"}}, {"type": "Feature", "geometry": {"type": "Point", "coordinates": [9.660207, 59.644785]}, "properties": {"name": "Bord og benk"}}, {"type": "Feature", "geometry": {"type": "Point", "coordinates": [9.650985, 59.665804]}, "properties": {"name": "Bord og benk"}}, {"type": "Feature", "geometry": {"type": "Point", "coordinates": [9.651012, 59.665778]}, "properties": {"name": "Bord og benk"}}, {"type": "Feature", "geometry": {"type": "Point", "coordinates": [9.651022, 59.665841]}, "properties": {"name": "Bord og benk"}}, {"type": "Feature", "geometry": {"type": "Point", "coordinates": [9.651038, 59.665812]}, "properties": {"name": "Bord og benk"}}, {"type": "Feature", "geometry": {"type": "Point", "coordinates": [9.646987, 59.640167]}, "properties": {"name": "Bord og benk"}}, {"type": "Feature", "geometry": {"type": "Point", "coordinates": [9.657285, 59.649675]}, "properties": {"name": "Bord og benk"}}, {"type": "Feature", "geometry": {"type": "Point", "coordinates": [9.645832, 59.673173]}, "properties": {"name": "Bord og benk"}}, {"type": "Feature", "geometry": {"type": "Point", "coordinates": [9.671214, 59.643708]}, "properties": {"name": "Bord og benk"}}, {"type": "Feature", "geometry": {"type": "Point", "coordinates": [9.661116, 59.657016]}, "properties": {"name": "Bord og benk"}}, {"type": "Feature", "geometry": {"type": "Point", "coordinates": [9.663129, 59.654997]}, "properties": {"name": "Rasteplass"}}, {"type": "Feature", "geometry": {"type": "Point", "coordinates": [9.66201, 59.655191]}, "properties": {"name": "Rasteplass"}}, {"type": "Feature", "geometry": {"type": "Point", "coordinates": [9.662288, 59.651427]}, "properties": {"name": "Bord og benk"}}, {"type": "Feature", "geometry": {"type": "Point", "coordinates": [9.651389, 59.671574]}, "properties": {"name": "Bord og benk"}}, {"type": "Feature", "geometry": {"type": "Point", "coordinates": [9.646937, 59.670564]}, "properties": {"name": "Bord og benk"}}, {"type": "Feature", "geometry": {"type": "Point", "coordinates": [9.642478, 59.671165]}, "properties": {"name": "Bord og benk"}}, {"type": "Feature", "geometry": {"type": "Point", "coordinates": [9.636617, 59.658041]}, "properties": {"name": "Bord og benk"}}, {"type": "Feature", "geometry": {"type": "Point", "coordinates": [9.66293, 59.654379]}, "properties": {"name": "Bord og benk"}}, {"type": "Feature", "geometry": {"type": "Point", "coordinates": [9.639669, 59.671786]}, "properties": {"name": "Bord og benk"}}, {"type": "Feature", "geometry": {"type": "Point", "coordinates": [9.676559, 59.663645]}, "properties": {"name": "Bord og benk"}}, {"type": "Feature", "geometry": {"type": "Point", "coordinates": [9.641495, 59.680485]}, "properties": {"name": "Bord og benk"}}, {"type": "Feature", "geometry": {"type": "Point", "coordinates": [9.67456, 59.660387]}, "properties": {"name": "Bord og benk"}}, {"type": "Feature", "geometry": {"type": "Point", "coordinates": [9.674514, 59.660651]}, "properties": {"name": "Bord og benk"}}, {"type": "Feature", "geometry": {"type": "Point", "coordinates": [9.674481, 59.660413]}, "properties": {"name": "Bord og benk"}}, {"type": "Feature", "geometry": {"type": "Point", "coordinates": [9.67452, 59.660378]}, "properties": {"name": "Bord og benk"}}, {"type": "Feature", "geometry": {"type": "Point", "coordinates": [9.653645, 59.668782]}, "properties": {"name": "Bord og benk"}}, {"type": "Feature", "geometry": {"type": "Point", "coordinates": [9.653579, 59.668777]}, "properties": {"name": "Bord og benk"}}, {"type": "Feature", "geometry": {"type": "Point", "coordinates": [9.531922, 59.680765]}, "properties": {"name": "Bord og benk"}}, {"type": "Feature", "geometry": {"type": "Point", "coordinates": [9.538635, 59.679296]}, "properties": {"name": "Bord og benk"}}, {"type": "Feature", "geometry": {"type": "Point", "coordinates": [9.534776, 59.680096]}, "properties": {"name": "Rasteplass"}}, {"type": "Feature", "geometry": {"type": "Point", "coordinates": [9.688436, 59.654998]}, "properties": {"name": "Bord og benk"}}, {"type": "Feature", "geometry": {"type": "Point", "coordinates": [9.60806, 59.668173]}, "properties": {"name": "Rasteplass"}}, {"type": "Feature", "geometry": {"type": "Point", "coordinates": [9.606568, 59.669537]}, "properties": {"name": "Bord og benk"}}, {"type": "Feature", "geometry": {"type": "Point", "coordinates": [9.605514, 59.671044]}, "properties": {"name": "Bord og benk"}}, {"type": "Feature", "geometry": {"type": "Point", "coordinates": [9.605591, 59.671087]}, "properties": {"name": "Bord og benk"}}, {"type": "Feature", "geometry": {"type": "Point", "coordinates": [9.60564, 59.671058]}, "properties": {"name": "Bord og benk"}}, {"type": "Feature", "geometry": {"type": "Point", "coordinates": [9.605723, 59.671158]}, "properties": {"name": "Bord og benk"}}, {"type": "Feature", "geometry": {"type": "Point", "coordinates": [9.605772, 59.671079]}, "properties": {"name": "Bord og benk"}}, {"type": "Feature", "geometry": {"type": "Point", "coordinates": [9.602025, 59.672798]}, "properties": {"name": "Bord og benk"}}, {"type": "Feature", "geometry": {"type": "Point", "coordinates": [9.602125, 59.672818]}, "properties": {"name": "Bord og benk"}}, {"type": "Feature", "geometry": {"type": "Point", "coordinates": [9.607924, 59.675383]}, "properties": {"name": "Bord og benk"}}, {"type": "Feature", "geometry": {"type": "Point", "coordinates": [9.606016, 59.670409]}, "properties": {"name": "Bord og benk"}}, {"type": "Feature", "geometry": {"type": "Point", "coordinates": [9.599761, 59.677741]}, "properties": {"name": "Bord og benk"}}, {"type": "Feature", "geometry": {"type": "Point", "coordinates": [9.609639, 59.667329]}, "properties": {"name": "Bord og benk"}}, {"type": "Feature", "geometry": {"type": "Point", "coordinates": [9.608571, 59.667169]}, "properties": {"name": "Bord og benk"}}, {"type": "Feature", "geometry": {"type": "Point", "coordinates": [9.676639, 59.669775]}, "properties": {"name": "Bord og benk"}}, {"type": "Feature", "geometry": {"type": "Point", "coordinates": [9.699167, 59.665153]}, "properties": {"name": "Bord og benk"}}, {"type": "Feature", "geometry": {"type": "Point", "coordinates": [9.699195, 59.66513]}, "properties": {"name": "Bord og benk"}}, {"type": "Feature", "geometry": {"type": "Point", "coordinates": [9.699219, 59.665106]}, "properties": {"name": "Bord og benk"}}, {"type": "Feature", "geometry": {"type": "Point", "coordinates": [9.650267, 59.682801]}, "properties": {"name": "Bord og benk"}}, {"type": "Feature", "geometry": {"type": "Point", "coordinates": [9.651284, 59.683959]}, "properties": {"name": "Bord og benk"}}, {"type": "Feature", "geometry": {"type": "Point", "coordinates": [9.652422, 59.681991]}, "properties": {"name": "Bord og benk"}}, {"type": "Feature", "geometry": {"type": "Point", "coordinates": [9.668856, 59.657358]}, "properties": {"name": "Bord og benk"}}, {"type": "Feature", "geometry": {"type": "Point", "coordinates": [9.686564, 59.647374]}, "properties": {"name": "Bord og benk"}}, {"type": "Feature", "geometry": {"type": "Point", "coordinates": [9.639884, 59.674818]}, "properties": {"name": "Bord og benk"}}, {"type": "Feature", "geometry": {"type": "Point", "coordinates": [9.639916, 59.674701]}, "properties": {"name": "Bord og benk"}}, {"type": "Feature", "geometry": {"type": "Point", "coordinates": [9.63989, 59.674791]}, "properties": {"name": "Bord og benk"}}, {"type": "Feature", "geometry": {"type": "Point", "coordinates": [9.6399, 59.674762]}, "properties": {"name": "Bord og benk"}}, {"type": "Feature", "geometry": {"type": "Point", "coordinates": [9.639906, 59.674733]}, "properties": {"name": "Bord og benk"}}, {"type": "Feature", "geometry": {"type": "Point", "coordinates": [9.638451, 59.678345]}, "properties": {"name": "Bord og benk"}}, {"type": "Feature", "geometry": {"type": "Point", "coordinates": [9.638529, 59.677735]}, "properties": {"name": "Bord og benk"}}, {"type": "Feature", "geometry": {"type": "Point", "coordinates": [9.638924, 59.688385]}, "properties": {"name": "Bord og benk"}}, {"type": "Feature", "geometry": {"type": "Point", "coordinates": [9.638847, 59.688409]}, "properties": {"name": "Bord og benk"}}, {"type": "Feature", "geometry": {"type": "Point", "coordinates": [9.639399, 59.688054]}, "properties": {"name": "Bord og benk"}}, {"type": "Feature", "geometry": {"type": "Point", "coordinates": [9.638184, 59.675943]}, "properties": {"name": "Bord og benk"}}, {"type": "Feature", "geometry": {"type": "Point", "coordinates": [9.638179, 59.675915]}, "properties": {"name": "Bord og benk"}}, {"type": "Feature", "geometry": {"type": "Point", "coordinates": [9.638303, 59.676696]}, "properties": {"name": "Bord og benk"}}, {"type": "Feature", "geometry": {"type": "Point", "coordinates": [9.638291, 59.676672]}, "properties": {"name": "Bord og benk"}}, {"type": "Feature", "geometry": {"type": "Point", "coordinates": [9.637918, 59.675672]}, "properties": {"name": "Bord og benk"}}, {"type": "Feature", "geometry": {"type": "Point", "coordinates": [9.637876, 59.675677]}, "properties": {"name": "Bord og benk"}}, {"type": "Feature", "geometry": {"type": "Point", "coordinates": [9.597839, 59.629919]}, "properties": {"name": "Bord og benk"}}, {"type": "Feature", "geometry": {"type": "Point", "coordinates": [9.597906, 59.629914]}, "properties": {"name": "Bord og benk"}}, {"type": "Feature", "geometry": {"type": "Point", "coordinates": [9.598836, 59.63025]}, "properties": {"name": "Bord og benk"}}, {"type": "Feature", "geometry": {"type": "Point", "coordinates": [9.598814, 59.630275]}, "properties": {"name": "Bord og benk"}}, {"type": "Feature", "geometry": {"type": "Point", "coordinates": [9.595576, 59.640127]}, "properties": {"name": "Bord og benk"}}, {"type": "Feature", "geometry": {"type": "Point", "coordinates": [9.595509, 59.64015]}, "properties": {"name": "Bord og benk"}}, {"type": "Feature", "geometry": {"type": "Point", "coordinates": [9.606017, 59.670319]}, "properties": {"name": "Bord og benk"}}, {"type": "Feature", "geometry": {"type": "Point", "coordinates": [9.598888, 59.706163]}, "properties": {"name": "Bord og benk"}}, {"type": "Feature", "geometry": {"type": "Point", "coordinates": [9.600255, 59.630191]}, "properties": {"name": "Bord og benk"}}, {"type": "Feature", "geometry": {"type": "Point", "coordinates": [9.599816, 59.628005]}, "properties": {"name": "Bord og benk"}}, {"type": "Feature", "geometry": {"type": "Point", "coordinates": [9.698825, 59.664876]}, "properties": {"name": "Bord og benk"}}, {"type": "Feature", "geometry": {"type": "Point", "coordinates": [9.698711, 59.664962]}, "properties": {"name": "Bord og benk"}}, {"type": "Feature", "geometry": {"type": "Point", "coordinates": [9.698798, 59.664868]}, "properties": {"name": "Bord og benk"}}, {"type": "Feature", "geometry": {"type": "Point", "coordinates": [9.645602, 59.638257]}, "properties": {"name": "Bord og benk"}}, {"type": "Feature", "geometry": {"type": "Point", "coordinates": [9.645268, 59.638356]}, "properties": {"name": "Bord og benk"}}, {"type": "Feature", "geometry": {"type": "Point", "coordinates": [9.598651, 59.629431]}, "properties": {"name": "Bord og benk"}}, {"type": "Feature", "geometry": {"type": "Point", "coordinates": [9.598478, 59.629316]}, "properties": {"name": "Bord og benk"}}, {"type": "Feature", "geometry": {"type": "Point", "coordinates": [9.598481, 59.629491]}, "properties": {"name": "Bord og benk"}}, {"type": "Feature", "geometry": {"type": "Point", "coordinates": [9.598506, 59.629406]}, "properties": {"name": "Bord og benk"}}, {"type": "Feature", "geometry": {"type": "Point", "coordinates": [9.598407, 59.629446]}, "properties": {"name": "Bord og benk"}}, {"type": "Feature", "geometry": {"type": "Point", "coordinates": [9.667516, 59.653246]}, "properties": {"name": "Bord og benk"}}, {"type": "Feature", "geometry": {"type": "Point", "coordinates": [9.673736, 59.653724]}, "properties": {"name": "Bord og benk"}}, {"type": "Feature", "geometry": {"type": "Point", "coordinates": [9.661465, 59.652999]}, "properties": {"name": "Bord og benk"}}, {"type": "Feature", "geometry": {"type": "Point", "coordinates": [9.660845, 59.647244]}, "properties": {"name": "Bord og benk"}}, {"type": "Feature", "geometry": {"type": "Point", "coordinates": [9.664081, 59.63989]}, "properties": {"name": "Bord og benk"}}, {"type": "Feature", "geometry": {"type": "Point", "coordinates": [9.663141, 59.640419]}, "properties": {"name": "Bord og benk"}}, {"type": "Feature", "geometry": {"type": "Point", "coordinates": [9.655407, 59.644892]}, "properties": {"name": "Bord og benk"}}, {"type": "Feature", "geometry": {"type": "Point", "coordinates": [9.67266, 59.637814]}, "properties": {"name": "Bord og benk"}}, {"type": "Feature", "geometry": {"type": "Point", "coordinates": [9.674194, 59.637467]}, "properties": {"name": "Bord og benk"}}, {"type": "Feature", "geometry": {"type": "Point", "coordinates": [9.601779, 59.62737]}, "properties": {"name": "Bord og benk"}}, {"type": "Feature", "geometry": {"type": "Point", "coordinates": [9.601841, 59.627325]}, "properties": {"name": "Bord og benk"}}, {"type": "Feature", "geometry": {"type": "Point", "coordinates": [9.60066, 59.630455]}, "properties": {"name": "Bord og benk"}}, {"type": "Feature", "geometry": {"type": "Point", "coordinates": [9.600718, 59.630454]}, "properties": {"name": "Bord og benk"}}, {"type": "Feature", "geometry": {"type": "Point", "coordinates": [9.600771, 59.630459]}, "properties": {"name": "Bord og benk"}}, {"type": "Feature", "geometry": {"type": "Point", "coordinates": [9.600824, 59.630466]}, "properties": {"name": "Bord og benk"}}, {"type": "Feature", "geometry": {"type": "Point", "coordinates": [9.600873, 59.630476]}, "properties": {"name": "Bord og benk"}}, {"type": "Feature", "geometry": {"type": "Point", "coordinates": [9.600833, 59.630506]}, "properties": {"name": "Bord og benk"}}, {"type": "Feature", "geometry": {"type": "Point", "coordinates": [9.600792, 59.630532]}, "properties": {"name": "Bord og benk"}}, {"type": "Feature", "geometry": {"type": "Point", "coordinates": [9.599006, 59.630328]}, "properties": {"name": "Bord og benk"}}]}