{"type":"FeatureCollection","crs":{"type":"name","properties":{"name":"EPSG:4326"}},"features":[{"type":"Feature","id":1,"geometry":{"type":"LineString","coordinates":[[9.60162527042946,59.6804944268226],[9.60155424484733,59.6804947523707],[9.60057716091332,59.6804722871353],[9.60008910104408,59.6804879894153],[9.60000031905823,59.6804883953053],[9.59986722631579,59.6804934936321],[9.59925422964156,59.6804738439899],[9.59778924698486,59.6804760345701],[9.59709722660787,59.6805061244255],[9.59646070826749,59.6806616775691],[9.59593199897235,59.6808885776641],[9.59547510605615,59.6811600494878],[9.59519673030448,59.6814845899057],[9.59482892704987,59.6817736152612],[9.59440752766123,59.6820449224124],[9.59378888382521,59.6822093614245],[9.59325077718574,59.6824093532479],[9.59308319230033,59.6824729701357],[9.59290664871056,59.6825321373086],[9.59264179251656,59.6826186428189],[9.59241268789764,59.6827184563332],[9.59225477099609,59.6828269281816],[9.59219412440748,59.6829125111818],[9.5918907284756,59.6833314465347],[9.59157488452596,59.6835483887792],[9.59155720562154,59.6835529584218],[9.5912929707254,59.6836753780881],[9.59095888709055,59.68386546119],[9.59016624164181,59.6842372045954],[9.58976111197617,59.6844276040107],[9.58935676619451,59.6846628982793],[9.58911192837161,59.6848795156359],[9.58904262710239,59.6849786058527],[9.58903382650427,59.6849831353093],[9.58899949090597,59.6850506388422],[9.58900098814395,59.6851359414359],[9.58902849334689,59.685185207613],[9.58906487810289,59.6852344339359],[9.58911910075417,59.6852880701557],[9.58920884157938,59.6853415469251],[9.58920884157938,59.6853415469251],[9.58928954549343,59.6853860842766],[9.58937024962175,59.6854306215778],[9.58950478326873,59.6855063468381],[9.58964788152533,59.6855640736337],[9.58980858159672,59.6856127412576],[9.58980858159672,59.6856127412576],[9.59006908911422,59.6857821890825],[9.59026791549247,59.6859788535569],[9.59045356676651,59.6864359948812],[9.59056281073806,59.6865881621969],[9.59072580913882,59.6867670273066],[9.5909612719203,59.6870263853403],[9.5910526019973,59.6871696529672],[9.59105497450271,59.687304341179],[9.59082311935454,59.6877543812235],[9.59064280085865,59.6881054097617],[9.5905570013211,59.6882764143512],[9.59050735430722,59.6884831759515],[9.59049528257432,59.6888065075155],[9.59042676740291,59.6889504944734],[9.59014938414574,59.6893378784613],[9.59013399204773,59.6894726464958],[9.59021151297971,59.6898404747969],[9.59007510713911,59.69016436519],[9.59002450696262,59.6903172512883],[9.59002956016717,59.6906045860509],[9.59003508722571,59.6909188584328],[9.59007329590109,59.6910713453424],[9.59012737170778,59.6911160018705],[9.59037730453218,59.6911867174851],[9.59096440246277,59.6912379554304],[9.59132027780617,59.6912722726178],[9.59143604825479,59.6912897109413],[9.59180128088029,59.6913509244346],[9.59206803038646,59.6913676815046],[9.59229893872548,59.6913666399021],[9.59247624336561,59.6913478799808],[9.59256426122195,59.6913025831063],[9.59270429612779,59.6911852119545],[9.59287604580287,59.6908521792784],[9.59307657752393,59.690640245288],[9.59327718610889,59.6904328005915],[9.59367799863708,59.6899954622555],[9.59402782227139,59.6896885622937],[9.59432419709573,59.6893729234342],[9.59470666545144,59.688904235115],[9.59484572774053,59.688732986427],[9.59536676057351,59.6880661096984],[9.59562758803712,59.6877506289571],[9.59583481145543,59.6874174311311],[9.59607404137299,59.6868865291402],[9.59625982567243,59.6863468894982],[9.59629414796432,59.6862793841004],[9.59643151555779,59.6860138520182],[9.59667423867644,59.6856804914162],[9.59709534562546,59.6853912186821],[9.5978487443026,59.684813073609],[9.59856644012822,59.6842261069622],[9.59896975433055,59.6839369091843],[9.59905718301261,59.683860180729],[9.59924099839844,59.6837111727102],[9.59931962702014,59.6836389742179],[9.59987648929466,59.6829988547845],[9.59999798404561,59.6828411505286],[9.60013691408023,59.682665406556],[9.60069374470518,59.6820252836099],[9.60116160897565,59.681376585746],[9.60148675940604,59.6806926204178],[9.60160799687765,59.6805214458317],[9.60162527042946,59.6804944268226],[9.60197234606969,59.6800438382113],[9.60261836116698,59.6794302373683],[9.60298591034869,59.6791322110232],[9.60326419131454,59.6788076541195],[9.60361381115718,59.6785007284122],[9.60384874290185,59.6782347392344],[9.60393566097222,59.6781310698869],[9.60417066840204,59.6778695697289],[9.60517412328053,59.677389009164],[9.60540201994024,59.6772263189818],[9.60556850233963,59.6771043215658],[9.60557729864037,59.6770997910021],[9.60587329220381,59.6767751466075],[9.60611601733261,59.6764507475371],[9.60660599669684,59.6760533657419],[9.60683339042698,59.6758637354538],[9.60698356821848,59.6758226311637],[9.60738100032237,59.6757085429775],[9.60799978281461,59.6755619984419],[9.60811331174521,59.6754582029392],[9.60829655296541,59.6752822445781],[9.60848565810868,59.6749401295586],[9.60880000919101,59.674651313026],[9.60923878971521,59.6743708980804],[9.60955263991368,59.6740551421319],[9.60991990573607,59.6737481171146],[9.61052966009,59.6731077045725],[9.6109135152381,59.6727377397567],[9.61117522238777,59.6724850822252],[9.61152306883601,59.6720883433575],[9.61173183821018,59.6718538912695],[9.61204564154501,59.6715381293128],[9.61241318469378,59.6712490556835],[9.6127448911606,59.6709421884016],[9.61312984500765,59.6706350714676],[9.61328878525551,59.6705894289088]]},"properties":{"FID":1,"ID":1,"SYMBOL":605.002,"ANGLE":0,"TEXT1":" ","Shape__Length":4439.8000904301762,"GlobalID":"75933ab6-d90c-4221-96b3-aace66508931"}}]}