{"type":"FeatureCollection","crs":{"type":"name","properties":{"name":"EPSG:4326"}},"features":[{"type":"Feature","id":1,"geometry":{"type":"LineString","coordinates":[[9.57896642542199,59.6722674478524],[9.57844751442425,59.6720317678632],[9.57796666484929,59.6719440871672],[9.57768031624869,59.671810648962],[9.57742677111773,59.6715199169018],[9.57726368641431,59.6713275657588],[9.57730706034386,59.6707526589429],[9.57716211716453,59.6705826776969],[9.5771440572488,59.6705647972516],[9.57712352797294,59.6704032486521],[9.577466814263,59.6697192630642],[9.57792292529541,59.6694029571769],[9.57797909021026,59.6685406354724],[9.57808311781958,59.6683964981563],[9.5781534224184,59.6683557786738],[9.57882103675184,59.6679532280062],[9.57944426103331,59.6675508699012],[9.57971635744692,59.6673745591475],[9.57994229412429,59.6670951824718],[9.58050484155796,59.6667783968435],[9.58073092296216,59.66650799806],[9.58122541026246,59.6663621294661],[9.58161588797515,59.6663603992251],[9.58211161438863,59.6662863613612],[9.58248138311013,59.666114101396],[9.5826731930497,59.6659156909039],[9.5825951883929,59.6655119395689],[9.582151786302,59.6655318674733],[9.58158274428705,59.6654715312871],[9.58153837299619,59.665471727951],[9.58101432568239,59.6654471096706],[9.5809521282497,59.6654428950964],[9.58092542783434,59.6654385233383],[9.58076491493115,59.6653943341541],[9.58056688761696,59.6652335714447],[9.58023013352227,59.6652620008847],[9.57957545676705,59.6653816336172],[9.57893914303372,59.6655371018322],[9.57912080928952,59.6657787587023],[9.57905438183236,59.6660439602767],[9.57903810380036,59.6661293415964],[9.57901318345059,59.6662282309676],[9.57882299963924,59.6670372650967],[9.5787603588749,59.6675224583742],[9.57882103675184,59.6679532280062]]},"properties":{"FID":1,"ID":1,"SYMBOL":605.001,"ANGLE":0,"TEXT1":" ","Shape__Length":1427.5338739166662,"GlobalID":"45049038-9526-4bbf-b231-f961433f3c2e"}},{"type":"Feature","id":2,"geometry":{"type":"LineString","coordinates":[[9.5825951883929,59.6655119395689],[9.58272720527327,59.664936636547],[9.58312699559287,59.6644499430571],[9.58348722301717,59.6637299454649],[9.58400809673633,59.6630631115275],[9.58435874527067,59.6628146015484],[9.58453410666129,59.6626925910214],[9.58468241951592,59.6620363934532],[9.58485613400637,59.661820100267],[9.58515149044953,59.6614550950919],[9.58559948334934,59.6611926775361],[9.58596573210352,59.6608228640325],[9.58595711705546,59.6603290047836],[9.58611385226908,59.6601576854548],[9.58616325048584,59.6599374557554],[9.58613586912331,59.659385310545],[9.58613500740455,59.6593359246125],[9.58583696463486,59.6590364271461],[9.58590614399889,59.658932848666],[9.58638016625069,59.6586388821139],[9.58675603524661,59.6583139229665],[9.58708070960429,59.6575985634045],[9.58748930063193,59.6571163062366],[9.58752706542394,59.6567389785906],[9.58842516207521,59.656344324885],[9.58877570803555,59.6560958030049],[9.58890445620804,59.6558482760137],[9.58912506791713,59.6557799357325],[9.58927502036886,59.6557298724255],[9.58938444505848,59.6553926320491],[9.58940155812894,59.6553566352893],[9.58996074563666,59.6548647134051],[9.5908042724621,59.6543984487024],[9.59127479066112,59.6539114103344],[9.59173642419201,59.65342441028],[9.59230797782335,59.6531344716802],[9.5926846784421,59.6528633710153],[9.5930830723112,59.6523137919257],[9.59315229485173,59.6522146992044],[9.59316670761628,59.6520260545392],[9.5932905008995,59.652003044761],[9.59353119886215,59.6520693057249],[9.59557301289598,59.6526482398323],[9.5963735946066,59.6532687110255],[9.5965935139284,59.6536628300154],[9.59690615645069,59.6537826374707],[9.59710283759993,59.653867052155],[9.59770815353666,59.653981035223],[9.59882648433554,59.6540073648853],[9.59846588379748,59.6541841200401],[9.59833625299177,59.6543777808707],[9.59802279954681,59.6547114693135],[9.5979096286924,59.6548332148498],[9.59725225291715,59.6552852081434],[9.59653891912016,59.6555847929735],[9.59606749820051,59.6560179745207],[9.59548721555125,59.6563169489193],[9.59516198059889,59.6564890442823],[9.59458184067345,59.6567969939296],[9.59367421843511,59.6571513231789],[9.59328646507027,59.6573012467953],[9.59222465660948,59.6579705619508],[9.59149316005638,59.6582522409749],[9.59095700221844,59.6585420160862],[9.58980693404779,59.6592431386938],[9.58950277486206,59.6596081942317],[9.58945127188694,59.6597072052283],[9.58938296839388,59.6598601714513],[9.58936821619415,59.660030857004],[9.58917647925658,59.660229277348],[9.58882502760534,59.6604284143034],[9.58868825403294,59.6607253667843],[9.58889290520525,59.6612632459822],[9.58907312368069,59.6614195862505],[9.58865437122068,59.6618300538673],[9.58865476463342,59.6618525019998],[9.58864449278561,59.6622790961247],[9.58838175116194,59.6624778337315],[9.58792300334809,59.662632549455],[9.58755063056015,59.6626521774341],[9.58687138050952,59.6623768387916],[9.58622967237098,59.6622180683545],[9.58585166490885,59.6619144382653],[9.58554887655368,59.6618529302461],[9.58485613400637,59.661820100267]]},"properties":{"FID":2,"ID":2,"SYMBOL":605.001,"ANGLE":0,"TEXT1":" ","Shape__Length":3509.6949176078328,"GlobalID":"0c23e708-8dbe-472b-b0c1-815f64236c80"}},{"type":"Feature","id":3,"geometry":{"type":"LineString","coordinates":[[9.60185554957107,59.6784818632763],[9.60178774791259,59.6786617731133],[9.60118387011977,59.6791494576984],[9.60010746752083,59.6800254383744],[9.60000189369726,59.6800798007044],[9.59925422964156,59.6804738439899],[9.59912289995188,59.6805777128728],[9.59888632623856,59.6812522881409],[9.5981264697041,59.682459064925],[9.59742991830619,59.6832345118503],[9.59686885318239,59.6836411615137],[9.59601324763453,59.6839638370908],[9.59543984850573,59.6841774679404],[9.59506851505859,59.6842689512467],[9.59433045383962,59.684712311875],[9.59390267689822,59.685127324943],[9.59381539201931,59.6852130291858],[9.59368434472266,59.685334851031],[9.59308371323872,59.6855171648386],[9.59296003433744,59.6855536433156],[9.59216325152636,59.6856919391654],[9.59129321000513,59.6857048411792],[9.58980858159672,59.6856127412576],[9.58661584797867,59.6863589122134],[9.5862090254638,59.6864550188379],[9.5850375179369,59.6864961650324],[9.58461019185858,59.6864352094233],[9.58422796973914,59.6864144613387],[9.58285012003092,59.6863352772839],[9.5826706535486,59.6862283149821],[9.58243416942801,59.6859060873327],[9.58214752788553,59.6857636801379],[9.58186337994051,59.6857649400065],[9.58126174300228,59.6858933244296],[9.58067894851705,59.6860844821651],[9.58039541901291,59.6861216557898],[9.58002200511161,59.6860963665691],[9.57959670936385,59.6861521246501],[9.57926144968628,59.6862793234062],[9.57905282889446,59.6865406614843],[9.57893439818231,59.6868824207274],[9.57891865226377,59.6869992290948],[9.57888607572822,59.6871699911826],[9.57896672155246,59.6877263903373],[9.57923742155164,59.6884884889747],[9.57939614025544,59.6889367842856],[9.57932835236087,59.6891256616703],[9.57880233692403,59.689523098214],[9.57751921242523,59.6903100017333],[9.57737959152109,59.69045429447],[9.57694543245192,59.6905145726891],[9.5761771128548,59.6907693845957],[9.57345576460849,59.6921193065198],[9.57292510896532,59.6922518320645],[9.5723236277758,59.6923981340904],[9.57225288295694,59.6924164022935],[9.57210327731853,59.6924978734745],[9.57199356006202,59.6928350979579],[9.57192641159842,59.6930643780452],[9.57183468365758,59.6934149938409],[9.57140651767965,59.6938299336094],[9.57103592873588,59.6939752244642],[9.56993775393622,59.6946894085694]]},"properties":{"FID":3,"ID":3,"SYMBOL":605.001,"ANGLE":0,"TEXT1":" ","Shape__Length":2982.1761064572197,"GlobalID":"94c67cb0-dfa8-493a-b931-ceb7661e2e01"}},{"type":"Feature","id":4,"geometry":{"type":"LineString","coordinates":[[9.55921606263675,59.7047929858891],[9.55949452967859,59.704441584458],[9.56042759319194,59.7039167725616],[9.56078192052703,59.7038524006815],[9.56172276909957,59.7037945000141],[9.56230771088162,59.703706687576],[9.56259133388867,59.7036650632549],[9.56287171561493,59.7034303847445],[9.56321758743659,59.702863169052],[9.56402904171124,59.702509470521],[9.56404665884819,59.7025004149614],[9.56441495409961,59.7022114760741],[9.5646305531967,59.7018244140762],[9.56470808903278,59.7016804024638],[9.56483095075382,59.7015900751505],[9.56529048864089,59.7014444193841],[9.56643719257808,59.7009545636662],[9.56809728288601,59.7003547188885],[9.56952158039949,59.6999983329612],[9.56963660719998,59.6999708943035],[9.5704505201417,59.6997698030593],[9.57063546628018,59.6996747105299],[9.57203573872765,59.6989547157887],[9.57297495863586,59.6982905980746],[9.57358947115671,59.6978613697762],[9.57359820043419,59.6978523517423],[9.57555817086161,59.6971433422753],[9.5773101340019,59.6967405347313],[9.57799817505659,59.6964591305267],[9.57831438287664,59.696251200288],[9.5783474353347,59.6961073762279],[9.57834604194209,59.6960265632274],[9.57828293669892,59.6959729617696],[9.57809346742942,59.6958031779865],[9.57751897170999,59.6954554900662],[9.5775099349208,59.6954465499127],[9.57713989419736,59.6951069407417],[9.57693614828178,59.6946229213831],[9.57689104619054,59.6940663654334],[9.57718128661885,59.6933826168498],[9.57727967688849,59.6929062491526],[9.5771298487612,59.6924579124969],[9.57728677821383,59.6922866042609],[9.57756572560752,59.6919800604334],[9.57803061691574,59.6911249228608],[9.5779717617793,59.6908019051983],[9.57775568068511,59.6906322380444],[9.57737959152109,59.69045429447]]},"properties":{"FID":4,"ID":4,"SYMBOL":605.001,"ANGLE":0,"TEXT1":" ","Shape__Length":2187.7444698260633,"GlobalID":"c430bf0a-9784-4834-881d-e017acb53143"}},{"type":"Feature","id":5,"geometry":{"type":"LineString","coordinates":[[9.64295436035573,59.6632185329781],[9.6424292744511,59.6631402850371],[9.64177961852442,59.6630446843861],[9.64156596803039,59.6630098092685],[9.64145742806759,59.6629025799529],[9.64002491390588,59.6603772152645],[9.63980084956701,59.6597946079067],[9.63946895551104,59.6591406857325],[9.63942474872741,59.6586829209555],[9.63942449235448,59.6586694521974],[9.6395064640065,59.6583143424354],[9.63970657445315,59.6576398663587],[9.63990034882441,59.65663316049],[9.64005747565339,59.6564976938446],[9.63881924655227,59.6553048981464]]},"properties":{"FID":5,"ID":5,"SYMBOL":605.001,"ANGLE":0,"TEXT1":" ","Shape__Length":977.39320644452675,"GlobalID":"730f90c9-6b69-4c31-96f4-4e916540ee41"}},{"type":"Feature","id":6,"geometry":{"type":"LineString","coordinates":[[9.63970657445316,59.6576398663587],[9.63938700817816,59.6576324442213],[9.63839708765827,59.6578348252128],[9.63749332127238,59.6579020800077],[9.63708571244496,59.6579310000677],[9.63661565730634,59.6579422618919],[9.63653580769865,59.6579426493438],[9.63628619618331,59.6578810001888],[9.63578459678978,59.6576319919314],[9.63541010046404,59.6575350262723],[9.63466348915546,59.6574668002814],[9.63427311865234,59.6574686882111],[9.63360036636202,59.6575527590989],[9.6332471756741,59.6576442644153],[9.63252591832019,59.6579800039017],[9.63180937511948,59.658567156627],[9.63158308325389,59.658801726184],[9.6314610636937,59.6589190535199],[9.63116479924028,59.6592078390829],[9.63103339816692,59.6592982711464],[9.63056001134634,59.6596058671125],[9.63018320495422,59.6598591174809],[9.62994903066478,59.660147601942],[9.62990559289778,59.6601972004755],[9.62959324111994,59.660575859535],[9.62957591608684,59.6605983926584],[9.62953214062057,59.6606300326938],[9.62924379238673,59.6608693857954],[9.62883882991854,59.6610419472784],[9.62848491752048,59.6610975230579],[9.62846717146886,59.6610976080655],[9.6280764225096,59.6610815192495],[9.62731049171068,59.6609325238071],[9.62686600459958,59.6608897483497],[9.62639021291155,59.6610716206256],[9.62600440187035,59.6613204117807],[9.6257238920714,59.6615058396859],[9.62479002017781,59.6618694897379],[9.62385612804568,59.6622331331556],[9.62368870183396,59.6622967890529],[9.62319537609096,59.6624922029158],[9.62304561089217,59.6625512841008],[9.62278182245581,59.6626827462792],[9.62248287082578,59.6628323347209],[9.62158342421291,59.6631419184172],[9.62073836462973,59.6635140984655],[9.62014415610579,59.6640152973282],[9.62010924112082,59.6640468922827],[9.62000042896648,59.6644021157583],[9.61986615260766,59.6648203192811],[9.61952235972548,59.6659085204775],[9.61948868445909,59.6660074592339],[9.6194113824427,59.6661470138355],[9.6191811281271,59.666655469315],[9.61907868949436,59.666875962103],[9.61899341949351,59.6670649438921],[9.61879699704523,59.6674834392302],[9.6183952082337,59.667835552423],[9.61802990223683,59.6682413723582],[9.61800369057642,59.6682639457459],[9.61791618042917,59.6683317076704],[9.61733893476951,59.6687968932977],[9.61726925462016,59.6688690608787],[9.61687696829603,59.669257044434],[9.6167375213514,59.6693968894661],[9.61638498420975,59.6695332454757],[9.61614708180632,59.6696286524466],[9.61568630702475,59.6696712250529],[9.61542070591775,59.6697083908493],[9.61508508844774,59.6697997641335],[9.61485778226488,59.6699894087528],[9.61465184054835,59.6703765122018],[9.61362720518304,59.6706507066074],[9.61332789589577,59.6707868053862],[9.61260241279817,59.6714561692976],[9.61250459104115,59.6715740535186],[9.61209766261775,59.6724137647894],[9.61201236218831,59.6727127127047],[9.61173568183222,59.6730392284842],[9.61110345913896,59.6734193324682],[9.61041649431689,59.6737188683373],[9.60866172726726,59.6748584934655],[9.60843866326596,59.6752860757823],[9.60812991495784,59.6758846739034],[9.60748081875255,59.6763187178956],[9.60692275060729,59.6768780570145],[9.60644050482358,59.6772125445165],[9.6062739439781,59.677330053431],[9.60622132850472,59.6773662162861],[9.60467104332988,59.6780468643279],[9.60393566097223,59.6781310698869],[9.60270409705186,59.6782714305181],[9.6021378629959,59.678381788938],[9.60185554957107,59.6784818632763],[9.60116486060647,59.6785838081871],[9.60079183675813,59.6785765363346],[9.60066626360295,59.6785052715349],[9.60023563936827,59.6782558031762],[9.60007118728164,59.6779961367496],[9.60007902142344,59.6779377312804],[9.60007878063997,59.677924262462],[9.60011754960957,59.6776097870695],[9.60012634678026,59.6776052568701],[9.60044023256938,59.6772850330839],[9.60083280239041,59.6768970987037],[9.6009848764752,59.6764653648732],[9.60119246010626,59.6761590958481],[9.60118651025034,59.6758268649641],[9.6008430785104,59.6754871996388],[9.60084131069536,59.6753884282802],[9.60163743694758,59.6747337344945],[9.60177745178172,59.6746208431336],[9.602166592969,59.6740443411746],[9.60217530840202,59.6740353212303],[9.60220121307591,59.6739947925725],[9.60228764208258,59.6738641866158],[9.60247792856237,59.6735849345981],[9.60255863439043,59.6731355663381],[9.60273261296492,59.6729372083761],[9.60303214574354,59.672810112926],[9.6032158025882,59.6726566096054],[9.60399398533775,59.6719974934175],[9.60455565948595,59.6716401986946],[9.60457316866339,59.6716266480922],[9.60578037681899,59.6706422651988],[9.60601264380737,59.6702326045307],[9.60607290827643,59.6701290566471],[9.60633414526886,59.6698494710042],[9.60640458070388,59.6698177156594],[9.60670366617448,59.6696681638023],[9.60711479954054,59.6693340036442],[9.60722855384109,59.6692436776561],[9.60805583205327,59.6688537083133],[9.6086367066487,59.6685816163625],[9.6094128210208,59.6683086152018],[9.60988668725448,59.6680100746632],[9.60999057611265,59.667865912272],[9.61012278506059,59.6673264995005],[9.60968946326007,59.666924415035],[9.60967138803365,59.6669065390822],[9.60956098124788,59.666691532768],[9.60951961603901,59.6663684460275],[9.60947743685116,59.6660004631912],[9.60953686052526,59.6653626092482],[9.60958831280692,59.6652635905359],[9.60969121646511,59.6650655530478],[9.60975960086408,59.6649215557232],[9.61038711005663,59.6642900399652],[9.61056823829899,59.6640018380708],[9.61074106118542,59.6637451044739],[9.61087049289405,59.6635424525071],[9.61151602959519,59.662928807092],[9.61173897329309,59.6625012189321],[9.61181629892035,59.662361668736],[9.61190208830386,59.6621996290734],[9.61211639452446,59.6617855504454],[9.61212420410862,59.6617271441527],[9.61213054091073,59.6615879249266],[9.61214550534673,59.6614351954756],[9.61210755830017,59.6613006728424],[9.61206016582832,59.6611347643346],[9.61204102899922,59.6610585237881],[9.61203166512877,59.6610316275331],[9.61169813015336,59.6607458236886],[9.61167118424869,59.6607279893595],[9.61157869451189,59.6605218810099],[9.61160457750656,59.6604813504475],[9.61169126249012,59.6603686965776],[9.61176899229585,59.6602515944148],[9.61210435997637,59.6601512504003],[9.61247611722231,59.6601001255393],[9.61256459949502,59.6600862424714],[9.61275824469648,59.660000028374],[9.61283744428575,59.6599637385228],[9.61302221535072,59.6598775654817],[9.61326688134441,59.6596698824631],[9.61335413250427,59.6595886547476],[9.61387024668593,59.6586972225289],[9.6142533266514,59.6582958201968],[9.61428807701642,59.658255247558],[9.61420560663064,59.6576270347418],[9.61408731444957,59.6574659487688],[9.61384202556443,59.6571527972163],[9.61386412957826,59.6569057441769],[9.61390176195325,59.6565373886409],[9.61391679827104,59.6563891484962],[9.61465406400758,59.6549803280736],[9.61482549514802,59.6546517551083],[9.61487477710953,59.6539510848717],[9.61487198146888,59.6533135185897],[9.61478245006907,59.6532690382564],[9.61469291890628,59.6532245578614],[9.6142294945502,59.6531099887104],[9.6134615114691,59.6528352027192],[9.61190522520849,59.652142032265],[9.6118516740702,59.6521243220743],[9.61121793543661,59.6519117567377],[9.61092340887883,59.6518143488638],[9.61054953827364,59.6517442496298],[9.61035454847633,59.6517541370434],[9.61023117556536,59.6517996109841],[9.60988759685826,59.6524208281292],[9.60963319560103,59.6525791604787],[9.60939620794713,59.6527194514529],[9.60927527247408,59.6528996129676],[9.60904723337998,59.6530443517238],[9.60865886422877,59.6531539141392],[9.60828677150524,59.653182580043],[9.60787227260907,59.6533192012354],[9.60715793969229,59.6535559890447],[9.60646648238634,59.6535861275289],[9.60586697296077,59.6537954374067],[9.60576221914316,59.6538902110041],[9.60569246387141,59.6539578829736],[9.60528730132984,59.6541213927612],[9.6048443867615,59.6541593555976],[9.6043461440868,59.6540808320724],[9.60424872222575,59.6540902608344],[9.60356692895746,59.6541652393835],[9.60328240447065,59.6541306282431],[9.60262683278399,59.6536891324017],[9.6024920754735,59.6535954615858],[9.60140522203108,59.6533445193827],[9.60135175483313,59.6533312945253],[9.60107659256989,59.6533235756477],[9.60099667309828,59.6533194518302],[9.60089014059645,59.653315449872],[9.6001825442889,59.6534354289552],[9.5999976151658,59.6535126047474],[9.59882648433554,59.6540073648853]]},"properties":{"FID":6,"ID":6,"SYMBOL":605.001,"ANGLE":0,"TEXT1":" ","Shape__Length":7861.01378526557,"GlobalID":"3bc258a1-3766-465d-9cfb-3b2b171ae52b"}},{"type":"Feature","id":7,"geometry":{"type":"LineString","coordinates":[[9.6434683528514,59.6599383115303],[9.64327253872682,59.6595642266826],[9.64336767348678,59.6593146947875],[9.64386213472048,59.6587240785086],[9.64400970150949,59.6580902635446],[9.64400445138797,59.657816399012],[9.64385492516488,59.6574220124837],[9.64360255182059,59.6572167105998],[9.64344087851511,59.6571142335326],[9.64315336624264,59.6569270631532],[9.64291986154018,59.6567800375304],[9.64250574552613,59.6564677659855],[9.64178991373522,59.6561524795363],[9.64156623512993,59.6560547935094],[9.64132515734174,59.6559751521848],[9.64088762016747,59.655829120261]]},"properties":{"FID":7,"ID":7,"SYMBOL":605.001,"ANGLE":0,"TEXT1":" ","Shape__Length":535.83409750074259,"GlobalID":"c4849671-9d8d-4ed2-b20e-1aa61a2c0d33"}},{"type":"Feature","id":8,"geometry":{"type":"LineString","coordinates":[[9.64402212760166,59.6624410158707],[9.64385956713939,59.6622936436506],[9.64367908947687,59.6621373791296],[9.64358743185455,59.6619851687024],[9.64349543101695,59.6618149998852],[9.64354577203831,59.6607371523614]]},"properties":{"FID":8,"ID":8,"SYMBOL":605.001,"ANGLE":0,"TEXT1":" ","Shape__Length":196.38416650944581,"GlobalID":"6bb80ca5-7ce7-4ad0-a56b-40d6f415cd8d"}},{"type":"Feature","id":9,"geometry":{"type":"LineString","coordinates":[[9.64327484039623,59.6632708421237],[9.64330938877549,59.6632212827225],[9.6434826452373,59.6630004230539],[9.64402212760166,59.6624410158707],[9.64412791905405,59.6624045765241],[9.64547701217011,59.6624159063463],[9.64595651812322,59.6624315064595],[9.64666828753407,59.6625267803092],[9.64684627374545,59.6625528429554],[9.64810906544435,59.6626902912831],[9.64795991073243,59.6632388083842],[9.64795134461419,59.6637147910002],[9.6479955014206,59.6641635731925],[9.64804173856337,59.6647201051206],[9.64808867040671,59.6653125535733],[9.64801534932407,59.666112135967],[9.64803353112747,59.6661344961776],[9.64868679136845,59.6668721184171],[9.65089812114496,59.6696898681806]]},"properties":{"FID":9,"ID":9,"SYMBOL":605.001,"ANGLE":0,"TEXT1":" ","Shape__Length":1148.8875383855034,"GlobalID":"0b042782-2959-4fb9-81f0-4d31b3ed97cd"}},{"type":"Feature","id":10,"geometry":{"type":"MultiLineString","coordinates":[[[9.63899949396192,59.655452190437],[9.63850140705284,59.6549203051276],[9.63900682844496,59.6553713346281]],[[9.52776326125721,59.6738168740182],[9.52788661515764,59.673758008555],[9.52802758042658,59.6736900922173],[9.52867492935936,59.6736470764284],[9.52904922800428,59.6737398569632],[9.52933731162123,59.6739946223808],[9.52938240251365,59.6740393399881],[9.5300142713602,59.6741400584263],[9.53036962012467,59.6741565826061],[9.53063613192419,59.6741689751091],[9.53083049500528,59.6741098197335],[9.53085698287408,59.6741007326913],[9.53099886669317,59.6740911787821],[9.53138908230661,59.6740671495722],[9.53174989422078,59.6738681302986],[9.53201491015297,59.6737862371069],[9.53224555758304,59.6737763219722],[9.53241485239645,59.6738160448059],[9.53277836293596,59.673787629842],[9.53318411639575,59.6736243437315],[9.5334064565273,59.6736503799092],[9.53342420951227,59.67365030775],[9.53403231012448,59.6739307015005],[9.5345182338093,59.6737850447984],[9.53455366842965,59.6737804105167],[9.53614477468573,59.6733563543208],[9.5378570160559,59.6727387143054],[9.53810439959151,59.6726658609105],[9.53861367469715,59.672318045262],[9.53903670165272,59.6721277302751],[9.53928436657437,59.6720728332897],[9.53971907731256,59.672057576273],[9.53979001362913,59.6720527945533],[9.54059730134422,59.6720225316999],[9.54095321142882,59.672074944504],[9.54108584592349,59.6720429680096],[9.54130695110751,59.6719926666591],[9.54169170219081,59.6716318826405],[9.54225497714762,59.6713332192569],[9.54294424549492,59.6711417911245],[9.54334948151457,59.6709515357021],[9.54388188189777,59.6709403502793],[9.54411177860698,59.670885517769],[9.54426848543446,59.6706962897357],[9.54470083538478,59.669989572565],[9.54480464621037,59.66982301319],[9.54532769513328,59.6692371460718],[9.545590890557,59.6690474737856],[9.54665168216719,59.6687826413458],[9.54691779150086,59.6687725525751],[9.54730815319352,59.6687619450791],[9.5475482955041,59.6687923729644],[9.5481441789268,59.6688662144619],[9.54867537079281,59.6687831751881],[9.54868417261593,59.668778648425],[9.54916870977988,59.6685566134635],[9.54950508280134,59.6685013257589],[9.55000355952473,59.6685890365639],[9.55039524265303,59.6686592336221],[9.55090385137061,59.6688232278458],[9.55106448894761,59.668876432868],[9.5516266507162,59.6690581592376],[9.55235604603821,59.669153870124],[9.55335481192035,59.669437019681],[9.55474455823585,59.669745449153],[9.55493996606399,59.6697536028452],[9.5550896608675,59.6696811303229],[9.55529231039048,59.669590473705],[9.55646326605576,59.6695495936776],[9.55678054616824,59.6694135489719],[9.55711348862416,59.6691517180472],[9.5574495562698,59.6690784514087],[9.55771581371355,59.669077320034],[9.55840942687741,59.6691551895454],[9.55954516164674,59.669132391691],[9.55973951927709,59.66907768322],[9.56017803863543,59.6687615144714],[9.56024439575711,59.6684828534115],[9.56040264879163,59.6683923783699],[9.56074757666514,59.668319065395],[9.56119855310946,59.6682183582147],[9.56190930554239,59.6682602161881],[9.56255146625941,59.6684460432744],[9.56301402390939,59.6685069189408],[9.56404262911791,59.6684486219713],[9.56487356273442,59.6682474891043],[9.56558235417731,59.6681725965159],[9.56753652222083,59.6682629383428],[9.56870604740839,59.6681411356566],[9.56882938455451,59.6680867214411],[9.56926491312607,59.6675999161792],[9.56962029290822,59.6665746611098],[9.56984798434632,59.6663940737114],[9.56998951945603,59.6663665191497],[9.57030976434002,59.6664100273198],[9.57087198839193,59.6665916712113],[9.57097014300264,59.6666226739221],[9.57170076277076,59.6667901115032],[9.5725723127629,59.6668940705683],[9.5731260655349,59.6670981916607],[9.57371363659966,59.6672033832307],[9.57405936723424,59.6671794212948],[9.57422775662037,59.6671652145872],[9.57435031334561,59.6670658988499],[9.57432626773224,59.6666978265176],[9.57475336202116,59.6662424693703],[9.57483177215169,59.6661568164363],[9.57456154442272,59.6659245214946],[9.57455847198567,59.6657449360961],[9.57456726951537,59.6657404076015],[9.57496315589662,59.6655366247327],[9.57510483693281,59.6655180439311],[9.57562123810395,59.665614558898],[9.5758170886397,59.6656496193405],[9.57597559429821,59.6655770841],[9.57611650475703,59.6655136058666],[9.57702191238273,59.665523097255],[9.57810480607788,59.6655318005336],[9.57893914303372,59.6655371018322],[9.57866347691622,59.6649905411093],[9.57867658367615,59.6647210848916],[9.57870403436059,59.6642540065447],[9.57901368942282,59.6626542094496],[9.57929206676487,59.662329702427],[9.57937909730622,59.6622305386765],[9.57978231406684,59.6619413990405],[9.57979804574817,59.6618245901448],[9.57951084688779,59.6616372800028],[9.57932858092755,59.6613597064159],[9.57941235615967,59.6610719779878],[9.57974194001676,59.6606305043343],[9.5800755468439,59.660422490826],[9.58016381084902,59.6603951606869],[9.58060497351345,59.6602495298342],[9.58115322783305,59.6601393429766],[9.58132913086829,59.660048764123],[9.58120258087646,59.6599146254615],[9.58058086469033,59.6598814583624],[9.58022316157454,59.6597214016073],[9.57979645623956,59.6591620408231],[9.57974221339556,59.6591039108168],[9.5793538785739,59.6587105082115],[9.57931451745296,59.6584861831203],[9.57943116521266,59.6559892396298],[9.57956087642747,59.655279249782],[9.57990721495998,59.6547838213614],[9.57990698248557,59.6547703524463],[9.58009966503773,59.6535976153947],[9.57948372985464,59.6528639806783],[9.5795863863439,59.6526435180265],[9.57999645645302,59.6517302390793],[9.58055192108828,59.65101836452],[9.58056632655721,59.6508252314597],[9.58059583514858,59.6504793720853],[9.58087161363626,59.6500111927721],[9.58087145842519,59.6500022134903],[9.58079646207214,59.649769066378],[9.58067010831513,59.6496439062126],[9.58040292032913,59.6495822289501],[9.58008421800871,59.649619558631],[9.57935450352309,59.6499999423255],[9.57904683238362,59.6501629402919],[9.5789061463688,59.6502354009999],[9.57862214411111,59.6502276741197],[9.57804026090954,59.6504367788377],[9.57735424039685,59.6507810388254],[9.57713980896287,59.6506921828064],[9.57764240481267,59.6499985131201],[9.57779851704839,59.649791286316],[9.57775562646716,59.6493604368094],[9.57775539490547,59.649346967878],[9.57785218498654,59.6487852935151],[9.57779418002836,59.6485071700124],[9.57786266793684,59.6483631888029],[9.57850480883407,59.6475342010115],[9.57869560920872,59.6472819201608],[9.57881599283972,59.647061379677],[9.57933151794333,59.6460937566428],[9.5793835718928,59.6460261769139],[9.5795745894275,59.6457873636842],[9.57981998002667,59.6456156596115],[9.58041842131339,59.6453436134721],[9.58146045184134,59.6450785787472],[9.58195228918881,59.6447980181045],[9.5828883330791,59.644560382088],[9.58331760281281,59.6442531543584],[9.58346649948722,59.6441447323099],[9.58352819014435,59.6441220079087],[9.5853003841196,59.6435169425301],[9.58573958215047,59.6432725222887],[9.58597819202878,59.6427146975064],[9.58624707838921,59.6423677665078],[9.5864465812529,59.6421109450356],[9.58645084536675,59.6413386472789],[9.58680007459084,59.6410227856878],[9.58689456343981,59.6408472531497],[9.58702326774655,59.6405997274966],[9.58703661273615,59.640348228129],[9.5870364559384,59.6403392488437],[9.58740026653177,59.6398437205306],[9.58829312210042,59.6391751991863],[9.58820224962069,59.639049886941],[9.58816599507376,59.6390051495955],[9.58877773979797,59.6384905450784],[9.59100454769422,59.6375376293294],[9.59106614220993,59.6375104117451],[9.59154242499252,59.6373645842821],[9.59162951316343,59.6372743914666],[9.59162698509433,59.6371307229517],[9.5914483862229,59.637059688614],[9.59116528196742,59.6370968851212],[9.59028286296489,59.6373433198935],[9.58994497848276,59.6372909603841],[9.58983794670258,59.637255521863],[9.58962112812712,59.63702750706],[9.58958495262016,59.6369872597353],[9.58950992544418,59.6367541171909],[9.58970168484637,59.6365646751439],[9.59105909299319,59.6361005842855],[9.59124244718788,59.6359381178033],[9.59147820826144,59.6357305147024],[9.59288875558781,59.6342604050521],[9.59308523003145,59.6338374565528],[9.59324734533852,59.633477523178],[9.59327330904376,59.6334414857059],[9.59352391887198,59.6330721715402],[9.59369980584222,59.6329905552837],[9.59407184653396,59.6329709102805],[9.59431833935802,59.6328710132829],[9.59447506349232,59.632708662797],[9.59444939586862,59.6322597789765],[9.59432210541068,59.632080755897],[9.59432186737392,59.6320672869697],[9.59435486921349,59.6319279473191],[9.59456478085428,59.6317653555924],[9.59487316176206,59.63165619686],[9.59523489129552,59.6315557752356],[9.59573711074122,59.6313783843369],[9.59574589644551,59.6313738544171],[9.59590228852936,59.6311935436425],[9.59592784985268,59.6311350574305],[9.59593631723546,59.6311125689308],[9.59598712129617,59.6309776379197],[9.59599582729678,59.6309686183413],[9.59607227128219,59.6307796907042],[9.59608586344452,59.63054614872],[9.59716934081271,59.6296521977812],[9.59742268347497,59.628941622888],[9.59741861628036,59.628712651138],[9.59741789854686,59.6286722443578],[9.59748546492658,59.6284833562411],[9.59783828810488,59.6283829678463],[9.59822752510302,59.6283362924318],[9.59944809586364,59.6281780575466],[9.59999568562485,59.628063302689],[9.60041965195001,59.6279760517487],[9.60090366096662,59.6277762740749],[9.60146864654714,59.6276434732647],[9.60183023285948,59.6275385438442],[9.60189171997881,59.6275068315372],[9.60204112571855,59.627434305454],[9.60211147662806,59.6274025523416],[9.60216337566681,59.6273304738602],[9.60221535486785,59.6272628849972],[9.60225855012545,59.6271998264697],[9.60230182561676,59.6271412575669],[9.60233623686302,59.6270827293719],[9.60237072839397,59.627028690807],[9.60240521981457,59.6269746522327],[9.60243971112482,59.626920613649],[9.60246533828698,59.626866615787],[9.60249982939084,59.626812577187],[9.60252545637518,59.6267585793127],[9.60255994727264,59.6267045406963],[9.60259435762724,59.6266460124311],[9.60262868742576,59.6265829945171],[9.60266301709631,59.6265199765937],[9.60270621056832,59.6264569179144],[9.60274916252195,59.6263803903022],[9.60278341130548,59.6263128827065],[9.60281782087442,59.6262543543804],[9.60284352739247,59.6262048460803],[9.60289518161558,59.6261192983829],[9.60295586035225,59.6260426891802],[9.60302548310084,59.6259705288205],[9.60312169689607,59.6258982461021],[9.60326190701368,59.6258078008418],[9.60334079500605,59.6257580477268],[9.60344611287167,59.6256991928985],[9.60356891611648,59.6256267874593],[9.60371830990267,59.6255542594631],[9.60388543038557,59.6254816496456],[9.60397342218672,59.6254453242412],[9.60407027744875,59.6254089579394],[9.60415826885986,59.6253726324112],[9.6042462600808,59.6253363068239],[9.60442224195219,59.6252636554726],[9.60458057657031,59.6251955752715],[9.60471240053006,59.6251321071667],[9.60479112335187,59.6250733739024],[9.60484325526151,59.6250147632656],[9.60490433125574,59.624960601352],[9.6049830533422,59.6249018679721],[9.60514251585788,59.624896642034],[9.60525830701862,59.6249275376102],[9.60536499247081,59.6249450050952],[9.60552453594682,59.6249442683306],[9.60567529672709,59.624948061957],[9.60582613839869,59.624956345048],[9.60595917220559,59.624960220261],[9.60609228693626,59.6249685849766],[9.60621653819861,59.6249769905409],[9.60634070859517,59.6249809063498],[9.60645609642711,59.6249893526785],[9.60658026689579,59.6249932682604],[9.60670443739264,59.6249971837247],[9.60682852692535,59.6249966094343],[9.60695261645309,59.6249960350264],[9.60708548848642,59.6249909298223],[9.60722714296747,59.6249812937952],[9.60737757983133,59.6249671269168],[9.60754574361784,59.6249528777204],[9.6076872355903,59.6249342619237],[9.60781986389036,59.6249156870667],[9.60794370967418,59.6249016428126],[9.60806763651123,59.6248920880776],[9.60818261859892,59.6248780847064],[9.60829768177825,59.6248685708703],[9.60841274489188,59.6248590569334],[9.60852780793981,59.6248495428956],[9.6086340074284,59.6248400699041],[9.60874907034763,59.6248305556722],[9.60886413320116,59.6248210413395],[9.60897911471025,59.6248070372705],[9.60910304089874,59.6247974815577],[9.60923574918213,59.6247833949055],[9.60936837602303,59.6247648184839],[9.6095188110022,59.6247506491512],[9.60964257409245,59.624732113659],[9.60976633704565,59.6247135780502],[9.60989018126174,59.6246995319594],[9.60999629847235,59.6246855682309],[9.61009363357451,59.624676135297],[9.61019088718166,59.6246622126564],[9.61035010332896,59.6246435114841],[9.61048272899639,59.6246249339367],[9.61058884572289,59.6246109697292],[9.61072147112878,59.6245923919407],[9.611268066424,59.6244282041239],[9.61147086324558,59.6243688882577],[9.61233260800379,59.6239877050326],[9.61248262952195,59.6239510841393],[9.61284438704215,59.6238595933039],[9.61387071893786,59.6237560113552],[9.61401253012493,59.6237553472707],[9.61413653294464,59.623750276439],[9.6147922453832,59.62373822317],[9.61528850204382,59.6237314050839],[9.61654575828428,59.6236536582876],[9.61797812717428,59.6234583336516],[9.61863449292719,59.6234821782057],[9.61906140978461,59.6235609833399],[9.61961489369572,59.6237738895144],[9.62047934116548,59.6245061641211],[9.62067673798179,59.6246354402753],[9.62091000448486,59.6247869963519],[9.62099971655517,59.6248449416825],[9.62114269277391,59.6249071246311],[9.62127672309376,59.6249648597993],[9.62128558659929,59.6249648177973],[9.62139286095994,59.6250136996],[9.62141961739396,59.6250225528182],[9.62214104998689,59.6252077121452],[9.62247886253643,59.6252599889097],[9.62372209460247,59.6253798008425],[9.6245025923632,59.6254030255441],[9.62459122851756,59.6254026033149],[9.62512287851836,59.6253910894384],[9.62606058284973,59.6252878346623],[9.6273330869005,59.6250752111185],[9.62855474295968,59.62498853954],[9.6297262375337,59.6250637382709],[9.63109660970676,59.6253445103833],[9.63119469890214,59.6253754683377],[9.63196186033023,59.6256321939953],[9.63205995115835,59.6256631512983],[9.6328639322065,59.6259915345522],[9.63354857068619,59.6265719308827],[9.63389572164017,59.6271180355971],[9.63406947063588,59.62740006681],[9.63440768972098,59.6279417233271],[9.6345994301174,59.6282371368393],[9.63482815693006,59.6286131913744],[9.63514519516739,59.6289708576597],[9.63542593340502,59.6292837988952],[9.63550775100905,59.6293911628627],[9.63551678532893,59.629400099116],[9.63591480951092,59.6298202312799],[9.63613180973221,59.6300436797034],[9.63681437709085,59.6305073285777],[9.63753038088806,59.6308630508627],[9.6379062889447,59.6310498034793],[9.63842421370485,59.6312448436767],[9.63953083232947,59.6316255927876],[9.63963789823609,59.6316609907172],[9.63995134270938,59.6318255920987],[9.64015738078101,59.6319368368933],[9.64060774481853,59.6323073091643],[9.64062573221781,59.6323206913492],[9.6407901859695,59.6325758189861],[9.6408634199321,59.6326966916473],[9.64092482765499,59.6331274335001],[9.64023301536559,59.6340467771975],[9.63999399965759,59.6345328660557],[9.64001395345111,59.6346495091673],[9.64009359910281,59.6351071023569],[9.64024135600545,59.6354161923306],[9.64025985786922,59.6354565121647],[9.64097872648416,59.6368853162197],[9.64155030173558,59.6380274757594],[9.64155942566651,59.6380409011763],[9.64208756190945,59.6392281709693],[9.64226089529333,59.6399457248798],[9.64224175503129,59.6403364500393],[9.64223691873081,59.6405475044831],[9.64196606550143,59.6416892945588],[9.64202532492871,59.6424702670775],[9.64208916748268,59.643026716335],[9.64208052148576,59.6435027001658],[9.64208172213605,59.6435655544837],[9.64196751141887,59.6440869551616],[9.64174670197258,59.6445998972892],[9.64114576503101,59.6456445191834],[9.64040219933035,59.6466539144154],[9.64024529071074,59.6467983607848],[9.63926406296086,59.6474407282644],[9.63814207806731,59.6481466332302],[9.63788161459594,59.648444240756],[9.63789397821501,59.64862827099],[9.63799342021217,59.648726567537],[9.63802949584558,59.6487578221226],[9.63822744407676,59.6489050293952],[9.63817456636642,59.6489232467077],[9.63788365271466,59.6490189519522],[9.63757712716654,59.6492269826369],[9.63749081308427,59.6493531223856],[9.63730095388918,59.6496324254659],[9.63713506294881,59.6497724215957],[9.63682946180669,59.6500298360633],[9.63679474714109,59.6500704146626],[9.6366389128668,59.650273221419],[9.63660870552933,59.6505517484584],[9.63731410698647,59.6517291948681],[9.63747041736128,59.6529542069853],[9.63750717852992,59.6530213784206],[9.63758112727297,59.6531781692148],[9.63763673838678,59.6533036190647],[9.63772032626597,59.6535007729716],[9.63785961318316,59.653827866151],[9.63790575863427,59.6539219318713],[9.63791497070774,59.653939847095],[9.63809145147813,59.6543565592445],[9.63813776885607,59.6544596040534],[9.63833890736833,59.6547729257974],[9.63850140705284,59.6549203051276]]]},"properties":{"FID":10,"ID":10,"SYMBOL":605.001,"ANGLE":0,"TEXT1":" ","Shape__Length":14955.973047892578,"GlobalID":"6cdc274a-a094-4a3e-8479-531fd5b74f4d"}},{"type":"Feature","id":11,"geometry":{"type":"LineString","coordinates":[[9.65087027701497,59.6696271462929],[9.65128420535752,59.6703749225077],[9.65157763973624,59.6713163657089],[9.65100951214036,59.6717726752926]]},"properties":{"FID":11,"ID":11,"SYMBOL":605.001,"ANGLE":0,"TEXT1":" ","Shape__Length":252.67034524271281,"GlobalID":"a77ed2ce-f2af-411a-a3c7-872d35b5e8cd"}},{"type":"Feature","id":12,"geometry":{"type":"LineString","coordinates":[[9.64585412175383,59.6654133717028],[9.6455536093122,59.6654777105717],[9.64544901776503,59.6655770051284],[9.64549901180601,59.6663310792226],[9.64545524393988,59.6663627245299],[9.6454479227572,59.6664435805412],[9.64544895823203,59.6664974554455],[9.64545033887119,59.6665692886505],[9.64545189209853,59.6666501010052],[9.64545275500638,59.6666949967573],[9.6454625786966,59.6667443384296],[9.6454625786966,59.6667443384296],[9.64544646923514,59.6668297276662],[9.64542131258459,59.6669061814023],[9.64538719498591,59.6669781892082],[9.64534411639478,59.6670457510771],[9.6452832884586,59.6671134002189],[9.64522246027806,59.6671810493322],[9.64514396886016,59.6672532752607],[9.64507452423311,59.6673344366634],[9.64507452423311,59.6673344366634],[9.64497836904143,59.6674112393244],[9.6448818685413,59.6674700836141],[9.64476744590486,59.6675200359004],[9.64464406203396,59.6675655421121],[9.64452050548941,59.6676020690573],[9.64437928537293,59.6676431726275],[9.64423815104203,59.6676887656215],[9.64409718855387,59.6677433376155],[9.64409718855387,59.6677433376155],[9.6439385621604,59.6678024861401],[9.64379768478077,59.6678615473888],[9.64366568170771,59.6679205649527],[9.64354255298869,59.6679795388587],[9.64342829867112,59.6680384691316],[9.64332291880231,59.6680973557945],[9.64322632743119,59.6681517092926],[9.64312103283749,59.6682150853697],[9.64302452677294,59.6682739282956],[9.64292802037038,59.6683327711505],[9.64283159957616,59.6683961035109],[9.64273526435226,59.6684639253767],[9.64263005377391,59.6685317906364],[9.64251596778676,59.6685996992686],[9.64240196722827,59.6686720973781],[9.64227926290345,59.6687535179828],[9.64227926290345,59.6687535179828],[9.64214768293741,59.6688349819048],[9.64206056352048,59.6689207181495],[9.64200006893664,59.6690063240731],[9.64193957404558,59.6690919299682],[9.64187899302565,59.6691730462581],[9.64180066139791,59.6692542493378],[9.64169553225761,59.6693266034239],[9.64154602668066,59.6693991743899],[9.64154602668066,59.6693991743899],[9.64144012466268,59.6694311220807],[9.64135197287102,59.6694629829308],[9.64117566878529,59.6695267044539],[9.64101694311067,59.6695813598763],[9.6408581312319,59.6696315255299],[9.64070827981772,59.6696861372345],[9.64055859920973,59.6697497279232],[9.6404001283523,59.6698178513332],[9.6402419992725,59.6699039328626],[9.6402419992725,59.6699039328626],[9.64011894285854,59.6699673931379],[9.64001355113726,59.6700262771456],[9.63991703442748,59.6700851177875],[9.63983826817302,59.6701438718074],[9.63975950164328,59.67020262578],[9.63968978133163,59.6702703155949],[9.63962902171272,59.6703424516887],[9.63955955739647,59.6704236101672],[9.63955955739647,59.6704236101672],[9.63951612065128,59.670473211803],[9.63947268377814,59.6705228134242],[9.63942916127813,59.6705679254531],[9.63939459967736,59.6706174837991],[9.639359952485,59.6706625525581],[9.63932530519996,59.6707076213078],[9.63926488592237,59.6707977155418],[9.63921334191632,59.6708877665134],[9.63916171217069,59.6709733278862],[9.63911904326212,59.6710633355882],[9.63909327089616,59.6711083610469],[9.63906758391399,59.671157876078],[9.63904181140722,59.6712029015261],[9.63902499996877,59.6712523733253],[9.63899922733313,59.6712973987647],[9.63897354006935,59.6713469137764],[9.63894793816764,59.6714009183605],[9.63892225074996,59.6714504333617],[9.63889664868785,59.6715044379353],[9.63887113197157,59.6715629320812],[9.63884561516703,59.6716214262217],[9.63881122246974,59.6716799635646],[9.63877682965313,59.6717385008981],[9.63875148337772,59.6718059741744],[9.63870829988271,59.6718690442699],[9.63867407750012,59.6719365607305],[9.63863106448735,59.6720086099548],[9.63859701259447,59.6720851055493],[9.63859701259447,59.6720851055493],[9.63811694195862,59.6729809493655],[9.63773943942078,59.6736697532098],[9.63761943414532,59.6738948359108],[9.63754159280542,59.6740029738873],[9.63706497610973,59.6746159272311],[9.6369774028602,59.6746792121865],[9.63681113200616,59.6748057388486],[9.63673226412948,59.6748600014121],[9.63592692337931,59.6754610749753],[9.63585684432275,59.6755108044205],[9.63531497786494,59.6759624276219],[9.63512512139853,59.6762507058537],[9.63507321825544,59.676322796846],[9.6350387292788,59.6763768435993],[9.63478124701011,59.6768450480385],[9.63438087230588,59.6772690428151],[9.63385467787601,59.6776128242656],[9.63267932475389,59.6783728132846],[9.63240894106234,59.6786300456294],[9.63147567125278,59.6795190664063],[9.63098728703905,59.6799883736803],[9.63074511471193,59.68033077652],[9.63066240755837,59.6806544528046],[9.63070298230254,59.6809236568614],[9.63083234104873,59.6811924342056],[9.63122940503188,59.6815317639566],[9.63158944221215,59.6817904509903],[9.63176066887354,59.6819243264413],[9.63223816592447,59.6822902058909],[9.63267246472303,59.6827191516122],[9.63289012629408,59.6829605613665],[9.63298145463557,59.6830948204646],[9.63301790149335,59.6831440345102],[9.63330888714676,59.6835063194713],[9.63347464035978,59.6838198184275],[9.63357629340675,59.6840303569878],[9.63397259722565,59.6847962305021],[9.63420046359849,59.6855763866532],[9.63427947647662,59.6859980631736],[9.63423417542423,59.6864203403329],[9.63375844948584,59.6875630931724],[9.63344893981653,59.6881033847281],[9.63294066589895,59.6884650348208],[9.63256981125699,59.6885790719128],[9.63245512919552,59.6886200343076],[9.63221671472159,59.6886930224231],[9.63118329179916,59.6889943340226],[9.63112146681853,59.6890125911894],[9.63105989509715,59.6890443170442],[9.63083982631536,59.6891486442883],[9.63076945803456,59.689184902255],[9.62970289543652,59.6900880182688],[9.6296414046585,59.6901242330314],[9.62924581493245,59.6903416487102],[9.62800144339421,59.6907651752601],[9.62791322286736,59.6907970270912],[9.62783379904484,59.6908243468163],[9.62772823642367,59.6908787313379],[9.62749960020958,59.6910010537512],[9.62720058605044,59.6911596318225],[9.626692785598,59.6915526847587],[9.62613235648227,59.6919819064846],[9.6260101979142,59.6920992283851],[9.62543408080619,59.6926407711832],[9.62498329008478,59.6932355944575],[9.62489648193715,59.6933437670339],[9.62479416775941,59.6935732426061],[9.62440257730335,59.6944865699818],[9.62428658665677,59.6949361187462],[9.62429697266614,59.6950168888446],[9.6243685062042,59.6955194254494],[9.62456372492913,59.6959854538891],[9.62459170930756,59.6960571602941],[9.62454142500621,59.6962190384499],[9.62436645283842,59.6963635497226],[9.62386408297382,59.6965769664273],[9.62343218237582,59.6967586167941],[9.62323985472114,59.6969256587881],[9.62318822796398,59.6970157032399],[9.62292145753133,59.6974794360466],[9.62268887725387,59.6978711666077],[9.62181125493814,59.6984500418789],[9.62161807744231,59.6985721857454],[9.62087756119699,59.698881007379],[9.62066594701293,59.6989673172624],[9.62032208201913,59.6991081312937],[9.61972259433681,59.6993579103846],[9.61960794268826,59.6994033511479],[9.61936095497525,59.6994988057581],[9.61876983940843,59.6997216011521],[9.61821284234608,59.6998679038005],[9.61791172009812,59.6999187108761],[9.61735364162005,59.7000066453966],[9.61677779348064,59.700094661008],[9.61639754180157,59.7001907359235],[9.61507976308967,59.7005157031062],[9.6142480055439,59.7006991953489],[9.612885275555,59.7009974108588],[9.61265520399018,59.7010478741514],[9.61238087752654,59.7011075233689],[9.61228348540351,59.7011259374047],[9.61211559763098,59.7011761097608],[9.61167362583174,59.701299398386],[9.61160321135666,59.7013356460842],[9.61155920223245,59.7013583008765],[9.60986073119037,59.7022507229216],[9.6081976250589,59.7031384688412],[9.60793370421254,59.7032833696962],[9.6070338529992,59.7036377494941],[9.60657609167618,59.7038733427029],[9.60615516022904,59.7041806036033],[9.60554589604691,59.7048838479679],[9.60530101615017,59.7051004949162],[9.60493158440378,59.7053087353149],[9.60318257749089,59.7058825152705],[9.60286514220309,59.7060186716361]]},"properties":{"FID":12,"ID":12,"SYMBOL":605.001,"ANGLE":0,"TEXT1":" ","Shape__Length":5635.4020129788823,"GlobalID":"38f4e670-5d84-446a-b585-93bc8d5dcedb"}},{"type":"Feature","id":13,"geometry":{"type":"LineString","coordinates":[[9.55886970909584,59.7048034402976],[9.55921606263675,59.7047929858891],[9.56012125164376,59.7047262687641],[9.56111333022411,59.704542435698],[9.5618768062679,59.7045032515561],[9.56266806437902,59.7045312930342],[9.56281917831466,59.7045351353748],[9.56350961354132,59.7043795163127],[9.5642318031935,59.7039992600956],[9.56483307393093,59.7038260573462],[9.5655951661043,59.7037060385186],[9.56608502071334,59.7037757667321],[9.56612959439592,59.7037845544509],[9.56627401965041,59.7039186299684],[9.56649543819023,59.7044025886695],[9.56689319108175,59.7048049668974],[9.56725252812871,59.7050368920923],[9.56823563286114,59.7053738771867],[9.56907217900717,59.7054510735277],[9.57064187319216,59.7057944772054],[9.57199652043303,59.7060310404504],[9.57267270096205,59.7060819726883],[9.57365847691979,59.7060507303661],[9.57492841696283,59.7060092569373],[9.57540866895449,59.7060340930962],[9.5757653025099,59.7061043690126],[9.57590792550317,59.7061306832647],[9.57658596681646,59.706289345882],[9.57703346532259,59.7064759579269],[9.57744852108298,59.7068423089009],[9.57787888030581,59.7070649130052],[9.57884438023202,59.707401896519],[9.57991528238338,59.7076665684417],[9.58100272754378,59.7078593193583],[9.58253321326001,59.7079782576286],[9.5837600381001,59.7080087293698],[9.58494149754464,59.707985512374],[9.58509255109447,59.7079848394555],[9.5862111822339,59.7079259713654],[9.58704468828124,59.7078234691595],[9.58761131159046,59.7077041963238],[9.58824759609155,59.7075037899349],[9.58918660488396,59.7073379421558],[9.59058376374651,59.7069500204688],[9.59088435786279,59.7068633592133],[9.59152329984699,59.7068155831652],[9.59307892117357,59.7068489762299],[9.59383408262795,59.7068410735487],[9.59470339728696,59.7067563204358],[9.59764158566938,59.7060874482637],[9.59854512850968,59.7059306745854],[9.60000153474143,59.7058836185615],[9.60103162217147,59.7058474782283],[9.6019375605352,59.7058253688164],[9.60227583200534,59.705859737422],[9.60252606174439,59.7059394087051]]},"properties":{"FID":13,"ID":13,"SYMBOL":605.001,"ANGLE":0,"TEXT1":" ","Shape__Length":2730.7357942759404,"GlobalID":"355abe8f-85b4-4db0-86be-ab42d3487988"}}]}