{"type": "FeatureCollection", "features": [{"type": "Feature", "geometry": {"type": "Point", "coordinates": [9.60564, 59.654063]}, "properties": {"name": "Korset"}}, {"type": "Feature", "geometry": {"type": "Point", "coordinates": [9.645477, 59.681292]}, "properties": {"name": "Vibehaugen, utsikt"}}, {"type": "Feature", "geometry": {"type": "Point", "coordinates": [9.630145, 59.650765]}, "properties": {"name": "Møllerkolten"}}, {"type": "Feature", "geometry": {"type": "Point", "coordinates": [9.522019, 59.670823]}, "properties": {"name": "Knutetoppen"}}, {"type": "Feature", "geometry": {"type": "Point", "coordinates": [9.662127, 59.700577]}, "properties": {"name": "Langevannstoppen"}}, {"type": "Feature", "geometry": {"type": "Point", "coordinates": [9.667497, 59.704647]}, "properties": {"name": "Utsiktspunkt"}}, {"type": "Feature", "geometry": {"type": "Point", "coordinates": [9.662533, 59.712675]}, "properties": {"name": "Utsiktspunkt"}}, {"type": "Feature", "geometry": {"type": "Point", "coordinates": [9.606212, 59.640138]}, "properties": {"name": "Utsiktspunkt"}}, {"type": "Feature", "geometry": {"type": "Point", "coordinates": [9.524297, 59.71468]}, "properties": {"name": "Utsiktspunkt"}}, {"type": "Feature", "geometry": {"type": "Point", "coordinates": [9.578945, 59.676308]}, "properties": {"name": "Utsiktspunkt"}}, {"type": "Feature", "geometry": {"type": "Point", "coordinates": [9.599578, 59.67768]}, "properties": {"name": "Utsiktspunkt"}}, {"type": "Feature", "geometry": {"type": "Point", "coordinates": [9.599616, 59.671295]}, "properties": {"name": "Utsiktspunkt"}}, {"type": "Feature", "geometry": {"type": "Point", "coordinates": [9.623455, 59.674086]}, "properties": {"name": "Beckerkjøkkenet"}}, {"type": "Feature", "geometry": {"type": "Point", "coordinates": [9.616667, 59.679444]}, "properties": {"name": "Barbrokollen"}}, {"type": "Feature", "geometry": {"type": "Point", "coordinates": [9.615492, 59.635613]}, "properties": {"name": "Utsiktspunkt"}}, {"type": "Feature", "geometry": {"type": "Point", "coordinates": [9.620062, 59.687976]}, "properties": {"name": "Haus Gabelåsen"}}, {"type": "Feature", "geometry": {"type": "Point", "coordinates": [9.542573, 59.683399]}, "properties": {"name": "Utsiktspunkt"}}, {"type": "Feature", "geometry": {"type": "Point", "coordinates": [9.579457, 59.672478]}, "properties": {"name": "Utsiktspunkt"}}, {"type": "Feature", "geometry": {"type": "Point", "coordinates": [9.523251, 59.673045]}, "properties": {"name": "Utsiktspunkt"}}, {"type": "Feature", "geometry": {"type": "Point", "coordinates": [9.661034, 59.623588]}, "properties": {"name": "Fiskeberget"}}, {"type": "Feature", "geometry": {"type": "Point", "coordinates": [9.53936, 59.642677]}, "properties": {"name": "Utsiktspunkt"}}, {"type": "Feature", "geometry": {"type": "Point", "coordinates": [9.536996, 59.711053]}, "properties": {"name": "Hegna"}}, {"type": "Feature", "geometry": {"type": "Point", "coordinates": [9.662103, 59.700583]}, "properties": {"name": "Langvasstoppen"}}]}